Name,Tag,Address,Phone,Latitude,Longitude
Chung cư HAGL1,ATM-24/7,"357 Lê Văn Lương, Q7, TPTP Hồ Chí Minh",null,10.7407322,106.704253
VPBank Nha Trang CDM,ATM-24/7,"26 YERSIN, Nha Trang, Khánh Hòa",null,12.2495601,109.1894298
Công ty Xi măng Sài Sơn,ATM,"Thôn Nam Sơn, xã Nam Phương Tiến, huyện Chương Mỹ, Hà Nội",null,20.51240,105.35313
VPBank Phú Lâm CDM,ATM-24/7,"122 Kinh Dương Vương, Q6, TP Hồ Chí Minh",null,10.7500747,106.6290527
VPBank Nha Trang,ATM-24/7,"26 YERSIN, Nha Trang, Khánh Hòa",null,12.2495601,109.1894298
VPBank Yên Hòa CDM,ATM-24/7,"Tầng 1- Chung cư CC3 Khu đô thị Yên Hòa, Cầu Giấy, Hà Nội",null,21.0220587,105.7877078
VPBank Phú Lâm,ATM-24/7,"122 Kinh Dương Vương, Q6, TP Hồ Chí Minh",null,10.7500747,106.6290527
VPBank Gia Lâm CDM,ATM-24/7,"Số 01S02 và 01S8A, ô đất B3-CT04, tòa S1.09 (L26M-2) dự án KĐT Gia Lâm - Vinhomes Ocean Park, xã Đa Tốn, huyện Gia Lâm, Hà Nội",null,20.995071,105.944054
VPBank Trung Kính CDM,ATM-24/7,"219 Trung Kính, phường Yên Hòa, quận Cầu Giấy, Hà Nội",null,34.047863,100.6196553
VPBank Phan Huy Ích CDM,ATM-24/7,"242 Phan Huy Ích, Q.Gò Vấp, TP Hồ Chí Minh",null,10.83667,106.636
VPBank Hóc Môn CDM,ATM-24/7,"39/13 Lê Thị Hà, khu phố 8, Thị trấn Hóc Môn, huyện Hóc Môn, TP Hồ Chí Minh",null,10.8860775,106.5983504
VPBank Vũ Trọng Phụng CDM,ATM-24/7,"Số 1 Nguyễn Huy Tưởng, phường Thanh Xuân Trung, quận Thanh Xuân, Hà Nội",null,20.9998712,105.8077351
VPBank Phan Huy ích,ATM-24/7,"242 Phan Huy Ích, Q.Gò Vấp, TP Hồ Chí Minh",null,10.83667,106.636
VPBank Sóc Trăng,ATM-24/7,"38-40-40A Trần Hưng Đạo, Khóm 2, Phường 2, Thành Phố Sóc Trăng, Tỉnh Sóc Trăng",null,9.595227,105.969894
Chợ Sóc Trăng CDM,ATM-24/7,"10 Nguyễn Văn Trỗi, Khóm 1, Phường 1, TP.Sóc Trăng, Tỉnh Sóc Trăng",null,9.604890,105.975743
VPBank Chợ lớn CDM,ATM-24/7,"57 Trần Bình - 54 Tháp Mười, Q.6, TP Hồ Chí Minh",null,10.749322,106.6510784
VPBank Hòa Thành CDM,ATM-24/7,"01-03 Trương Quyền, Phường Long Hoa, Thị Xã Hoà Thành, Tỉnh Tây Ninh",null,11.282163,106.12902
VPBank Bình Phú CDM,ATM-24/7,"56 Bình Phú, P11, Q.6, TP Hồ Chí Minh",null,10.7465149,106.6313125
VPBank Sơn La CDM,ATM-24/7,"Số 21 đường Trường Chinh, Phường Quyết Thắng, Thành phố Sơn La, Tỉnh Sơn La.",null,21.32609,103.91495
Công ty CPXNK 3-2 Hòa Bình,ATM-24/7,"Số 14 An Dương Vương, phường Chăm Mát, thành phố Hòa Bình, tỉnh Hòa Bình",null,20.7853881,105.3357993
VPBank Hoa Lư CDM,ATM-24/7,"925 Đại Cồ Việt, thị trấn Thiên Tôn, huyện Hoa Lư, tỉnh Ninh Bình",null,20.299194,105.952733
VPBank Sóc Trăng CDM,ATM-24/7,"38-40-40A Trần Hưng Đạo, Khóm 2, Phường 2, Thành Phố Sóc Trăng, Tỉnh Sóc Trăng",null,9.595227,105.969894
Công ty TNHH YG VINA I,ATM-24/7,"LO 2,KCN Gian Khẩu,Gia Viễn, Ninh Bình",null,20.3401718,105.9281859
Công ty J.Young- Đông Thạnh,ATM-24/7,"Hương Lộ 80B, ấp 4, Xã Đông Thạnh, huyện Hóc Môn, Thành Phố Hồ chí Minh",null,10.9006022,106.644621
VPBank Phú Xuân CDM,ATM-24/7,"101-101A Huỳnh Tấn Phát, huyện Nhà Bè, TP.Hồ Chí Minh",null,10.7002657,106.7385798
VPBank Bỉm Sơn CDM,ATM-24/7,"Số 18 đường Nguyễn Huệ, phường Ngọc Trạo, Thị xã Bỉm sơn, tỉnh Thanh Hóa",null,20.0848305,105.8571719
VPBank Sông Lam,ATM-24/7,"Shophouse LK1-10, dự án đầu tư xây dựng Khu nhà ở thấp tầng Trường Thịnh Phát, Khối Yên Sơn, phường Hà Huy Tập, Thành Phố Vinh, tỉnh Nghệ An",null,18.692662,105.689056
VPBank Chương Dương CDM,ATM-24/7,"562, Nguyễn Văn Cừ, phường Gia Thụy, quận Long Biên, Hà Nội",null,21.049556,105.8838507
VPBank Thái Nguyên CDM,ATM-24/7,"Số 631, đường Lương Ngọc Quyến, phường Phan Đình Phùng, thành phố Thái Nguyên, tỉnh Thái Nguyên",null,21.587916,105.8309401
VPBank Nghệ An CDM,ATM-24/7,"Nhà A Khu Thương mại thành phố Vinh, tỉnh Nghệ An",null,18.6707564,105.6742798
VPBank Hoàng Hoa Thám CDM,ATM-24/7,"26 Hoàng Hoa Thám, Q.Tân Bình, TP Hồ Chí Minh",null,10.7976633,106.6471859
VPBank Thanh Xuân CDM,ATM-24/7,"Tòa nhà Housinco Tân Triều, lô Ct5, KĐT Tây Nam Kim Giang I, Xã Tân Triều, Huyện Thanh Trì, TP Hà Nội",null,20.98295,105.80894
Công ty CP Dgwin Việt Nam,ATM-24/7,"Xã Thọ Nguyên, huyện Thọ Xương, tỉnh Thanh Hóa",null,19.9047272,105.3921656
VPBank Cộng Hòa,ATM-24/7,"19C Cộng Hòa, Q.Tân Bình, TP Hồ Chí Minh",null,10.801562,106.650261
VPBank Thanh Trì CDM,ATM-24/7,"TT3-01 và TT3-02, Tòa chung cư IEC, đường Vũ Lăng, xã Tứ Hiệp, huyện Thanh Trì, Hà Nội",null,20.940649,105.849167
VPBank Bình Chánh CDM,ATM-24/7,"Số D6/5 Quốc Lộ 1A, ấp 2, Xã Bình Chánh, Huyện Bình Chánh, TP HCM",null,10.666403,106.572054
Công ty May Hồ Gươm 09,ATM,"Ngã Ba Thọ Phú, xã Kiên Thọ, huyện Ngọc Lặc, tỉnh Thanh Hóa",null,19.948150,105.402964
Công ty May Văn Phú II,ATM-24/7,"Thôn Phong Lai 1, xã Văn Phú, huyện Nho Quan, Tỉnh Ninh Bình",null,20.2596633,105.7662848
VPBank Thanh Oai CDM,ATM-24/7,"256-258 tổ 3, Phố Kim Bài, Thị trấn Kim Bài, Huyện  Thanh Oai, Thành phố Hà Nội",null,20.85029,105.76934
Công ty TNHH DEAHAN,ATM-24/7,"Thôn 6, xã Hoằng Kim, huyện Hoằng Hóa, tỉnh Thanh Hóa",null,19.907063,105.812289
VPBank Đội Cung CDM,ATM-24/7,"Số 113, đường Trường Chinh, phường Lê Lợi, thành phố Vinh, tỉnh Nghệ An",null,18.6811226,105.6649147
Công ty TNHH may XK DHA,ATM,"Xã Bích Hòa, huyện Thanh Oai, Hà Nội",null,20.9170698,105.7644596
VPBank Nam Thăng Long,ATM,"Lô số 4, khu thương mại thấp tầng (Shophouse CT-17), khu đô thị Nam Thăng Long, phường Xuân La, quận Tây Hồ, Hà Nội",null,20.963182,105.766417
VPBank Thạch Thất CDM,ATM-24/7,"Số 9, đường 419, thôn Vĩnh Lộc, xã Phùng Xá, huyện Thạch Thất, Hà Nội.",null,21.01392,105.617859
VPBank Âu Cơ CDM,ATM-24/7,"109 Nghi Tàm, Yên Phụ, quận Tây Hồ, Hà Nội",null,21.053488,105.837504
VPBank Lê Văn Sỹ,ATM-24/7,"288-290 Lê Văn Sỹ, Q.3, TP Hồ Chí Minh",null,10.7870139,106.679744
VPBank Sơn Tây,ATM-24/7,"Số 354 đường Chùa Thông, phường Sơn Lộc,Thị xã Sơn Tây, Hà Nội",null,21.126721,105.502857
VPBank Sóc Sơn CDM,ATM-24/7,"Số 11-12 khu A, KĐT Mới, TT Sóc Sơn, huyện Sóc Sơn, Hà Nội.",null,21.260443,105.849939
VPBank Lê Văn Sỹ CDM,ATM-24/7,"288-290 Lê Văn Sỹ, quận 3, TP.Hồ Chí Minh",null,10.7870139,106.679744
Công ty CP Tràng An,ATM-24/7,"KCN Thạch Thất, Quốc Oai, Hà Nội",null,21.0064757,105.6310474
VPBank Nguyễn Thiện Thuật CDM,ATM-24/7,"299-301 Nguyễn Thiện Thuật, Q.3, TP Hồ Chí Minh",null,10.7697235,106.6775725
VPBank Trần Duy Hưng CDM,ATM-24/7,"Tầng 1, Tòa nhà số S4.03 Khu đô thị Vinhomes Smart City, Tây Mỗ, Hà nội.",null,21.011464,105.785935
VPBank Quận 3,ATM-24/7,"63 Phạm Ngọc Thạch, Phường Võ Thị Sáu, Quận 3, TP Hồ Chí Minh",null,10.786407,106.6918260
VPBank Hải Dương CDM,CDM,"11 Trần Hưng Đạo, thành phố Hải Dương, tỉnh Hải Dương",null,20.938015,106.3388869
VPBank Linh Đàm CDM II,ATM-24/7,"BT1 - Ô 18 Bắc Linh Đàm, Hoàng Mai, Hà Nội",null,20.9677453,105.8265847
VPBank Hải Dương,ATM-24/7,"11 Trần Hưng Đạo, phường Trần Hưng Đạo, TP Hải Dương",null,20.938015,106.3388869
VPBank Linh Đàm CDM,ATM-24/7,"BT1 - Ô 18 Bắc Linh Đàm, Hoàng Mai, Hà Nội",null,20.9677453,105.8265847
Công ty May Việt Trí,ATM-24/7,"Thôn Đông La, xã Hồng Quang, huyện Thanh Miên, Hải Dương",null,20.8048568,106.1766366
Công ty TNHH YA-AJM Việt Nam,ATM-24/7,"Cụm CN An Đồng, xã An Đồng, Nam Sách, Hải Dương",null,20.995464,106.3346061
VPBank Định Công CDM,ATM-24/7,"55 Trần Nguyên Đán, Định Công, Hoàng Mai, Hà Nội",null,20.9862594,105.8332166
Công ty An Phát,ATM-24/7,"Lô CN 11-12, Cụm CN An Đồng, xã An Đồng Nam Sách, Hải Dương",null,21.0270628,106.3588886
Toà nhà Nam Đô CDM,ATM-24/7,"609 Trương Định, Hoàng Mai, Hà Nội",null,20.9793732,105.8447903
Công ty TNHH Giày Việt Hảo,ATM-24/7,"Thôn Quỳnh Khuê, xã Kim Xuyên, huyện Kim Thành, tỉnh Hải Dương",null,20.974673,106.482323
Pháp Vân CDM,ATM-24/7,"SOUTH BUILDING, KĐT Pháp Vân, phường Từ Hiệp, quận Hoàng Mai, Hà Nội",null,20.9561981,105.8468721
VPBank Chí Linh CDM,ATM-24/7,"251 Nguyễn Trãi, phường Sao Đỏ, thành phố Chí Linh, tỉnh Hải Dương",null,21.06373,106.23203
Khu đô thị Gamuda CDM,ATM-24/7,"Tầng 1 BT08, Đường 2.5 KĐT Gamuda, phường Trần Phú, quận Hoàng Mai, Hà Nội",null,20.9702217,105.8787415
Công ty Venture,ATM,"Km40, QL5, thị trấn Lai Cách, huyện Cẩm Giàng, tỉnh Hải Dương",null,20.9340107,106.254984
HH1C Linh Đàm,ATM-24/7,"HH1C Linh Đàm, Hoàng Mai, Hà Nội",null,20.9647451,105.8267473
VPBank Thành Sen,ATM-24/7,"Số 63, đường Nguyễn Chí Thanh, phường Tân Giang, thành phố Hà Tĩnh, tỉnh Hà Tĩnh",null,18.3382014,105.9053331
Công ty TNHH Molex Việt Nam,ATM,"P-15, KCN Thăng Long, Xã Kim Chung, huyện Đông Anh, Hà Nội",null,21.112491,105.764121
VPBank Nguyễn Du,ATM-24/7,"Số 214, đường Nguyễn Công Trứ, phường Bắc Hà, thành phố Hà Tĩnh, tỉnh Hà Tĩnh",null,18.346753,105.902464
Công ty Panasonic II,ATM,"Lô J1/J2, Khu CN Thăng Long, huyện Đông Anh, Hà Nội",null,21.1096592,105.7842673
VPBank Hồng Lĩnh,ATM-24/7,"Số 101 đường Trần Phú, phường Nam Hồng, thị xã Hồng Lĩnh, tỉnh Hà Tĩnh",null,18.5244601,105.7028457
VPBank Hà Tĩnh CDM,ATM-24/7,"Số 17, đường Trần Phú, phường Trần Phú, thành phố Hà Tĩnh, tỉnh Hà Tĩnh",null,18.3395963,105.8943328
VPBank Phùng,ATM-24/7,"Số 228 Tây Sơn, TT. Phùng, H. Đan Phương, Hà Nội",null,21.084054,105.670530
VPBank Hà Tĩnh,ATM-24/7,"Số 17, đường Trần Phú, phường Trần Phú, thành phố Hà Tĩnh, tỉnh Hà Tĩnh",null,18.3395963,105.8943328
Trường TCCS Vũ Trang,ATM,"xã Thủy Xuân Tiên, huyện Chương Mỹ, Hà Nội",null,20.8887229,105.5776769
VPBank Mỹ Đức CDM,ATM-24/7,"148-150 Đường Đại Nghĩa, Thị Trấn Đại Nghĩa, Huyện Mỹ Đức, Thành Phố Hà Nội",null,20.68485,105.74246
Công ty TNHH May Xuất Khẩu Đại Nghĩa,ATM,"Thôn Thọ Sơn, thị trấn Đại Nghĩa, huyện Mỹ Đức, Hà Nội",null,20.6784449,105.7497489
Sân Golf Skylake,ATM-24/7,"Khu vực Hồ Văn Sơn, Chương Mỹ, Hà Nội",null,20.8342308,105.6192157
Nhà máy Thuận Hưng - Woodsland,ATM-24/7,"Lô 49K,KCN Quang Minh, Mê Linh, Hà Nội",null,21.1856191,105.7792521
VPBank Thụy Khuê CDM,ATM-24/7,"Số 251U+251T+251V đường Thụy Khuê, phường Thụy Khuê, Quận Tây Hồ, Hà Nội",null,21.0434838,105.818944
VPBank Long Biên CDM,ATM-24/7,"3 Nguyễn Sơn, quận Long Biên, Hà Nội",null,21.0482033,105.8754426
HH1B Linh Đàm,ATM-24/7,"HH1B Linh Đàm, Hoàng Mai, Hà Nội",null,20.9634603,105.8257732
VPBank Sầm Sơn,ATM-24/7,"Số 47, Đường Nguyễn Du, phường Trường Sơn, Thị xã Sầm Sơn, tỉnh Thanh Hóa",null,19.7343386,105.8980136
VPBank Bùi Hữu Nghĩa CDM,ATM-24/7,"474A Trần Hưng Đạo, Q.5, TP Hồ Chí Minh",null,10.7536879,106.6617835
VPBank Sầm Sơn CDM,ATM-24/7,"Số 47, Đường Nguyễn Du, phường Trường Sơn, Thị xã Sầm Sơn, tỉnh Thanh Hóa",null,19.7343386,105.8980136
Công ty Viexim Hưng Yên,ATM-24/7,"Thôn Hảo, xã Liêu Xá, huyện Yên Mỹ, tỉnh Hưng Yên",null,20.922114,106.058199
Công ty Speed Motion Việt Nam,ATM,"Thôn Phong Cốc, xã Xuân Minh, huyện Thọ Xuân, tỉnh Thanh Hóa",null,19.953515,105.550551
VPBank Như Quỳnh CDM,ATM-24/7,"Số 12 đường số 1 Như Quỳnh Center, Thị Trấn Như Quỳnh, Văn Lâm, Hưng Yên",null,20.982246,105.98301
Bưu điện bãi Chạo,ATM-24/7,"xóm Bãi Chạo, xã Tú Sơn, huyện Kim Bôi, Hòa Bình",null,20.7382699,105.4071576
VPBank Văn Giang CDM,ATM-24/7,"Khu biệt thự Thủy Nguyên, MRA-185A, xã Phụng Công, huyện Văn Giang, tỉnh Hưng Yên",null,20.948631,105.934369
VPBank Bàu Cát CDM,ATM-24/7,"33 Trương Công Định, phường 14, Tân Bình, TP Hồ Chí Minh",null,10.7963019,106.6412972
Công ty kết cấu thép 568,ATM,"Km 33 Quốc Lộ 5, xã Minh Đức, huyện Mỹ Hào, tỉnh Hưng Yên",null,20.9214323,106.1374579
VPBank Yên Lạc CDM,ATM-24/7,"Số 103, Đường Nguyễn Khoan, Thị Trấn Yên Lạc, Huyện Yên Lạc, Vĩnh Phúc",null,21.235801,105.573253
Pico Plaza,ATM-24/7,"20 Cộng Hòa, P.4, Q.Tân Bình, TP Hồ Chí Minh",null,10.8005781,106.6531323
VPBank Quảng Trị CDM,ATM-24/7,"38 QL9, Phường 1, thành phố Đông Hà, tỉnh Quảng Trị",null,"16,817521","107,086597"
Công ty Tài chính FE CDM,CDM,"144 Cộng Hòa, P12, quận Tân Bình, TP.Hồ Chí Minh",null,10.8019171,106.6522494
Tòa nhà REE,ATM,"9 Đoàn Văn Bơ, quận 4, TP.Hồ Chí Minh",null,10.764686,106.7023569
Công ty Tài Chính FE,ATM-24/7,"144 Cộng Hòa, P12, quận Tân Bình, TP Hồ Chí Minh",null,10.8019171,106.6522494
Tòa nhà H3,ATM,"384 Hoàng Diệu, phường 6, quận 4, TP. Hồ Chí Minh",null,10.7601978,106.6989601
Cộng Hòa 5,ATM,"19C Cộng Hòa, phường 12, Q.Tân Bình, TP Hồ Chí Minh",null,10.801562,106.650261
Tòa nhà COPAC,ATM-24/7,"12 Tôn Đản, Q.4, TP Hồ Chí Minh",null,10.7624538,106.7075238
Cộng Hòa 4,ATM,"19C Cộng Hòa, phường 12, Q.Tân Bình, TP Hồ Chí Minh",null,10.801562,106.650261
Chung cư Khánh Hội 2 CDM,ATM-24/7,"360A Bến Vân Đồn, Phường 1, Quận 4, Thành phố Hồ Chí Minh",null,10.7560357,106.6906566
Cộng Hòa 3,ATM,"19C Cộng Hòa, phường 12, Q.Tân Bình, TP Hồ Chí Minh",null,10.801562,106.650261
VPBank Quận 3 CDM,ATM-24/7,"63 Phạm Ngọc Thạch, Phường Võ Thị Sáu, Quận 3, TP Hồ Chí Minh",null,10.786407,106.6918260
VPBank Trần Não CDM,ATM-24/7,"188 -190 Trần Não, Phường An Khánh, TP.Thủ Đức, TP. Hồ Chí Minh",null,10.790368,106.730193
Công ty Y Khoa Việt,ATM-24/7,"Lô 01-8A, Cụm Công Nghiệp Hai Bà Trưng, phường Hoàng Văn Thụ, quận Hoàng Mai, Hà Nội",null,20.9833274,105.8663575
VPBank Trần Não,ATM-24/7,"188 -190 Trần Não, Phường An Khánh, TP.Thủ Đức, TP. Hồ Chí Minh",null,10.790368,106.730193
VPBank Gang Thép CDM,ATM-24/7,"Số 542-544, đường Cách mạng Tháng Tám, tổ 12, phường Trung Thành, thành phố Thái Nguyên, tỉnh Thái Nguyên",null,21.5458161,105.8707122
VPBank Thủ Đức CDM,ATM-24/7,"100C Đặng Văn Bi, khu phố 2, phường Bình Thọ, TP. Thủ Đức, TP Hồ Chí Minh",null,10.843883,106.762408
Công ty CP May Hưng Thành,ATM-24/7,"Xã Tân Cương, thành phố Thái Nguyên, Thái Nguyên",null,21.5316194,105.7884918
VPBank Thủ Đức,ATM-24/7,"100C Đặng Văn Bi, khu phố 2, phường Bình Thọ, TP. Thủ Đức, TP Hồ Chí Minh",null,10.843883,106.762408
VPBank Sông Công CDM,ATM-24/7,"Số 194 đường Cách mạng tháng 8, tổ 11, phường Thắng Lợi, thành phố Sông Công, tỉnh Thái Nguyên",null,21.46795,105.84531
VPBank Thảo Điền CDM,ATM-24/7,"57 Quốc Hương, Phường Thảo Điền, Thành phố Thủ Đức, TP Hồ Chí Minh",null,10.806654,106.730988
VPBank Thường Tín CDM,ATM-24/7,"Xã Văn Bình, huyện Thường Tín, thành phố Hà Nội.",null,20.871799,105.867801
VPBank Cộng Hòa CDM,ATM-24/7,"19C Cộng Hòa, Q.Tân Bình, TP Hồ Chí Minh",null,10.801562,106.650261
VPBank Thường Tín,ATM-24/7,"Xã Văn Bình, huyện Thường Tín, Hà Nội",null,20.8935787,105.8573536
VPBank Thảo Điền,ATM-24/7,"57 Quốc Hương, Phường Thảo Điền, Thành phố Thủ Đức, TP Hồ Chí Minh",null,10.806654,106.730988
VPBank Cần Giờ CDM,ATM-24/7,"209A Đào Cử, Thị trấn Cần Thạnh, Huyện Cần Giờ, TP Hồ Chí Minh",null,10.411599,106.966735
VPBank Lê Văn Việt,ATM-24/7,"304 Lê Văn Việt, P. Tăng Nhơn Phú B, TP. Thủ Đức, TP. Hồ Chí Minh",null,10.844417,106.785031
VPBank Văn Thánh CDM,ATM-24/7,"68 - 70 Nguyễn Gia Trí, Phường 25, Quận Bình Thạnh, TP.Hồ Chí Minh",null,10.8019035,106.7154733
Vinhomes Grand Park CDM,ATM-24/7,"Shophouse số: 01S10 Sảnh S3.02, Phường Long Thạnh Mỹ, Tp.Thủ Đức, TP Hồ Chí Minh",null,10.839612,106.834305
VPBank Nơ Trang Long CDM,ATM-24/7,"151 Nơ Trang Long, P12, Q.Bình Thạnh, TP Hồ Chí Minh",null,10.8132337,106.6966565
Nguyễn Thị Định CDM,ATM-24/7,"611 Nguyễn Thị Định, Phường Cát Lái, TP Thủ Đức, TP Hồ Chí Minh",null,10.7760967,106.7664262
VPBank Nơ Trang Long,ATM-24/7,"151 Nơ Trang Long, P12, Q.Bình Thạnh, TP Hồ Chí Minh",null,10.8132337,106.6966565
VPBank Nam Từ Liêm CDM,ATM-24/7,"292 Hồ Tùng Mậu, phường Phú Diễn, quận Bắc Từ Liêm, Hà Nội",null,21.041635,105.762144
VPBank Đông Sài Gòn CDM,ATM-24/7,"Tầng trệt và tầng 1 của nhà số P6-SH.10 thuộc nhà Chung cư Park 6 – phường 22, Quận Bình Thạnh, TP Hồ Chí Minh",null,10.7921907,106.7190411
VPBank Trần Phú CDM,ATM-24/7,"83 Trần Phú, phường Trần Hưng Đạo, thành phố Thái Bình, tỉnh Thái Bình",null,20.4428122,106.3329356
VPBank Quang Trung,ATM-24/7,"Số 184 Quang Trung, phường Phạm Hồng Thái, Quận Hồng Bàng, thành phố Hải Phòng",null,20.8552058,106.6726813
VPBank Trần Lãm CDM,ATM-24/7,"588 Lý Bôn, phường Kỳ Bá, thành phố Thái Bình, tỉnh Thái Bình",null,20.4402779,106.3397672
VPBank Hải An CDM,ATM-24/7,"346 Văn Cao, phường Đằng Lâm, quận Hải An,thành phố Hải Phòng",null,20.8316249,106.7026052
Công ty Panasonic II,ATM,"Lô J1/J2, Khu CN Thăng Long, huyện Đông Anh, Hà Nội",null,21.1096592,105.7842673
Công ty Lucky Việt Nam II,ATM-24/7,"Khu Tiểu Trà, Hưng Đạo, quận Dương Kinh, thành phố Hải Phòng",null,20.7953821,106.689688
Xí nghiệp 11- Công ty CP Hồ Gươm,ATM,"Xóm Mường Lầm, Xã Phong Phú, Huyện Tân Lạc, Tỉnh Hòa Bình",null,20.61190,105.22418
Công ty Lucky Việt Nam I,ATM-24/7,"Khu Tiểu Trà, Hưng Đạo, quận Dương Kinh, thành phố Hải Phòng",null,20.7953821,106.689688
VPBank Lương Sơn CDM,ATM-24/7,"629 Trần Phú, tiểu khu 13, thị trấn Lương Sơn, huyện Lương Sơn, tỉnh Hòa Bình",null,20.871952,105.531973
Trường ĐH PCCC cơ sở 2,ATM,"Xã Hòa Xá, huyện Lương Sơn, tỉnh Hòa Bình",null,20.854269,105.5537714
Công ty TNHH Vỹ Lâm,ATM-24/7,"Cụm Công nghiệp An Lão, thị trấn An Lão, huyện An Lão, thành phố Hải Phòng",null,20.8255561,106.5474681
Công ty Transon II,ATM-24/7,"Khu CN Lương Sơn, xã Hòa Sơn, huyện Lương Sơn, Hòa Bình",null,20.8888134,105.5402879
Công ty TNHH MTV Ngọc Việt,ATM-24/7,"Thị trấn Vân Đình, huyện Ứng Hòa, Hà Nội",null,20.736517,105.76729
Công ty Transon I,ATM-24/7,"Khu CN Lương Sơn, xã Hòa Sơn, huyện Lương Sơn, Hòa Bình",null,20.8888134,105.5402879
VPBank Nguyễn Lương Bằng CDM,ATM-24/7,"205 Nguyễn Lương Bằng, phường Thanh Trung, Hải Dương",null,20.9369416,106.3102475
VPBank Lê Văn Việt CDM,ATM-24/7,"304 Lê Văn Việt, P. Tăng Nhơn Phú B, TP. Thủ Đức, TP. Hồ Chí Minh",null,10.844417,106.785031
VPBank Lê Hồng Phong CDM,ATM-24/7,"Thửa 13, Lô 22B, Khu đô thị mới Ngã Năm, Sân bay Cát Bi, phường Đông Khê, Quận Ngô Quyền,thành phố Hải Phòng",null,20.8477885,106.7069341
VPBank Bà Chiểu CDM,ATM-24/7,"341 Lê Quang Định, quận Bình Thạnh, TP.Hồ Chí Minh",null,10.8119058,106.6904901
VPBank Lê Hồng Phong,ATM-24/7,"Thửa 13, Lô 22B, Khu đô thị mới Ngã Năm, Sân bay Cát Bi, phường Đông Khê, Quận Ngô Quyền,thành phố Hải Phòng",null,20.8477885,106.7069341
Công ty TNHH Goshi Thăng Long,ATM,"KCN Sài Đồng A, quận Long Biên, Hà Nội",null,21.0302778,105.9191667
VPBank Lạch Tray CDM,ATM-24/7,"Số 276B Lạch Tray, phường Lạch Tray, quận Ngô Quyền, thành phố Hải Phòng",null,20.840743,106.6938359
VPBank Nam Hà Nội CDM,ATM-24/7,"18 ngõ 221 đường Giáp Bát, phường Giáp Bát, Hoàng Mai, Hà Nội",null,20.983874,105.844659
VPBank Hải Phòng CDM,ATM-24/7,"Số 31-33 Phạm Ngũ Lão, phường Lương Khánh Thiện, Quận Ngô Quyền, thành phố Hải Phòng",null,20.8568129,106.6867492
VPBank Phạm Văn Đồng CDM,ATM-24/7,"Căn hộ Vincom Shophouse Gardenia - Số B1-03+B1-05A, Đường Hàm Nghi, Q.Nam Từ Liêm, Hà Nội",null,21.0354584,105.7627312
VPBank Hải Phòng,ATM-24/7,"Số 31-33 Phạm Ngũ Lão, phường Lương Khánh Thiện, Quận Ngô Quyền, thành phố Hải Phòng",null,20.8568129,106.6867492
VPBank Lê Văn Lương CDM,ATM-24/7,"Tầng 1, Tòa nhà HCC1, Lê Văn Lương, phường Nhân Chính, quận Thanh Xuân, Hà Nội",null,21.002905,105.801717
VPBank Trần Nguyên Hãn CDM,CDM,"Số 170A đường Trần Nguyên Hãn, phường Trần Nguyên Hãn, quận Lê Chân, thành phố Hải Phòng",null,20.8479551,106.6714671
VPBank Bạch Đằng CDM,ATM-24/7,"104-106 Bạch Đằng, Q.Bình Thạnh, TP Hồ Chí Minh",null,10.803264,106.707902
VPBank Lê Chân CDM,ATM-24/7,"Số 230-232 Tô Hiệu, phường Trại Cau, Quận Lê Chân, thành phố Hải Phòng",null,20.850956,106.678312
Sông Hồng Hải Hậu I,ATM,"Xã Hải Phương, huyện Hải Hậu, tỉnh Nam Định",null,20.1649485,106.2784757
VPBank Lê Chân,ATM-24/7,"Số 230-232 Tô Hiệu, phường Trại Cau, Quận Lê Chân, thành phố Hải Phòng",null,20.850956,106.678312
VPBank Hòa Bình,ATM-24/7,"Số 681, đường Cù Chính Lan, phường Phương Lâm, thành phố Hòa Bình, tỉnh Hòa Bình",null,20.8177241,105.3367967
VPBank Kiến An CDM,ATM-24/7,"Số 125 Trần Thành Ngọ, phường Trần Thành Ngọ, Quận Kiến An, thành phố Hải Phòng",null,20.8103752,106.6257081
Công ty TNHH R Việt Nam,ATM-24/7,"Tổ 9, Lê Thánh Tông, thành phố Hòa Bình, tỉnh Hòa Bình",null,20.8293478,105.3433394
VPBank Kiến An 2,ATM-24/7,"Số 125 Trần Thành Ngọ, phường Trần Thành Ngọ, Quận Kiến An, thành phố Hải Phòng",null,20.8103752,106.6257081
Công ty TT Prosport 3,ATM,"Xóm 5, xã Hồng Thuận, huyện Giao Thủy, tỉnh Nam Định",null,20.2882670,106.4435319
VPBank Kiến An,ATM-24/7,"Số 125 Trần Thành Ngọ, phường Trần Thành Ngọ, Quận Kiến An, thành phố Hải Phòng",null,20.8103752,106.6257081
Công ty TT Pro Sport,ATM,"Khu 4A, thị trấn Ngô Đồng, huyện Giao Thủy, tỉnh Nam Định",null,20.28779,106.451662
Công ty TT Pro Sport,ATM,"Khu 4A, thị trấn Ngô Đồng, huyện Giao Thủy, tỉnh Nam Định",null,20.28779,106.451662
Khu đô thị Vạn Phúc CDM,ATM-24/7,"31 Nguyễn Thị Nhung, phường Hiệp Bình Phước,TP. Thủ Đức, TP Hồ Chí Minh",null,10.842237,106.714873
VPBank Thành Nam CDM,ATM-24/7,"Số 350 đường Trần Hưng Đạo, phường Bà Triệu, thành phố Nam Định",null,20.4304395,106.1726855
VPBank Lê Thanh Nghị CDM,ATM-24/7,"215 Lê Thanh Nghị, phường Bùi Thị Xuân, TP Hải Dương",null,20.9320894,106.3287112
Công ty Bao Bì Đại Lục 3,ATM-24/7,"Lô A2, Khu A, Đường số 1, CCN Lợi Bình Nhơn, TP Tân An, tỉnh Long An",null,10.552101,106.366650
Bệnh viện Nhi Trung ương 2,ATM-24/7,"18/879 Đê La Thành, Đống Đa, Hà Nội",null,21.0248769,105.8074996
VPBank Long An CDM,ATM-24/7,"Số 6 Lê Cao Dõng, phường 2, thị xã Tân An, tỉnh Long An",null,10.5371695,106.4071329
Công ty TNHH MTV Ngọc Việt II,ATM,"Thị trấn Vân Đình, huyện Ứng Hòa, Hà Nội",null,20.736517,105.76729
VPBank Long An,ATM-24/7,"Số 6 Lê Cao Dõng, phường 2, thị xã Tân An, tỉnh Long An",null,10.5371695,106.4071329
VPBank Ứng Hòa CDM,ATM-24/7,"Số 07-09 phố Quang Trung, TT Vân Đình, Ứng Hòa, HN",null,20.73270,105.77050
Công ty Bao Bì Đại Lục,ATM-24/7,"Cụm Công nghiệp Long Bình Nhơn, Xã Long Bình Nhơn, TP Tân An, tỉnh Long An",null,10.547918,106.3613875
VPBank Phổ Yên CDM,ATM-24/7,"45 Trường Chinh, phường Ba Hàng, thị trấn Phổ Yên, huyện Phổ Yên, tỉnh Thái Nguyên",null,20.948669,105.934481
VPBank Đức Hòa CDM,ATM-24/7,"Số D1 và D2 thuộc Dự án Imperia Grand Đức Hòa – Đường 3 tháng 2 nối dài, Thị trấn Hậu Nghĩa, Huyện Đức Hòa, Tỉnh Long An",null,10.902303,106.396326
UBND phường Bắc Sơn,ATM-24/7,"Tổ dân Phố A1, phường Bắc Sơn, huyện Phố Yên, tỉnh Thái Nguyên",null,21.4622149,105.7693505
Công ty Gỗ Bùi Văn Ngọ-Long An,ATM-24/7,"Ấp 5, Đức Hòa Đông, huyện Đức Hòa, tỉnh Long An",null,10.8649918,106.5696702
Công ty Creative Source III,ATM-24/7,"Lô CN2 và VN3 diện tích 71.744,3m2 Cụm CN Minh Lãng, xã Vũ Thư, tỉnh Thái Bình",null,20.4808527,106.269079
VPBank Thành Công,ATM-24/7,"Tầng 1, Tòa nhà Golden Place A, P. Mễ Trì, P. Phú Đô, Nam Từ Liêm, Hà Nội",null,21.009457,105.773674
VPBank Phạm Văn Đồng,ATM-24/7,"Căn hộ Vincom Shophouse Gardenia - Số B1-03+B1-05A, Đường Hàm Nghi, Q.Nam Từ Liêm, Hà Nội",null,21.0354584,105.7627312
Công ty Toyota Hà Đông,ATM-24/7,"số 977-979 đường Quang Trung, phường Yên Nghĩa, quận Hà Đông, Hà Nội",null,20.949697,105.748573
VPBank Phạm Hùng CDM,ATM-24/7,"Tòa nhà Shop W1 và tòa nhà số W1, W2 Lô đất HH, đường Phạm Hùng, phường Mễ Trì, Quận Nam Từ Liêm, thành phố Hà Nội",null,21.011464,105.785935
ATM Ministop Hoàng Hoa Thám,ATM-24/7,"10A Hoàng Hoa Thám, Phường 7, Quận Bình Thạnh, TP Hồ Chí Minh",null,10.804619,106.691791
VPBank Mỹ Đình CDM,ATM-24/7,"Tầng 1 tòa nhà CT1-1 khu đô thị Mễ Trì Hạ, phường Mễ Trì, quận Nam Từ Liêm, Hà Nội",null,21.015306,105.7809528
VPBank Tây Sài Gòn CDM,ATM-24/7,"270 Vành Đai Trong, P.Bình Trị Đông B, Quận Bình Tân, TP Hồ Chí Minh",null,10.7512509,106.6155623
VPBank Mỹ Đình,ATM,"Tầng 1 tòa nhà CT1-1 khu đô thị Mễ Trì Hạ, phường Mễ Trì, quận Nam Từ Liêm, Hà Nội",null,21.015306,105.7809528
VPBank Trung Sơn CDM,ATM-24/7,"49-51 Đường 9A, KDC Trung sơn, huyện Bình Chánh, TP Hồ Chí Minh",null,10.7378351,106.6898202
VPBank Lương Thế Vinh CDM,ATM-24/7,"ML6 căn 25-26, Khu đô thị Vinhome Greenbay, phường Mễ Trì, Nam Từ Liêm, Hà Nội",null,20.9999154,105.785359
VPBank Tân Túc CDM,ATM-24/7,"353 Nguyễn Hữu Trí, Khu Phố 1, Huyện Bình Chánh, TP.HCM",null,10.693023,106.580566
VPBank Lê Đức Thọ CDM,ATM-24/7,"20 Lô A1 Đường Lê Đức Thọ, phường Mỹ Đình II, quận Nam Từ Liêm, Hà Nội",null,21.0317952,105.7696375
VPBank Tân Túc,ATM-24/7,"353 Nguyễn Hữu Trí, Khu Phố 1, Huyện Bình Chánh, TP.HCM",null,10.693023,106.580566
Vinhomes Phạm Hùng CDM,ATM-24/7,"Lô E1.3 Vinhomes SkyLake, KĐT mới Cầu Giấy, Mỹ Đình 1, Nam Từ Liêm, Hà Nội",null,21.0204372,105.7814889
VPBank Chánh Hưng CDM,ATM-24/7,"357 Phạm Hùng, H.Bình Chánh, TP Hồ Chí Minh",null,10.7339213,106.6732837
Tòa nhà CT9 Sudico,ATM-24/7,"KĐT SUDICO, Mễ Trì Hạ, Từ Liêm, Hà Nội",null,21.0165182,105.7795285
VPBank Bình Hưng CDM,ATM-24/7,"số 467 Quốc Lộ 50, Xã Bình Hưng, Huyện Bình Chánh, TP Hồ Chí Minh",null,11.0638523,106.796198
Tòa nhà CT1 Sudico,ATM-24/7,"KĐT SUDICO, Mễ Trì Hạ, Từ Liêm, Hà Nội",null,21.0165182,105.7795285
VPBank Tây Hà Nội CDM,ATM-24/7,"Tầng 1, TN Tây Hà, Tố Hữu, Nam Từ Liêm, Hà Nội",null,20.9964391,105.7931632
Công ty May Sông Hồng Nam Định I,ATM,"Quốc lộ 10, huyện Lộc Hà, tỉnh Nam Định",null,20.45132,106.1890151
Siêu thị Hiền Lương,ATM,"Thị trấn Vân Đình, huyện Ứng Hòa, Hà Nội",null,20.696075,105.7571236
Công ty TNHH DF Zin,ATM,"Lô D2,KCN Hòa Xá, xã Mỹ Xá, thành phố Nam Định, tỉnh Nam Định",null,20.4176072,106.1461747
Tòa nhà CEO,ATM-24/7,"Tòa nhà CEO, Phạm Hùng, Nam Từ Liêm, Hà Nội",null,21.0166832,105.7821125
Công ty TNHH Long Yu VN,ATM-24/7,"KM9, Thôn Cao Lộng, xã Tân Thịnh, huyện Nam Trực, tỉnh Nam Định",null,20.3742611,106.2359363
Sông Hồng Hải Hậu II,ATM,"Xã Hải Phương, huyện Hải Hậu, tỉnh Nam Định",null,20.1649485,106.2784757
VPBank Lạc Quần 2,ATM-24/7,"Số 98 Quốc lộ 21, Thị trấn Cổ Lễ, huyện Trực Ninh, tỉnh Nam Định",null,20.3271823,106.2595308
VPBank Hồ Chí Minh CDM,ATM-24/7,"165-169 Hàm Nghi, Q.1, TP Hồ Chí Minh",null,10.770717,106.699662
VPBank Hóc Môn,ATM-24/7,"39/13 Lê Thị Hà, khu phố 8, Thị trấn Hóc Môn, huyện Hóc Môn,TP Hồ Chí Minh",null,10.8860775,106.5983504
VPBank Lạc Quần,ATM-24/7,"Số 98 Quốc lộ 21, Thị trấn Cổ Lễ, huyện Trực Ninh, tỉnh Nam Định",null,20.3271823,106.2595308
VPBank Hồ Chí Minh 4,ATM-24/7,"165-169 Hàm Nghi, Q.1, TP Hồ Chí Minh",null,10.770717,106.699662
VPBank Bà Điểm CDM,ATM-24/7,"52/10 Ấp Hậu Lân, Xã Bà Điểm, Huyện Hóc Môn, TP Hồ Chí Minh",null,10.847716,106.601067
VPBank Nam Định CDM,ATM-24/7,"Số 69 Lê Hồng Phong, phường Nguyễn Du, thành phố Nam Định, tỉnh Nam Định",null,20.426375,106.17724
VPBank Hồ Chí Minh,ATM-24/7,"165-169 Hàm Nghi, Q.1, TP Hồ Chí Minh",null,10.770717,106.699662
VPBank Nam Định,ATM-24/7,"Số 69 Lê Hồng Phong, phường Nguyễn Du, thành phố Nam Định, tỉnh Nam Định",null,20.426375,106.17724
Coopmart Xa Lộ Hà Nội,ATM-24/7,"191 Quang Trung, phường Hiệp Phú, quận 9, TP Hồ Chí Minh",null,10.8481795,106.7743266
VPBank Hàng Xanh CDM,ATM-24/7,"10A Nguyễn Thị Minh Khai, P.Đa Kao, Q1, TP Hồ Chí Minh",null,10.7882161,106.7029187
VPBank Đò Quan CDM,ATM-24/7,"Số 35-36, Lô CL 12, khu Đô thị Dệt may Nam Định, thành phố Nam Định, tỉnh Nam Định",null,20.420841,106.168804
Phạm Thế Hiển CDM,ATM-24/7,"2092 Phạm Thế Hiển, Phường 6, Quận 8, TP Hồ Chí Minh",null,10.734876,106.645684
VPBank Bến Thành II,ATM-24/7,"39 Lê Duẩn, phường Bến Nghé, Quận 1, TP Hồ Chí Minh",null,10.78142,106.70060
VPBank Đò Quan,ATM-24/7,"Số 35-36, Lô CL 12, khu Đô thị Dệt may Nam Định, thành phố Nam Định, tỉnh Nam Định",null,20.420841,106.168804
Chung cư Carina Plaza CDM,ATM-24/7,"1648 Đường Võ Văn Kiệt, Phường 16, Quận 8, TP Hồ Chí Minh",null,10.729120,106.624596
Công ty Sông Hồng Nam Định III,ATM,"105 Nguyễn Đức Thuận, phường Thống Nhất, thành phố Nam Định, tỉnh Nam Định",null,20.4420700,106.1748858
VPBank Bến Thành CDM,ATM-24/7,"39 Lê Duẩn, phường Bến Nghé, Quận 1, TP Hồ Chí Minh",null,10.78142,106.70060
VPBank Phú Mỹ Hưng CDM,ATM-24/7,"85 Hoàng Văn Thái, Q.7, TP Hồ Chí Minh",null,10.7291087,106.7202352
Tòa Nhà Riverfont FC2,ATM,"3A-3B Tôn Đức Thắng, Phường Bến Nghé, Q.1, TP Hồ Chí Minh",null,10.779652,106.706435
Sông Hồng Nghĩa Hưng II,ATM,"Xã Nghĩa Thái, huyện Nghĩa Hưng, tỉnh Nam Định",null,20.2394151,106.1669156
VPBank Phú Mỹ Hưng,ATM-24/7,"85 Hoàng Văn Thái, Q.7, TP Hồ Chí Minh",null,10.7291087,106.7202352
Tòa Nhà Riverfont FC1,ATM,"3A-3B Tôn Đức Thắng, Phường Bến Nghé, Q.1, TP Hồ Chí Minh",null,10.779652,106.706435
Sông Hồng Nghĩa Hưng I,ATM,"Xã Nghĩa Thái, huyện Nghĩa Hưng, tỉnh Nam Định",null,20.2394151,106.1669156
Công ty TNHH Phú Linh,ATM-24/7,"Xóm Nam Long, xã Nghĩa Long, huyện Nghĩa Đàn, tỉnh Nghệ An",null,19.24603,105.44349
Tòa nhà Nexus II,ATM,"3A-3B Tôn Đức Thắng, Phường Bến Nghé, Q.1, TP Hồ Chí Minh",null,10.779652,106.706435
Công ty Yamani II,ATM,"Xã Nam Hồng, huyện Nam Trực, tỉnh Nam Định",null,20.3420547,106.2433886
VPBank Bãi Cháy CDM,ATM-24/7,"Số 551 Đường Hạ Long, phường Bãi Cháy, thành phố Hạ Long, tỉnh Quảng Ninh",null,20.95882,107.02203
Tòa nhà Nexus I,ATM,"3A-3B Tôn Đức Thắng, Phường Bến Nghé, Q.1, TP Hồ Chí Minh",null,10.779652,106.706435
Công ty Yamani I,ATM,"Xã Nam Hồng, huyện Nam Trực, tỉnh Nam Định",null,20.3420547,106.2433886
VPBank Ý Yên CDM,ATM-24/7,"Đường 57, thị trấn Lâm, huyện Ý Yên, tỉnh Nam Định",null,20.3234114,106.0149874
Công ty May Văn Phú I,ATM-24/7,"Thôn Phú Lâm, xã Văn Phú, huyện Nho Quan, tỉnh Ninh Bình",null,20.2596633,105.7662848
Công ty Tài Chính FE 9,ATM,"3A-3B Tôn Đức Thắng, Phường Bến Nghé, Q.1, TP Hồ Chí Minh",null,10.779652,106.706435
VPBank Ý Yên,ATM-24/7,"Đường 57A, Thị trấn Lâm, huyện Ý Yên, tỉnh Nam Định",null,20.3234114,106.0149874
VPBank Hưng Vượng,ATM-24/7,"17 Bùi Bằng Đoàn, khu phố Hưng Vượng, P.Tân Phong, Quận 7,TP Hồ Chí Minh",null,15.5698161,108.4892272
Công ty Tài Chính FE 8,ATM,"3A-3B Tôn Đức Thắng, Phường Bến Nghé, Q.1, TP Hồ Chí Minh",null,10.779652,106.706435
Công ty May Sông Hồng Xuân Trường II,ATM,"Tổ 18, Trường Chinh, huyện Xuân Trường, tỉnh Nam Định",null,20.2993311,106.3581527
VPBank Sông Đà CDM,ATM-24/7,"Tổ 13, Đại lộ Thịnh Lang, phường Tân Thịnh, thành phố Hòa Bình, tỉnh Hòa Bình",null,20.8327456,105.3410524
Chung cư Flora Mizuki CDM,ATM-24/7,"Tầng trệt thuộc Chung cư Flora Mizuki- Block M3, M4, M5, Đường số 1, xã Bình Hưng, huyện Bình Chánh, TP Hồ Chí Minh",null,10.7146957,106.6630803
Công ty May Sông Hồng Xuân Trường I,ATM,"Tổ 18, Trường Chinh, huyện Xuân Trường, tỉnh Nam Định",null,20.2993311,106.3581527
VPBank Thủy Nguyên CDM,ATM-24/7,"Số 86, Phố Mới, xã Thủy Sơn, huyện Thủy Nguyên, thành phố Hải Phòng",null,20.9151250,106.6743930
VPBank Diễn Châu,ATM-24/7,"Nhà số 43, Tổ 8, Khối 3, TT Diễn Châu, huyện Diễn Châu, tỉnh Nghệ An",null,18.983484,105.601027
VPBank Sở Giao Dịch 2  CDM 1,ATM-24/7,"3A-3B Tôn Đức Thắng, Phường Bến Nghé, Q.1, TP Hồ Chí Minh",null,10.779652,106.706435
VPBank Chợ Vinh CDM,ATM-24/7,"20 Cao Thắng, phường Hồng Sơn, TP Vinh, tỉnh Nghệ An",null,18.6646085,105.674234
VPBank Hà Đông CDM,ATM-24/7,"T1 CT1, KDT Mỗ Lao, Hà Đông, Hà Nội",null,20.9801569,105.7832027
VPBank Bến Thủy,ATM-24/7,"Số 01, đường Nguyễn Văn Trỗi, phường Bến Thủy, thành phố Vinh, tỉnh Nghệ An",null,18.6585213,105.6986214
Công ty May Hồ Gươm,ATM-24/7,"Xí Nghiệp 8 – Tập Đoàn Hồ Gươm Chi nhánh Cẩm Thủy, Xã Cẩm Tú, huyện Cẩm Thủy, Tỉnh Thanh Hóa",null,20.238620,105.496678
VPBank Hà Đông,ATM-24/7,"T1 CT1, KDT Mỗ Lao, Hà Đông, Hà Nội",null,20.9801569,105.7832027
VPBank Hội Sở CDM,ATM-24/7,"89 Láng Hạ, quận Đống Đa, Hà Nội",null,21.0159718,105.8151107
Trường Đại học Đại Nam,ATM,"Số 1, Phốn Xốm, Phường Phú Lãm, Quận Hà Đông, Hà Nội",null,20.947531,105.75843
Học viện Công nghệ Bưu chính,ATM-24/7,"142 Đường Trần Phú, Hà Đông, Hà Nội",null,20.9763606,105.782615
CT7  Dương Nội CDM,ATM-24/7,"CT7 KĐT Dương Nội, Quận Hà Đông, TP Hà Nội",null,20.9626938,105.7478614
CT4 XaLa CDM,ATM-24/7,"CT4 KĐT Xa La, phường Phúc La, quận Hà Đông, Hà Nội",null,20.961975,105.793519
Trường Phú Mỹ,ATM-24/7,"120B Ngô Tất Tố, Q.Bình Thạnh",null,10.7924673,106.7120397
VPBank Hưng Vượng CDM,ATM-24/7,"17 Bùi Bằng Đoàn, khu phố Hưng Vượng, P.Tân Phong, Quận 7,TP Hồ Chí Minh",null,10.729826,106.708578
VPBank Văn Thánh,ATM-24/7,"68 - 70 Nguyễn Gia Trí, Phường 25, Quận Bình Thạnh, TP.Hồ Chí Minh",null,10.8019035,106.7154733
Công ty TNHH Nam Thuận,ATM,"Thôn Rực Liễn, Xã Thủy Sơn, huyện Thủy Nguyên, thành phố Hải Phòng",null,20.923394,106.651272
VPBank Vỹ Dạ,ATM-24/7,"214 Nguyễn Sinh Cung, Vỹ Dạ,  TP. Huế, tỉnh Thừa Thiên Huế",null,16.482982,107.596417
VPBank Phú Hội CDM,ATM-24/7,"64 Hùng Vương, phường Phú Nhuận, TP. Huế, tỉnh Thừa Thiên Huế",null,16.4629333,107.5969538
VPBank Phú Hội,ATM-24/7,"64 Hùng Vương, phường Phú Nhuận, TP. Huế, tỉnh Thừa Thiên Huế",null,16.4629333,107.5969538
VPBank Mai Thúc Loan CDM,ATM-24/7,"45 Mai Thúc Loan, phường Thuận Thành, TP Huế, tỉnh Thừa Thiên Huế",null,16.476961,107.582982
VPBank Huế CDM,ATM-24/7,"35 Lý Thường Kiệt, P. Phú Nhuận, TP.Huế, tỉnh Thừa Thiên Huế",null,16.4615259,107.5913781
VPBank Huế,ATM-24/7,"35 Lý Thường Kiệt, P. Phú Nhuận, TP.Huế, tỉnh Thừa Thiên Huế",null,16.4615259,107.5913781
VPBank An Sương CDM,ATM-24/7,"24/44C Trường Chinh, Q.12, TP Hồ Chí Minh",null,10.8311062,106.6223708
Trung tâm Văn Hóa Quận 12,ATM-24/7,"09 Ql 22, P.Trung Mỹ Tây, Q.12, TP.Hồ Chí Minh",null,10.8553669,106.6081541
Nguyễn Ảnh Thủ CDM,ATM-24/7,"18A Nguyễn Ảnh Thủ, Hiệp Thành, Quận 12, TP Hồ Chí Minh",null,10.876606,106.645076
VPBank Củ Chi CDM,ATM-24/7,"70 Tỉnh lộ 8, Khu phố 2, Thị trấn Củ Chi, Huyện Củ Chi, TP Hồ Chí Minh",null,10.969821,106.489264
VPBank Phước Hải CDM,ATM-24/7,"91 và 93 Thích Quảng Đức, Khu đô thị VCN Phước Hải, Phường Phước Hải, Thành phố Nha Trang, Tỉnh Khánh Hòa",null,12.2397520,106.1781830
VPBank Thành Đô CDM,ATM-24/7,"4 Dã Tượng, Q.Hoàn Kiếm, Hà Nội",null,21.023999,105.8465134
Âu Cơ CDM,ATM-24/7,"267 Âu Cơ, Phường 5, Quận 11, TP Hồ Chí Minh",null,10.774920,106.647759
VPBank Tô Hiến Thành CDM,ATM-24/7,"407 Tô Hiến Thành, phường 14, Quận 10, TP Hồ Chí Minh",null,10.775504,106.662979
VPBank Quận 10 CDM,ATM-24/7,"87 Đường 3/2, P12, Q.10, TP Hồ Chí Minh",null,10.773544,106.677529
VPBank Vỹ Dạ CDM,ATM-24/7,"214 Nguyễn Sinh Cung, Vỹ Dạ,  TP. Huế, tỉnh Thừa Thiên Huế",null,16.482982,107.596417
VPBank Trung Kính,ATM-24/7,"219 Trung Kính, phường Yên Hòa, quận Cầu Giấy, Hà Nội",null,34.047863,100.6196553
Tòa nhà Ecohome2 II,ATM-24/7,"Đường Tân Xuân, Đông Ngạc, Bắc Từ Liêm, Hà Nội",null,21.086098,105.7859551
VPBank Bắc Hà Nội CDM,ATM-24/7,"Tòa 27A3, KĐT Thành phố Giao lưu, P. Cổ Nhuế 1, Q. Bắc Từ Liêm, Hà Nội",null,21.0516058,105.7808956
VPBank Kỳ Hòa CDM,ATM-24/7,"276C CMT8, P.10, Q.3, TP Hồ Chí Minh",null,10.780731,106.676835
Công ty May Sông Hồng Nam Định II,ATM,"Quốc lộ 10, huyện Lộc Hà, tỉnh Nam Định",null,20.45132,106.1890151
VPBank Lạc Quần CDM,ATM-24/7,"Số 98 Quốc lộ 21, Thị trấn Cổ Lễ, huyện Trực Ninh, tỉnh Nam Định",null,20.3271823,106.2595308
VPBank Kỳ Hòa,ATM-24/7,"276C CMT8, P.10, Q.3,TP Hồ Chí Minh",null,10.780731,106.676835
VPBank Sở Giao Dịch 2  CDM 2,ATM-24/7,"3A-3B Tôn Đức Thắng, Phường Bến Nghé, Q.1, TP Hồ Chí Minh",null,10.779652,106.706435
Tòa nhà ACM,ATM-24/7,"96 Cao Thắng, phường 4, Quận 3, TP Hồ Chí Minh",null,10.7715108,106.680679
ATM MiniStop Cao Thắng,ATM-24/7,"262 - 264 Cao Thắng, Phường 12, Quận 10, TP Hồ Chí Minh",null,"10,774828",106675653
VPBank Nguyễn Duy Trinh CDM,ATM-24/7,"657-659 đường Nguyễn Duy Trinh, KP4, phường Bình Trưng Đông, Tp Thủ Đức, TP Hồ Chí Minh",null,10.788310,106.775280
Quận Ủy Quận 10,ATM-24/7,"01 Thánh Thái, P.14, Q.10, TP Hồ Chí Minh",null,10.7705325,106.6624514
VPBank Nguyễn Duy Trinh,ATM-24/7,"657-659 đường Nguyễn Duy Trinh, KP4, phường Bình Trưng Đông, Tp Thủ Đức, TP Hồ Chí Minh",null,10.788310,106.775280
VPBank Hòa Hưng CDM,ATM-24/7,"611 Cách Mạng Tháng Tám, quận10, TP.Hồ Chí Minh",null,10.7849134,106.6680865
BigC Cantavil,ATM-24/7,"Số 1 Ấp 3 khu ĐTM An Phú, Q.2, TP.Hồ Chí Minh",null,10.801506,106.747128
Công ty TNHH Nam Triệu,ATM,"Thôn Nghi, xã Tam Hưng, huyện Thủy Nguyên, thành phố Hải Phòng",null,20.9376281,106.7637453
VPBank Văn Phú CDM,ATM-24/7,"Tòa C, CCH- CT2, KĐT Văn Phú, Hà Đông, Hà Nội",null,21.0001334,105.821951
VPBank Hà Tây CDM,ATM-24/7,"số 121 - 123 đường Tô Hiệu, phường Nguyễn Trãi, Quận Hà Đông, Hà Nội",null,20.9665229,105.777508
VPBank Hà Tây,ATM-24/7,"số 121 - 123 đường Tô Hiệu, phường Nguyễn Trãi, Quận Hà Đông, Hà Nội",null,20.9665087,105.7775278
VPBank Châu Đốc CDM,ATM-24/7,"62-64 Nguyễn Văn Thoại, thị xã Châu Đốc, tỉnhAn Giang",null,10.7094021,105.1181455
Trại Giam Suối Hai,ATM,"Xã Cẩm Lĩnh, huyện Ba Vì, Hà Nội",null,21.1519762,105.3702764
VPBank Hội Sở II,ATM-24/7,"89 Láng Hạ, quận Đống Đa, Hà Nội",null,21.0159718,105.8151107
VPBank Lái Thiêu CDM,ATM-24/7,"68A đường Nguyễn Văn Tiết, phường Lái Thiêu, thành phố Thuận An, Tỉnh Bình Dương",null,10.9908335,106.6545599
Công ty in và bao bì Goldsun,ATM,"KCN Phú Minh, phường Cổ Nhuế 2, quận Bắc Từ Liêm, Hà Nội",null,21.0594375,105.7647713
VPBank Hội Sở I,ATM-24/7,"89 Láng Hạ, quận Đống Đa, Hà Nội",null,21.0159718,105.8151107
VPBank Lái Thiêu,ATM-24/7,"68A đường Nguyễn Văn Tiết, phường Lái Thiêu, thành phố Thuận An, Tỉnh Bình Dương",null,10.9908335,106.6545599
VPBank Gia Lai CDM,ATM-24/7,"30 Trần Phú, TP. Pleiku, Tỉnh Gia Lai",null,13.9783857,108.0001154
VPBank Hội Sở CDM II,CDM,"89 Láng Hạ, quận Đống Đa, Hà Nội",null,21.0159718,105.8151107
VPBank Sa Đéc CDM,ATM-24/7,"309 Đại Lộ Hùng Vương, phường 01, TP Sa Đéc, Đồng Tháp",null,10.292460,105.76661
Vincom Ocean Park CDM,ATM-24/7,"Xã Đa Tốn, Huyện Gia Lâm, Hà Nội",null,20.99334,105.96092
VPBank Hàm Nghi CDM,ATM-24/7,"102-104 Hàm Nghi, Thanh Khê, Đà Nẵng",null,16.0616774,108.2106624
VPBank Tràng An CDM,ATM-24/7,"99 Hoàng Cầu, phường Ô Chợ Dừa",null,21.0162018,105.8226888
VPBank Hải Vân CDM,ATM-24/7,"523 Điện Biên Phủ, Thanh Khê, Đà Nẵng",null,16.0657197,108.1988645
VPBank Thăng Long CDM,ATM-24/7,"91 Nguyễn Chí Thanh, quận Đống Đa, Hà Nội",null,21.0207075,105.8094335
VPBank Hải Vân,ATM-24/7,"523 Điện Biên Phủ, Thanh Khê, Đà Nẵng",null,16.0657197,108.1988645
VPBank Thăng Long 3,ATM-24/7,"91 Nguyễn Chí Thanh, quận Đống Đa, Hà Nội",null,21.0207075,105.8094335
VPBank Sơn Trà CDM,ATM-24/7,"1094 Ngô Quyền, P. Hải An, Sơn Trà, Đà Nẵng",null,16.059006,108.2350473
VPBank Thăng Long 2,ATM-24/7,"91 Nguyễn Chí Thanh, quận Đống Đa, Hà Nội",null,21.0207075,105.8094335
VPBank Thái Hà CDM,ATM-24/7,"37 Yên Lãng, phường Trung Liệt, quận Đống Đa, Hà Nội",null,21.0108448,105.822425
VPBank Phương Mai CDM,ATM-24/7,"75 Phương Mai, Đống Đa, Hà Nội",null,21.003523,105.836647
VPBank Bình Dương CDM II,ATM-24/7,"557 Đại lộ Bình Dương, phường Hiệp Thành, thành phố Thủ Dầu Một, tỉnh Bình Dương",null,10.9881905,106.6644065
VPBank Kinh Đô CDM,ATM-24/7,"292 Tây Sơn, phường Trung Liệt, quận Đống Đa, Hà Nội",null,21.0070477,105.8228378
VPBank Núi Thành CDM,ATM-24/7,"429 Núi Thành, phường Hòa Cường Bắc, Hải Châu,  Đà Nẵng",null,16.0377812,108.2222354
VPBank Bình Dương CDM,ATM-24/7,"557 Đại lộ Bình Dương, phường Hiệp Thành, thành phố Thủ Dầu Một, tỉnh Bình Dương",null,10.9881905,106.6644065
VPBank Kinh Đô,ATM-24/7,"292 Tây Sơn, phường Trung Liệt, quận Đống Đa, Hà Nội",null,21.0070477,105.8228378
VPBank Nguyễn Tri Phương,ATM-24/7,"96 đường 2/9, phường Bình Thuận, quận Hải Châu, thành phố Đà Nẵng",null,16.056320,108.222183
Tòa nhà Bình Dương Square,ATM-24/7,"01 Đường Phú Lợi, phường Phú Lợi, TP Thủ Dầu Một, tỉnh Bình Dương",null,10.984132,106.666300
VPBank Kiên Giang CDM,ATM-24/7,"4 Trần Phú, Rạch Giá, tỉnh Kiên Giang",null,10.0165538,105.08057
VPBank Đống Đa CDM,ATM-24/7,"171 Đống Đa, Thạch Thang, Hải Châu, Đà Nẵng",null,16.077461,108.216461
VPBank Kiên Giang,ATM-24/7,"4 Trần Phú, Rạch Giá, tỉnh Kiên Giang",null,10.0165538,105.08057
VPBank Tân Uyên CDM,ATM-24/7,"Thửa đất số 13, tờ bản đồ số 10, ĐT747, Phường Uyên Hưng, Thị xã Tân Uyên, Tỉnh Bình Dương",null,11.0638523,106.7961980
VPBank Đà Nẵng CDM,ATM-24/7,"112 Phan Chu Trinh, phường Phước Ninh, Hải Châu, Đà Nẵng",null,16.0648154,108.2199239
UBND P.Vĩnh Lạc,ATM-24/7,"343- 347 Nguyễn Trung Trực, Rạch Giá, tỉnh Kiên Giang",null,9.9979325,105.0921174
VPBank Phú Quốc CDM,ATM-24/7,"133 Nguyễn Trung Trực, Thị trấn Dương Đông, huyện Phú Quốc, tỉnh Kiên Giang",null,10.2233378,103.964392
VPBank Dĩ An CDM,ATM-24/7,"18 đường Dĩ An – Truông Tre, Khu phố Nhị Đồng 2, phường Dĩ An, thành phố Dĩ An, tỉnh Bình Dương",null,10.8970782,106.7646807
VPBank Vĩnh Yên,ATM-24/7,"245 -247 đường Hùng Vương, phường Tích Sơn, TP Vĩnh Yên, Vĩnh Phúc",null,21.3077197,105.5850005
VPBank Dĩ An,ATM-24/7,"18 đường Dĩ An – Truông Tre, Khu phố Nhị Đồng 2, phường Dĩ An, thành phố Dĩ An, tỉnh Bình Dương",null,10.8970782,106.7646807
VPBank Hòa Xuân CDM,ATM-24/7,"Lô số B1.7.29+30 đường Nguyễn Phước Lan, phường Hòa Xuân, quận Cẩm Lệ, thành phố Đà Nẵng",null,16.020142,108.228577
VPBank Cai Lậy CDM,ATM-24/7,"Số 326 đường 30 tháng 4 , Khu phố 2, Phường 5, Thị xã Cai Lậy, Tỉnh Tiền Giang",null,10.399798,106.119586
VPBank Nguyễn Thái Học CDM,ATM-24/7,"278 Nguyễn Thái Học, thành phố Quy Nhơn, tỉnh Bình Định",null,13.7689814,109.2172078
VPBank Ninh Kiều CDM,ATM-24/7,"353 Nguyễn Văn Cừ, Ninh Kiều, thành phố Cần Thơ",null,10.045581,105.767227
Công ty Creative Source I,ATM-24/7,"Lô CN2 và VN3 diện tích 71.744,3m2 Cụm CN Minh Lãng, xã Vũ Thư, tỉnh Thái Bình",null,20.4808527,106.269079
VPBank Bình Định CDM,ATM-24/7,"83 Mai Xuân Thưởng, thành phố Quy Nhơn, tỉnh Bình Định",null,13.7748134,109.2239132
VPBank Ninh Kiều,ATM-24/7,"353 Nguyễn Văn Cừ, Ninh Kiều, thành phố Cần Thơ",null,10.045581,105.767227
VPBank Yên Khánh CDM,ATM-24/7,"Phố 3, thị trấn Yên Ninh, huyện Yên Khánh, tỉnh Ninh Bình",null,20.18036,106.06477
VPBank Bình Phước,ATM-24/7,"860 Phú Riềng Đỏ, phường Tân Xuân, thị xã Đồng Xoài, tỉnh Bình Phước",null,11.5314186,106.8970774
VPBank Lý Tự Trọng CDM,ATM-24/7,"126 Lý Tự Trọng, Q.Ninh Kiều, thành phố Cần Thơ",null,10.036458,105.777671
VPBank Ninh Thuận CDM,ATM-24/7,"360 Thống Nhất, Phường Phủ Hà, Thành phố Phan Rang - Tháp Chàm, Tỉnh Ninh Thuận",null,11.569604,108.991067
VPBank Bình Định,ATM-24/7,"83 Mai Xuân Thưởng, thành phố Quy Nhơn, tỉnh Bình Định",null,13.7748134,109.2239132
VPBank Cần Thơ CDM,ATM-24/7,"52-54 Trần Văn Khéo, Ninh Kiều, thành phố Cần Thơ",null,10.0448009,105.7847625
Bệnh viện Hùng Vương,ATM-24/7,"QL2, Xã Chí Đám, Đoan Hùng, Phú Thọ",null,21.6463085,105.1950037
VPBank Bến Tre,ATM-24/7,"261B Đại Lộ Đồng Khởi, phường Phú Khương, thành Phố Bến Tre, tỉnh Bến Tre",null,10.244609,106.375162
Công ty May Việt Thành,ATM,"Khu công nghiệp Cái Sơn, Hằng Bàng, KV 4, phường An Bình, quận Ninh Kiều, thành phố Cần Thơ",null,10.0337643,105.7469902
Công ty CP May Sông Hồng Phú Thọ,ATM-24/7,"Khu CN Cổ Tiết, Tam Nông, Phú Thọ",null,21.283956,105.2568106
VPBank Yên Phong CDM,ATM-24/7,"Thôn Ngô Nội, xã Trung Nghĩa, huyện Yên Phong, Bắc Ninh",null,21.1885945,105.9595802
VPBank Hai Bà Trưng CDM,CDM,"182A Lò Đúc, quận Hai Bà Trưng, Hà Nội",null,21.0094821,105.8609802
Công ty Cổ phần Quốc tế ALPHA,ATM-24/7,"Lô E13-E14, Cụm Công nghiệp Dạy Nghề, xã Đông Thọ, huyện Yên Phong, tỉnh Bắc Ninh",null,21.1800365,105.9435482
VPBank Hiệp Hòa 2,ATM-24/7,"80, đường 19/5, thị trấn Thắng, huyện Hiệp Hòa, tỉnh Bắc Giang",null,20.9747648,105.7876156
VPBank Đồng Tâm CDM,CDM,"92 Trần Đại Nghĩa, quận Hai Bà Trưng, Hà Nội",null,20.9982042,105.8458214
VPBank Quế Võ CDM,ATM-24/7,"Thôn Mao Trung, xã Phượng Mao, huyện Quế Võ, tỉnh Bắc Ninh",null,21.154476,106143913
VPBank Từ Sơn CDM,ATM-24/7,"241-243 Trần Phú, phường Đình Bảng, thị trấn Từ Sơn, tỉnh Bắc Ninh",null,21.1136017,105.951156
VPBank Điện Biên CDM,ATM-24/7,"260 Điện Biên, phường Quang Trung, thành phố Hưng Yên, tỉnh Hưng Yên",null,20.646393,106.057100
Công ty GOLDSUN Bắc Ninh,ATM,"Lô H12, Khu Công nghiệp Quế Võ 1, huyện Quế Võ, tỉnh Bắc Ninh",null,21.127912,106.2227605
Công ty Foster II,ATM,"1 đường 11,KCN VSIP Bắc Ninh, huyện Từ Sơn, tỉnh Bắc Ninh",null,21.0844898,105.9785518
VPBank Quảng Trị,ATM-24/7,"38 QL9, Phường 1, thành phố Đông Hà, tỉnh Quảng Trị",null,16.817521,107.086597
Công ty DHA Bắc Ninh II,ATM,"Xã Phượng Giáo, thị trấn Thứa, huyện Lương Tài, tỉnh Bắc Ninh",null,21.0216092,106.2043232
Công ty Foster I,ATM,"1 đường 11,KCN VSIP Bắc Ninh, huyện Từ Sơn, tỉnh Bắc Ninh",null,21.0844898,105.9785518
VPBank Đông Hà,ATM-24/7,"17 Trần Hưng Đạo, Đông Hà, tỉnh Quảng Trị",null,16.8227755,107.0989306
VPBank Bắc Ninh CDM,ATM-24/7,"34 Lý Thái Tổ, thành phố Bắc Ninh, tỉnh Bắc Ninh",null,21.1735468,106.0631453
Công ty Taixin Vina,ATM,"Số 19, đường 11, KCN VSIP Bắc Ninh, xã Đại Đồng, huyện Tiên Du, tỉnh Bắc Ninh",null,21.0822382,105.9883634
VPBank Uông Bí CDM,ATM-24/7,"496 Quang Trung, phường Quang Trung, Uông Bí, Quảng Ninh",null,21.0345944,106.7695621
VPBank Bắc Ninh,ATM-24/7,"34 Lý Thái Tổ, phường Ninh Xá, thành phố Bắc Ninh, tỉnh Bắc Ninh",null,21.1735468,106.0631453
VPBank Cát Linh CDM,ATM-24/7,"24 Cát Linh, quận Ba Đình, Hà Nội",null,21.029036,105.8307637
VPBank Móng Cái,ATM-24/7,"6 Hùng Vương, TP Móng Cái, Quảng Ninh",null,21.5279757,107.9701352
VPBank Bạc Liêu CDM,ATM-24/7,"137 Trần Phú, phường 7, TP Bạc Liêu, Tỉnh Bạc Liêu",null,9.290508,105.721695
Tòa nhà V-Tower Kim Mã,ATM-24/7,"649 Kim Mã, Ngọc Khánh, Ba Đình, Hà Nội",null,21.0285464,105.8062894
VPBank Quảng Ninh CDM,CDM,"Số 12, Đường 25-4, TP Hạ Long, Quảng Ninh",null,20.9519872,107.0771494
Công ty May QT,ATM,"Xã Tân Sỏi, huyện Yên Thế, tỉnh Bắc Giang",null,21.4461953,106.169748
VPBank Hà Nam CDM,ATM-24/7,"PG1-05A,60 Biên Hòa, thành phố Phủ Lý, tỉnh Hà Nam",null,20.5431196,105.9172967
VPBank Hồng Hà CDM,ATM-24/7,"86 Nguyễn Văn Cừ, Phường Hồng Hải, TP Hạ Long, Tỉnh Quảng Ninh",null,20.9553240,107.1011630
HTX ACE WORLD Bình An,ATM-24/7,"Thôn Cát, xã Đức Giang, huyện Yên Dũng, tỉnh Bắc Giang",null,21.2139742,106.1820199
Công ty TNHH Dệt Hà Nam,ATM-24/7,"KCN Châu Sơn, phường Châu Sơn, thành phố Phủ Lý, tỉnh Hà Nam",null,20.519465,105.897588
VPBank Cẩm Phả CDM,ATM-24/7,"308 Trần Phú, phường Cẩm Thành, thành phố Cẩm Phả, tỉnh Quảng Ninh",null,21.0095538,107.2739838
Tòa nhà CT2 Cổ Nhuế CDM,ATM-24/7,"Tòa nhà CT2, Cổ Nhuế, Bắc Từ Liêm, Hà Nội",null,21.0503843,105.7849992
VPBank Lý Nhân CDM,ATM-24/7,"127 Trần Hưng Đạo, TT Vĩnh Trụ, H. Lý Nhân, Hà Nam",null,20.33362,106.01571
VPBank Quảng Ngãi CDM,ATM-24/7,444 - 446 Quang Trung - P.Nguyễn Nghiêm -TP Quảng Ngãi - Tỉnh Quảng Ngãi,null,15.121785,108.80441
ATM Lấp Vò,ATM-24/7,"QL80, Cụm CN Vàm Cống, An Thanh, Bình Thành, huyện Lấp Vò, tỉnh Đồng Tháp",null,10.3343209,105.4926278
Công ty Giầy Ngọc Hồng III,ATM-24/7,"Thôn 2, xã An Hội, huyện Bình Lục, tỉnh Hà Nam",null,20.4838794,106.0530441
VPBank Hội An CDM,ATM-24/7,"523 Hai Bà Trưng, TP Hội An,  tỉnhQuảng Nam",null,15.88325,108.325185
Chợ Nàng Hai CDM,ATM-24/7,"Thửa đất số 186, Tờ bản đồ số 22, Khóm Tân Hòa, Phường An Hòa, Thành phố Sa Đéc, Tỉnh Đồng Tháp.",null,10.313432,105.746234
VPBank An Nhơn CDM,ATM-24/7,"46 Ngô Gia Tự, phường Bình Định, thị xã An Nhơn, tỉnh Bình Định",null,13.888295,109.118690
VPBank Lạc Trung CDM,ATM-24/7,"55 Lạc Trung, Hai Bà Trưng, Hà Nội",null,21.0028645,105.8665059
Công ty Creative Source II,ATM-24/7,"Lô CN2 và VN3 diện tích 71.744,3m2 Cụm CN Minh Lãng, xã Vũ Thư, tỉnh Thái Bình",null,20.4808527,106.269079
Công ty  Giầy Ngọc Hồng II,ATM-24/7,"Thôn 2, xã An Hội, huyện Bình Lục, tỉnh Hà Nam",null,20.4838794,106.0530441
VPBank Hội An,ATM-24/7,"523 Hai Bà Trưng, TP Hội An,  tỉnh Quảng Nam",null,15.883250,108.325185
Công ty Toyoda Gosei,ATM,"Lô F, KCN Tiền Hải, xã Tây Giang, huyện Tiền Hải, tỉnh Thái Bình",null,20.3917427,106.5130080
VPBank Bình Phước CDM,ATM-24/7,"860 Phú Riềng Đỏ, phường Tân Xuân, thị xã Đồng Xoài, tỉnh Bình Phước",null,11.5314186,106.8970774
VPBank Quảng Nam,ATM-24/7,"175 + 177 Phan Chu Trinh, Tam Kỳ, tỉnh Quảng Nam",null,15.5698161,108.4892272
Công ty TNHH Thép Shengli,ATM,"KCN Cầu Nghìn, thị trấn An Bài, huyện Quỳnh Phụ, tỉnh Thái Bình",null,20.6486020,106.4262580
VPBank Lagi CDM,ATM-24/7,"153 A11-A13, Lê Lợi, thị xã La Gi, tỉnh Bình Thuận",null,10.6596854,107.7752298
VPBank Quảng Bình CDM,ATM-24/7,"108 Trần Hưng Đạo Đồng Hới, Đồng Hới, tỉnh Quảng Bình",null,17.4691662,106.6132982
Công ty Việt Thái Vitexco 5,ATM-24/7,"KM10, QL 10, xã Đông Hợp, huyện Đông Hưng, tỉnh Thái Bình",null,20.5476201,106.3562211
VPBank Đồng Tháp CDM,ATM-24/7,"171-173 Hùng Vương, Phường 2, TP Cao Lãnh, Tỉnh Đồng Tháp",null,10.4550130,105.6363970
VPBank Quảng Bình,ATM-24/7,"108 Trần Hưng Đạo Đồng Hới, Đồng Hới, tỉnh Quảng Bình",null,17.4691662,106.6132982
Công ty Comme De Game Vina,ATM-24/7,"Cụm CN Đông La, xã Đông La, huyện Đông Hưng, tỉnh Thái Bình",null,20.5639590,106.3580980
Công ty Cổ phần May Tiên Lục,ATM-24/7,"Thôn Giữa, xã Tiên Lục, huyện Lạng Giang, tỉnh Bắc Giang",null,21.395327,106.2110311
VPBank Đồng Hới,ATM-24/7,"59 Tố Hữu, Nam Lý, Đồng Hới, tỉnh Quảng Bình",null,17.4696567,106.6044611
VPBank Tây Ninh CDM,ATM-24/7,"Nhà phố thương mại (Shophouse) số PG2-35 và PG2-36 thuộc Dự án Tổ hợp Trung tâm thương mại, Khách sạn tiêu chuẩn 5 sao và nhà phố Shophouse Tây Ninh, Đường 30/4, Khu phố 1, phường 3, Tp. Tây Ninh, tỉnh Tây Ninh",null,11.3351554,106.1098854
VPBank Hiệp Hòa CDM,ATM-24/7,"80, đường 19/5, thị trấn Thắng, huyện Hiệp Hòa, tỉnh Bắc Giang",null,20.9747648,105.7876156
VPBank Bố Trạch,ATM-24/7,"366 Hùng Vương, TT Hoàn Lão, Bố Trạch,  tỉnh Quảng Bình",null,17.5808620,106.5363080
VPBank Trà Vinh CDM,ATM-24/7,"272 Nguyễn Đáng, Khóm 6, Phường 7, TP Trà Vinh, tỉnh Trà Vinh",null,9.927089,106.331902
VPBank Hiệp Hòa,ATM-24/7,"80, đường 19/5, thị trấn Thắng, huyện Hiệp Hòa, tỉnh Bắc Giang",null,20.9747648,105.7876156
VPBank Ba Đồn,ATM-24/7,"381 Quang Trung, TT Ba Đồn, tỉnh Quảng Bình",null,17.756865,106.419843
VPBank Trung Hòa Nhân Chính,ATM-24/7,"Tòa nhà 29T1, Hoàng Đạo Thúy, phường Trung Hòa, Cầu Giấy, Hà Nội",null,21.0081741,105.802853
Công ty XNK may Đại Lâm,ATM-24/7,"Thôn Dễu, xã Đại Lâm, huyện Lạng Giang, tỉnh Bắc Giang",null,21.2936111,106.2888889
VPBank Phú Yên CDM,ATM-24/7,"Số 180-182 Đại lộ Hùng Vương, Phường 7, Tuy Hòa, tỉnh Phú Yên",null,13.0922803,109.3138349
VPBank Vĩnh Phúc CDM,ATM-24/7,"01, đường Mê Linh, phường Liên Bảo, thành phố Vĩnh Yên, tỉnh Vĩnh Phúc",null,21.3136463,105.5978661
Công ty Bao Bì Đại Lục- Hố Nai 3,ATM-24/7,"Lô 4-4A Đường số 10-Khu công nghiệp Hố Nai 3,Trảng Bom, Đồng Nai",null,10.9509254,106.938686
VPBank Phú Yên,ATM-24/7,"182 Đại Lộ Hùng Vương, phường 7, TP. Tuy Hòa, tỉnh Phú Yên",null,13.0923325,109.3139763
VPBank Phúc Yên CDM,ATM-24/7,"Số 104, đường Hai Bà Trưng, phường Hùng Vương, thị Xã Phúc Yên, tỉnh Vĩnh Phú",null,21.231431,105.7083684
Công ty Deuhues CDM,ATM-24/7,"Lô F1, F2, F7, F8 - Khu Công Nghiệp Dầu Giây, Xã Bàu Hàm 2",null,10.83168,106.73023
VPBank Sông Cầu CDM,ATM-24/7,"243 đường Phạm Văn Đồng, phường Xuân Phú, thị xã Sông Cầu, tỉnh Phú Yên",null,13.452081,109.219615
VPBank Vĩnh Long CDM,ATM-24/7,"3G-3F  Hưng Đạo Vương , Phường 1, Thành phố Vĩnh Long, Tỉnh Vĩnh Long",null,10.254706,105.973046
VPBank Long Thành CDM,ATM-24/7,"A1-3 và A1-4 Khu dân cư Cầu Xéo, Chợ Long Thành, Thị trấn Long Thành, tỉnh Đồng Nai",null,10.7692743,106.953888
VPBank Phú Thọ CDM,ATM-24/7,"Số 2269, đường Hùng Vương, phường Nông Trang, thành phố Việt Trì, tỉnh Phú Thọ",null,21.326407,105.380698
VPBank Vĩnh Long,ATM-24/7,"3G-3F  Hưng Đạo Vương , Phường 1, Thành phố Vĩnh Long, Tỉnh Vĩnh Long",null,10.254706,105.973046
VPBank Long Thành,ATM-24/7,"A1-3 và A1-4 Khu dân cư Cầu Xéo, Chợ Long Thành, Thị trấn Long Thành, tỉnh Đồng Nai",null,10.7692743,106.953888
VPBank Hùng Vương PT,ATM-24/7,"1274 Hùng Vương, phường Tiên Cát, thành phố Việt Trì, tỉnh Phú Thọ",null,21.308660,105.403227
VPBank Long Khánh CDM,ATM-24/7,"151 - 153 Hùng Vương, Khu phố 1, Phường Xuân Hòa, Thành phố Long Khánh, Tỉnh Đồng Nai",null,10.926444,107.241378
VPBank Tiền Giang CDM,ATM-24/7,"1A, đường Hùng Vương, phường 1, thành phố Mỹ Tho, tỉnh Tiền Giang",null,10.356711,106.363953
Công ty Baisheng Phú Thọ,ATM-24/7,"Khu I, xã Trung Nghĩa, huyện Thanh Thủy, tỉnh Phú Thọ",null,21.169231,105.251469
Công ty May Đồng Phú Cường 2,ATM-24/7,"C1-4 Cụm Công Nghiệp Phú Cường, Xã Phú Cường, huyện Định Quán, tỉnh Đồng Nai",null,11.0845646,107.1717774
Công ty Lạc Long,ATM-24/7,"Lô Q4, đường số 8, KCN Long Hậu Mở Rộng - Xã Long Hậu- huyện Cần Giuộc- tỉnh Long An",null,10.625218,106.7199822
VPBank Quảng Nam CDM,ATM-24/7,"175 + 177 Phan Chu Trinh, Tam Kỳ,  tỉnh Quảng Nam",null,15.5698161,108.4892272
Công ty May Đồng Phú Cường,ATM-24/7,"C1-4 Cụm Công Nghiệp Phú Cường, Xã Phú Cường, huyện Định Quán, tỉnh Đồng Nai",null,11.0845646,107.1717774
VPBank Bến Lức CDM,ATM-24/7,"83 Nguyễn Hữu Thọ, huyện Bến Lức, tỉnh Long An",null,10.6387396,106.4874154
VPBank Tây Ninh,ATM-24/7,"Nhà phố thương mại (Shophouse) số PG2-35 và PG2-36 thuộc Dự án Tổ hợp Trung tâm thương mại, Khách sạn tiêu chuẩn 5 sao và nhà phố Shophouse Tây Ninh, Đường 30/4, Khu phố 1, phường 3, Tp. Tây Ninh",null,11.3351554,106.1098854
VPBank Bến Lức,ATM-24/7,"83 Nguyễn Hữu Thọ, Bến Lức, tỉnh Long An",null,10.6387396,106.4874154
May Bắc Giang - Lục Nam II,ATM-24/7,"Thị trấn Đồi Ngô, huyện Lục Nam, tỉnh Bắc Giang",null,21.3040025,106.3801368
Ecohome Phúc Lợi CDM,ATM-24/7,"Tòa nhà Ecohome Phúc Lợi, phường Phúc Lợi, quận Long Biên, Hà Nội",null,21.0406545,105.9274644
Công ty Tài Nguyên Toàn Cầu LDR,ATM-24/7,"Lô B4, B5, B6, Đường số 1, Khu công nghiệp Thuận Đạo, TT Bến Lức, huyện Bến Lức, tỉnh Long An",null,10.619549,106.490440
Công ty CP Hoàng Sơn I,ATM-24/7,"Thôn 2, xã Đức Liễu, huyện Bù Đăng, tỉnh Bình Phước",null,11.715762,107.140673
VPBank Đông Thủ Đô CDM,ATM-24/7,"Căn hộ H4- TM1, khu nhà ở xã hội B8.NXH, phường Phúc Đồng, quận Long Biên, Hà Nội",null,21.041994,105.9052262
VPBank Lào Cai CDM,ATM-24/7,"109 Hoàng Liên, phường Cốc Lếu, thành phố Lào Cai, tỉnh Lào Cai",null,22.497032,103.967880
VPBank Hố Nai,ATM-24/7,"212 đường Xa Lộ Hà Nội, Khu Phố 1, Phường Tân Biên, Thành Phố Biên Hòa, Tỉnh Đồng Nai",null,10.966386,106.886309
Trường Đại học Công nghệ Giao thông Vận tải,ATM-24/7,"54 Triều Khúc, Thanh Xuân Nam, Thanh Xuân, Hà Nội",null,20.9848308,105.7988798
VPBank Kim Tân CDM,ATM-24/7,"Ngã 6, phường Kim Tân, thành phố Lào Cai, tỉnh Lào Cai",null,22.4815787,103.9743824
VPBank Cửa Bắc CDM,ATM-24/7,"Số 70, phố Cửa Bắc, phường Trúc Bạch, quận Ba Đình, Hà Nội.",null,21.042878,105.842769
Chung cư Riverside Garden CDM,ATM-24/7,"349 Vũ Tông Phan, phường Khương Đình, quận Thanh Xuân, Hà Nội",null,20.9906119,105.8138611
VPBank Đồng Nai,ATM-24/7,"K19 Võ Thị Sáu, phường Thống Nhất, TP Biên Hòa, tỉnh Đồng Nai",null,10.9471159,106.830396
VIMICO Lào Cai,ATM-24/7,"Xã Bản Vược, huyện Bát Xát, tỉnh Lào Cai",null,22.6047296,103.832284
Coopmart Biên Hòa,ATM-24/7,"121 Quốc lộ 15, phường Tân Tiến, TP Biên Hòa, Đồng Nai",null,10.9586054,106.8341301
VPBank Văn Quán,ATM-24/7,"Tòa nhà Rainbow, Đường 19/5, phường Văn Quán, quận Hà Đông, Hà Nội",null,20.974849,105.787962
VPBank Lạng Sơn CDM,ATM-24/7,"Số 125-127 đường Lê Lợi, P VĨnh Trọng, thành phố Lạng Sơn, tỉnh Lạng Sơn",null,21.8537434,106.7634828
VPBank Đăk Nông CDM,ATM-24/7,"Số 318 Tôn Đức Thắng, Phường Nghĩa Thành, Thành phố Gia Nghĩa, Tỉnh Đắk Nông",null,12.012292,107.686428
VPBank Đà Lạt CDM,ATM-24/7,"Số 89 Phan Bội Châu, Phường 1, Đà Lạt, Lâm Đồng",null,11.9444933,108.4382570
Công ty Wooyang Vina 2,ATM-24/7,"579/1 Lê Văn Khương, P. Hiệp Thành, Q. 12, TP Hồ Chí Minh",null,10.8940407,106.6468717
VPBank Đăk Nông,ATM-24/7,"Số 318 Tôn Đức Thắng, Phường Nghĩa Thành, Thành phố Gia Nghĩa, Tỉnh Đắk Nông",null,12.012292,107.686428
VPBank Đức Trọng CDM,ATM-24/7,"1A & số 3 đường Thống Nhất, Thị trấn Liên Nghĩa, Huyện Đức Trọng, Tỉnh Lâm Đồng",null,11.736322,108.374098
VPBank Quận 11 CDM 2,ATM-24/7,"318-318A Lãnh Binh Thăng, Q11, TP Hồ Chí Minh",null,10.764722,106.648022
VPBank Đăk Lăk CDM,ATM-24/7,"35-37 Ngô Quyền, phườngTân Lợi, TP.Buôn Ma Thuột, tỉnh Đăk Lăk",null,12.6878632,108.0519607
VPBank Sở Giao Dịch CDM,ATM-24/7,"34 Hai Bà Trưng, quận Hoàn Kiếm, Hà Nội",null,21.0247064,105.8523778
VPBank Quận 11 CDM,ATM-24/7,"318-318A Lãnh Binh Thăng, Q11, TP Hồ Chí Minh",null,10.764722,106.648022
VPBank Đăk Lăk,ATM-24/7,"35-37 Ngô Quyền, P.Tân Lợi, TP.Buôn Ma Thuột, tỉnh Đăk Lăk",null,12.6878632,108.0519607
VPBank Nguyễn Hữu Huân CDM,ATM-24/7,"52 Nguyễn Hữu Huân, Hoàn Kiếm, Hà Nội",null,21.0334587,105.8544842
Tòa nhà Everich CDM,ATM-24/7,"968 Đường 3/2, quận 11, TP Hồ Chí Minh",null,10.7630574,106.6570853
VPBank Sài Gòn CDM,ATM-24/7,"129 Nguyễn Chí Thanh, Q.5, TP Hồ Chí Minh",null,10.7595753,106.6682084
VPBank Ngô Quyền CDM,CDM,"39A Ngô Quyền, phường Hàng Bài, quận Hoàn Kiếm, Hà Nội",null,21.021626,105.854158
VPBank Cà Mau CDM,ATM-24/7,"134 Nguyễn Tất Thành, phường 8, thành phố Cà Mau, tỉnh Cà Mau",null,9.1679636,105.145412
VPBank Trần Thái Tông CDM,ATM-24/7,"D5- Đường Trần Thái Tông, Hà Nội",null,21.0332222,105.7882755
Công ty Toyoda Gosei 2,ATM,"Lô F, KCN Tiền Hải, xã Tây Giang, huyện Tiền Hải, tỉnh Thái Bình",null,20.3917427,106.5130080
Công ty  Tôm Miền Nam,ATM-24/7,"Ấp Cây Trâm A, Xã Định Bình, Thành phố Cà Mau, Cà Mau",null,9.162233,105.248101
VPBank Nguyễn Văn Huyên CDM,ATM-24/7,"73 Nguyễn Văn Huyên, phường Quan Hoa, quận Cầu Giấy, Hà Nội",null,21.035627,105.797616
Công ty May Xuất Khẩu Việt Thái,ATM-24/7,"142 Quang Trung, thành phố Thái Bình, tỉnh Thái Bình",null,20.4388313,106.3260286
VPBank Hoàng Quốc Việt CDM,CDM,"184 Hoàng Quốc Việt, quận Cầu Giấy, Hà Nội",null,21.046718,105.79059
VPBank Tuy Phong CDM,ATM-24/7,"Số 65B Thống Nhất, Thị trấn Phan Rí Cửa, huyện Tuy Phong, tỉnh Bình Thuận",null,11.18095,108.562416
VPBank Kỳ Bá,ATM-24/7,"225G Đường Hai Bà Trưng, phường Kỳ Bá, thành phố Thái Bình, tỉnh Thái Bình",null,20.4473505,106.3426429
VPBank Cầu Giấy CDM,ATM-24/7,"2 Nguyễn Khánh Toàn, phường Quan Hoa, quận Cầu Giấy, Hà Nội",null,21.0370156,105.8014425
VPBank Bình Thuận CDM,ATM-24/7,"132 Trần Hưng Đạo, thành phố Phan Thiết, tỉnh Bình Thuận",null,10.9343273,108.1038835
VPBank Kỳ Bá CDM,ATM-24/7,"225G Đường Hai Bà Trưng, phường Kỳ Bá, thành phố Thái Bình, tỉnh Thái Bình",null,20.4473505,106.3426429
VPBank Ba Đình CDM,ATM-24/7,"Tầng 1 tòa nhà Việt Hải, Duy Tân, Cầu Giấy, Hà Nội",null,21.0301772,105.7860506
VPBank Bình Thuận,ATM-24/7,"132 Trần Hưng Đạo, thành phố Phan Thiết, tỉnh Bình Thuận",null,10.9343273,108.1038835
Công ty Hoàng Vũ,ATM-24/7,"Cụm CN TT Phùng, Đan Phượng, Hà Nội",null,21.0935866,105.6570377
VPBank Ba Đình,ATM-24/7,"Tầng 1 tòa nhà Việt Hải, Duy Tân, Cầu Giấy, Hà Nội",null,21.0301772,105.7860506
VPBank Đồng Nai CDM,ATM-24/7,"K19 Võ Thị Sáu, phường Thống Nhất, TP Biên Hòa, Đồng Nai",null,10.9471159,106.830396
VPBank Định Công,ATM-24/7,"55 Trần Nguyên Đán, Định Công, Hoàng Mai, Hà Nội",null,20.9862594,105.8332166
Tòa nhà Việt Á,ATM-24/7,"Tòa Nhà Việt Á, Đường Duy Tân, Cầu Giấy, Hà Nội",null,21.0306821,105.7849563
Công ty  Giầy Ngọc Hồng I,ATM-24/7,"Thôn 2, xã An Hội, huyện Bình Lục, tỉnh Hà Nam",null,20.4838794,106.0530441
Trường Thể dục Thể thao Thanh Thiếu Nhi,ATM-24/7,"KĐT Đền Lừ, Hoàng Văn Thụ, Hoàng Mai, Hà Nội",null,20.9867243,105.8583392
Lữ Đoàn 205,ATM-24/7,"22 Trần Duy Hưng, Trung Hòa, Cầu Giấy, Hà Nội",null,21.0137863,105.8027581
VPBank Đồng Văn CDM,ATM-24/7,"185 Tổ dân phố Nguyễn Hữu Tiến, thị xã Duy Tiên, huyện Duy Tiên, tỉnh Hà Nam",null,20.6451650,105.9319200
VPBank Chương Mỹ CDM,ATM-24/7,"54 tổ 6, khu Xuân Hà, thị trấn Xuân Mai, huyện Chương Mỹ, Hà Nội",null,20.900108,105.578056
VPBank Xuân La CDM,ATM-24/7,"LKC 39 Dự án Khu nhà ở thấp tầng A1TT1 Xuân Tảo, Bắc Từ Liêm, Hà Nội",null,21.062840,105.800354
Công ty May Đức Hạnh,ATM,"Xã Trung Lương, huyện Bình Lục, tỉnh Hà Nam",null,20.476061,106.036255
VPBank Đồng Tâm,ATM-24/7,"92 Trần Đại Nghĩa, Hai Bà Trưng, Hà Nội",null,20.9982042,105.8458214
VPBank Liễu Giai CDM,ATM-24/7,"18 Liễu Giai, quận Ba Đình, Hà Nội",null,21.0346699,105.814194
VPBank Đông Hà Nội CDM,ATM-24/7,"Sảnh Thương mại tầng 1, SH-18, Tòa nhà Century Tower, số 458 Minh Khai, quận Hai Bà Trưng, Hà Nội",null,20.9964269,105.8682295
Chung cư  Sky 9 CDM,ATM-24/7,"Số 61 - 63 Liên Phường, Phường Phú Hữu, Thành phố Thủ Đức, TP Hồ Chí Minh",null,10.804141,106.7903
VPBank Đông Đô CDM,ATM-24/7,"Số 362 Phố Huế, Phường Phố Huế, Quận Hai Bà Trưng, Hà Nội.",null,21.0094004,105.8513208
VPBank Hà Nội CDM,ATM-24/7,"Số 5 Điện Biên Phủ, Phường Điện Biên, Quận Ba Đình, Tp Hà Nội",null,21.0291199,105.842426
Phòng Khám Đa Khoa KCN Tân Bình,ATM-24/7,"lô 2-6 đường Lê Trọng Tấn, phường Tây Thạnh, quận Tân Phú, TPTP Hồ Chí Minh",null,10.8105596,106.6126059
VPBank Đông Đô,ATM-24/7,"362 Phố Huế, Lê Đại Hành, Q.Hai Bà Trưng, Hà Nội",null,21.0094004,105.8513208
UBND xã Ngọc Vân,ATM-24/7,"Xã Ngọc Vân, huyện Tân Yên, tỉnh Bắc Giang",null,21.3535833,106.0463837
VPBank Tân Phú CDM 2,ATM-24/7,"595-597 Lũy Bán Bích, Phường Phú Thạnh, Quận Tân Phú, TP HCM",null,10.7786575,106.6351009
Công ty Vận tải Hà Nội,ATM-24/7,"32 Nguyễn Công Trứ, Hai Bà Trưng, Hà Nội",null,21.013819,105.853025
Công ty Thời trang VERT,ATM,"Kim Tràng, xã Tân Lập, huyện Tân Yên, tỉnh Bắc Giang",null,21.336463,106.1434031
VPBank Tân Phú CDM,CDM,"595-597 Lũy Bán Bích, Phường Phú Thạnh, Quận Tân Phú, TP HCM",null,10.7786575,106.6351009
ATM Số 01 Lương Yên,ATM-24/7,"01 Lương Yên, Bạch Đằng, Hai Bà Trưng, Hà Nội",null,21.0115096,105.8628623
Bệnh viện Phục hồi Chức năng Bắc Giang,ATM-24/7,"Khu 284, xã Quế Nham, huyện Tân Yên, tỉnh Bắc Giang",null,21.313576,106.159815
VPBank Văn Quán CDM,ATM-24/7,"Tòa nhà Rainbow, Đường 19/5, phường Văn Quán, quận Hà Đông, Hà Nội",null,20.974849,105.787962
Chung cư RichStar CDM,ATM-24/7,"239-241 Hòa Bình, quận Tân Phú, TP Hồ Chí Minh",null,10.7726904,106.6236066
Công ty TNHH BT FASHION,ATM,"Thôn Đông, thị trấn Bích Động, huyện Việt Yên, tỉnh Bắc Giang",null,21.2783512,106.1051705
VPBank Đông Ba CDM,ATM-24/7,"179 Trần Hưng Đạo, Phú Hòa, TP Huế, tỉnh Thừa Thiên Huế",null,16.4716229,107.5872375
Bệnh viện Quận 7,ATM-24/7,"101 Nguyễn Thị Thập, P. Tân Phú, Q7, TP Hồ Chí Minh",null,10.7373066,106.7241827
Tòa nhà Ecohome2 I,ATM-24/7,"Đường Tân Xuân, Đông Ngạc, Bắc Từ Liêm, Hà Nội",null,21.086098,105.7859551
VPBank Hoài Đức CDM,ATM-24/7,"Số 23-24 Lô 38, KĐT GELEXIMCO, xã An Khánh, huyện Hoài Đức, Hà Nội",null,21.003119,105.732798
VPBank Tân Bình CDM,ATM-24/7,"307E Nguyễn Văn Trổi, Q.Tân Bình, TP Hồ Chí Minh",null,10.798948,106.669507
May Bắc Giang - Lục Nam I,ATM-24/7,"Thị trấn Đồi Ngô, huyện Lục Nam, tỉnh Bắc Giang",null,21.3040025,106.3801368
VPBank Bến Ngự CDM,ATM-24/7,"66 Trần Thúc Nhẫn, phường VĨnh Ninh, TP Huế, tỉnh Thừa Thiên Huế",null,16.4556359,107.58356
VPBank Phạm Văn Hai CDM,ATM-24/7,"77-79-85/1B Phạm Văn Hai, P3, Q.Tân Bình, TP Hồ Chí Minh",null,10.794346,106.662349
Công ty may Hàn Việt,ATM-24/7,"Thị trấn Bảo Sơn, huyện Lục Nam, tỉnh Bắc Giang",null,21.3596764,106.3300036
VPBank Thanh Hóa CDM,ATM-24/7,"Lô 05+06, đường Phan Chu Trinh, phường Điện Biên, thành phố Thanh Hoá, tỉnh Thanh Hóa",null,19.8121966,105.775556
Trường THCN chế tạo máy,ATM-24/7,"131 Nguyễn Trãi, Thượng Đình, Thanh Xuân, Hà Nội",null,20.9971763,105.8153849
Xí nghiệp May Lạng Giang II,ATM-24/7,"Thôn Bằng, xã Nghĩa Hòa, huyện Lạng Giang, tỉnh Bắc Giang",null,21.4316047,106.2399585
VPBank Thanh Hóa,ATM-24/7,"Lô 05+06, đường Phan Chu Trinh, phường Điện Biên, thành phố Thanh Hoá, tỉnh Thanh Hóa",null,19.8121966,105.775556
VPBank Hà Thành CDM,CDM,"Toà nhà R6, số 72A Nguyễn Trãi, phường Thượng Đình, quận Thanh Xuân, Hà Nội",null,21.0009207,105.8160354
Xí Nghiệp may Lạng Giang I,ATM-24/7,"Thôn Bằng, xã Nghĩa Hòa, huyện Lạng Giang, tỉnh Bắc Giang",null,21.4316047,106.2399585
VPBank Nguyễn Trãi CDM,ATM-24/7,"Số 232+234+236 Đường Nguyễn Trãi, phường Tân Sơn, tỉnh Thanh Hóa",null,19.8037502,105.7713036
VPBank Lê Trọng Tấn CDM,ATM-24/7,"56 Lê Trọng Tấn, Q.Thanh Xuân, Hà Nội",null,20.9995614,105.8278542
VPBank Lạng Giang CDM,ATM-24/7,"Lô SH2, số 16-17-18-19, Khu Đô Thị mới Phía Tây, Thị trấn Vôi, Huyện Lạng Giang, Tỉnh Bắc Giang",null,21.35483,106.25886
VPBank Lam Sơn,ATM-24/7,"253 Trần Phú, P.Ba Đình, TP.Thanh Hóa, tỉnh Thanh Hóa",null,19.801645,105.776477
VPBank Lê Thanh Nghị,ATM-24/7,"215 Lê Thanh Nghị, phường Bùi Thị Xuân, TP Hải Dương",null,20.9320894,106.3287112
VPBank Thủ Đô CDM,ATM-24/7,"34B Trần Phú, phường Điện Biên, quận Ba Đình, Hà Nội",null,21.030236,105.843341
VPBank Đông Hương CDM,ATM-24/7,"490 Đại lộ Lê Lợi, Phường Đồng Hương, TP Thanh Hóa",null,19.806373,105.795304
VPBank Đông Anh CDM,ATM-24/7,"115-117 Tổ 03, Thị trấn Đông Anh, Huyện Đông Anh, TP. Hà Nội",null,21.1394195,105.8545155
VPBank Hố Nai CDM,ATM-24/7,"212 đường Xa Lộ Hà Nội, Khu Phố 1, Phường Tân Biên, Thành Phố Biên Hòa, Tỉnh Đồng Nai",null,10.966386,106.886309
VPBank Phan Văn Trị CDM,ATM-24/7,"366A29 Phan Văn Trị, phường 5, Quận Gò Vấp, TP Hồ Chí Minh",null,10.824533,106.691197
VPBank Hòa Bình CDM,ATM-24/7,"Số 681, đường Cù Chính Lan, phường Phương Lâm, thành phố Hòa Bình, tỉnh Hòa Bình",null,20.8177241,105.3367967
VPBank Lê Lợi CDM,ATM-24/7,"Số 208, đường Lê Lợi, phường Lê Lợi, thành phố Bắc Giang, tỉnh Bắc Giang",null,21.2731924,106.1965179
VPBank Phan Văn Trị,ATM-24/7,"366A29 Phan Văn Trị, phường 5, Quận Gò Vấp, TP Hồ Chí Minh",null,10.824533,106.691197
Công ty TNHH Ryonan Electric Việt Nam,ATM,"Lô B10 KCN Thăng Long, xã Kim Chung, huyện Đông Anh, Hà Nội",null,21.1221123,105.7798664
VPBank Bắc Giang CDM,ATM-24/7,"Số 303 đường Lê Lợi, phường Hoàng Văn Thụ, thành phố Bắc Giang, tỉnh Bắc Giang",null,21.2757257,106.2034138
VPBank Gò Vấp CDM 02,ATM-24/7,"2B Quang Trung, Quận Gò Vấp, TP Hồ Chí Minh",null,10.8269942,106.6781705
VPBank Hưng Yên CDM,ATM-24/7,"Đường 39A, KCN Phố Nối B, xã Nghĩa Hiệp, huyện Yên Mỹ, tỉnh Hưng Yên",null,20.925848,106.065101
VPBank Bắc Giang,ATM-24/7,"Số 303 đường Lê Lợi, phường Hoàng Văn Thụ, thành phố Bắc Giang, tỉnh Bắc Giang",null,21.2757257,106.2034138
VPBank Gò Vấp CDM,ATM-24/7,"2B Quang Trung, Quận Gò Vấp, TP Hồ Chí Minh",null,10.8269942,106.6781705
VPBank Khánh Hội CDM,ATM-24/7,"107 Nguyễn Thị Thập, Khu Phố 2, Phường Tân Phú, Quận 7, TP. Hồ Chí Minh",null,10.737936,106.721202
Công ty TMDV Tiến Thành,ATM-24/7,"Cụm Công nghiệp Dĩnh Kế, phường Dĩnh Kế, thành phố Bắc Giang, tỉnh Bắc Giang",null,21.257487,106.166720
Vincom Plaza Gò Vấp,ATM-24/7,"12 Phan Văn Trị, P5, Gò Vấp, TP Hồ Chí Minh",null,10.8270472,106.6892774
Công ty Tài Chính FE 7,ATM,"3A-3B Tôn Đức Thắng, Phường Bến Nghé, Q.1, TP Hồ Chí Minh",null,10.779652,106.706435
Công ty cổ phần – Tổng công ty May Bắc Giang,ATM,"Số 349 đường Giáp Hải, phường Dĩnh Kế, thành phố Bắc Giang, tỉnh Bắc Giang.",null,21.2856174,106.2223921
VPBank Rạch Dừa CDM,ATM-24/7,"100-102 Đường 30/04, P. Thắng Nhất, TP.Vũng Tàu, tinh BR-VT",null,10.3925667,107.1026823
Công ty Tài Chính FE 6,ATM,"3A-3B Tôn Đức Thắng, Phường Bến Nghé, Q.1, TP Hồ Chí Minh",null,10.779652,106.706435
VPBank Rạch Dừa,ATM-24/7,"100-102 Đường 30/04, phường Thắng Nhất, TP.Vũng Tàu, tỉnh Bà Rịa -Vũng Tàu",null,10.3925667,107.1026823
Công ty Tài Chính FE 11,ATM,"3A-3B Tôn Đức Thắng, Phường Bến Nghé, Q.1, TP Hồ Chí Minh",null,10.779652,106.706435
VPBank Vũng Tàu CDM,ATM-24/7,"Nhà số 13 Khu thương mại 15 tầng, Nguyễn Thái Học, thành phố Vũng Tàu, tỉnh Bà Rịa Vũng Tàu",null,10.3635695,107.0822221
Công ty Tài Chính FE 10,ATM,"3A-3B Tôn Đức Thắng, Phường Bến Nghé, Q.1, TP Hồ Chí Minh",null,10.779652,106.706435
VPBank Vũng Tàu,ATM-24/7,"Nhà số 13 Khu thương mại 15 tầng, Nguyễn Thái Học, thành phố Vũng Tàu, tỉnh Bà Rịa Vũng Tàu",null,10.3635695,107.0822221
SAIGONRES PLAZA CDM,ATM-24/7,"79-81 Nguyễn Xí - Phường 26, Q.Bình Thạnh, TP Hồ Chí Minh",null,10.816666,106.707035
VPBank Long Hải CDM,ATM-24/7,"265 đường Võ Thị Sáu, Thị trấn Long Hải, Huyện Long Điền, Tỉnh Bà Rịa - Vũng Tàu",null,10.414424,107.219312
VPBank Gia Định CDM 3,ATM-24/7,"296 Phan Xích Long, quận Phú Nhuận, TP.Hồ Chí Minh",null,10.7984293,106.6884239
VPBank Bà Rịa,ATM-24/7,"44 Bạch Đằng, Khu phố 2, phường Phước Trung, thành phố Bà Rịa, tỉnh Bà Rịa Vũng Tàu",null,10.493462,107.170214
VPBank Gia Định CDM,ATM-24/7,"296 Phan Xích Long, quận Phú Nhuận, TP.Hồ Chí Minh",null,10.7984293,106.6884239
VPBank An Giang CDM,ATM-24/7,"179-181 Trần Hưng Đạo, phường Mỹ Bình, thành phố Long Xuyên, tỉnh An Giang",null,10.3681422,105.44757
VPBank An Giang,ATM-24/7,"179-181 Trần Hưng Đạo, phường Mỹ Bình, thành phố Long Xuyên, tỉnh An Giang",null,10.3681422,105.44757
VPBank Lý Thường Kiệt CDM,ATM-24/7,"112-118 Lý Thường Kiệt, quận Tân Bình, TP.Hồ Chí Minh",null,10.7879629,106.6529402
VPBank Xương Giang CDM,ATM-24/7,"Số 28-30, Nguyễn Thị Minh Khai, phường Ngô Quyền, thành Phố Bắc Giang, tỉnh Bắc Giang.",null,21.285429,106.206543
VPBank Phước Kiển CDM,ATM-24/7,"1262 Lê Văn Lương, Ấp 2, Xã Phước Kiểng, Huyện Nhà Bè, TP. Hồ Chí Minh",null,10.700563,106.704396
VPBank Kim Mã CDM,ATM-24/7,"54-58-56 Kim Mã, Kim Mã, Ba Đình, Hà Nội",null,21.0325741,105.8282029
VPBank Nhà Bè CDM,ATM-24/7,"148B Nguyễn Hữu Thọ, Ấp 5, Xã Phước Kiển, Nhà Bè, TP. Hồ Chí Minh",null,10.71861,106.70216
VPBank Ninh Bình CDM,ATM-24/7,"91 đường Lê Hồng Phong, phường Đông Thành, TP Ninh Bình, tỉnh Ninh Bình",null,20.2577212,105.9735766
VPBank Nhà Bè,ATM-24/7,"148B Nguyễn Hữu Thọ, Ấp 5, Xã Phước Kiển",null,10.71861,106.70216
VPBank Trung Chánh CDM,ATM-24/7,"146 Nguyễn Ảnh Thủ, Ấp Đông, xã Thới Tam Thôn, huyện Hóc Môn, TP Hồ Chí Minh",null,10.87494,106.62250
Công ty Thời trang  Itas Mars,ATM-24/7,"Khu dân cư Đường Vòng, phường Yên Bình, thành phố Tam Điệp, tỉnh Ninh Bình",null,20.177912,105.947467
VPBank Trung Chánh,ATM-24/7,"146 Nguyễn Ảnh Thủ, Ấp Đông, xã Thới Tam Thôn, huyện Hóc Môn, TP Hồ Chí Minh",null,10.87494,106.62250
VPBank Bảo Lộc CDM,ATM-24/7,"509 - 509B Trần Phú, Phường B’Lao, Thành phố Bảo Lộc, Tỉnh Lâm Đồng",null,11.540009,107.812463
VPBank Kim Liên CDM,ATM-24/7,"61 Xã Đàn, phường Phương Liên, quận Đống Đa, Hà Nội",null,21.0119685,105.8360222
VPBank Khâm Thiên CDM,CDM,"180-182 Khâm Thiên, quận Đống Đa, Hà Nội",null,21.019192,105.836033
Phạm Văn Chiêu CDM,ATM-24/7,"372 Phạm Văn Chiêu, Phường 14, Q. Gò Vấp, TP Hồ Chí Minh",null,10.8506267,106.6535132
VPBank Thái Bình CDM,ATM-24/7,"259M Lê Quý Đôn, phường Bồ Xuyên, thành phố Thái Bình, tỉnh Thái Bình",null,20.4529353,106.3395774
Công ty THHH Triệu Thái Sơn,ATM-24/7,"Xã Dân Lực, huyện Triệu Sơn, tỉnh Thanh Hóa",null,19.840284,105.599796
VPBank Phú Quốc,ATM-24/7,"133 Nguyễn Trung Trực, Thị trấn Dương Đông, huyện Phú Quốc, tỉnh Kiên Giang",null,10.2233378,103.964392
VPBank Trần Hưng Đạo CDM,ATM-24/7,"201 Minh Khai, phường Minh Khai, quận Hai Bà Trưng, Hà Nội",null,20.997586,105.861686
VPBank Hoàn Kiếm CDM,CDM,"Số 16 Thi Sách, Hai Bà Trưng, Hà Nội",null,21.0090571,105.8607507
Công ty Kính nổi Hạ Long,ATM-24/7,"KCN Khánh Cư, xã Khánh Cư, Huyện Yên Khánh, tỉnh Ninh Bình",null,20.215191,106.0543333
VPBank Nam Sài Gòn CDM,ATM-24/7,"352 Huỳnh Tấn Phát, Q.7, TP Hồ Chí Minh",null,10.749157,106.728536
VPBank Nam Sài Gòn,ATM-24/7,"352 Huỳnh Tấn Phát, Q.7, TP Hồ Chí Minh",null,10.749157,106.728536
VPBank Trung Hòa Nhân Chính CDM,ATM-24/7,"Tòa nhà 29T1, Hoàng Đạo Thúy, phường Trung Hòa, Cầu Giấy, Hà Nội",null,21.0081741,105.802853
Công ty Cổ phần May Thể Thao Nghi Xuân,ATM-24/7,"Thôn Hồng Mỹ, Xã Xuân Mỹ, Huyện Nghi Xuân, Tỉnh Hà Tĩnh",null,18.626472,105.78023
ATM MiniStop Bạch Đằng,ATM-24/7,"B22 Bạch Đằng, Phường 2, Quận Tân Bình, TP Hồ Chí Minh",null,"10,8150740","106,6680150"
Bệnh viện Nhi Trung ương 3,ATM-24/7,"18/879 Đê La Thành, Đống Đa, Hà Nội",null,21.0248769,105.8074996
VPBank Nam Thăng Long,ATM,"Lô số 4, khu thương mại thấp tầng (Shophouse CT-17), khu đô thị Nam Thăng Long, phường Xuân La, quận Tây Hồ, Hà Nội",null,20.963182,105.766417
Công ty Giầy Ngọc Hồng III,ATM-24/7,"Thôn 2, xã An Hội, huyện Bình Lục, tỉnh Hà Nam",null,20.4838794,106.0530441
Phạm Văn Chiêu CDM,ATM-24/7,"372 Phạm Văn Chiêu, Phường 14, Q. Gò Vấp, TP Hồ Chí Minh",null,10.8506267,106.6535132
Công ty TNHH May Xuất Khẩu Đại Nghĩa,ATM,"Thôn Thọ Sơn, thị trấn Đại Nghĩa, huyện Mỹ Đức, Hà Nội",null,20.6784449,105.7497489
VPBank Phúc Yên CDM,ATM-24/7,"Số 104, đường Hai Bà Trưng, phường Hùng Vương, thị Xã Phúc Yên, tỉnh Vĩnh Phú",null,21.231431,105.7083684
Chung cư Flora Mizuki CDM,ATM-24/7,"Tầng trệt thuộc Chung cư Flora Mizuki- Block M3, M4, M5, Đường số 1, xã Bình Hưng, huyện Bình Chánh, TP Hồ Chí Minh",null,10.7146957,106.6630803
VPBank Hòa Hưng CDM,ATM-24/7,"611 Cách Mạng Tháng Tám, quận10, TP.Hồ Chí Minh",null,10.7849134,106.6680865
VPBank Hoàn Kiếm CDM,CDM,"Số 16 Thi Sách, Hai Bà Trưng, Hà Nội",null,21.0090571,105.8607507
VPBank Bình Định,ATM-24/7,"83 Mai Xuân Thưởng, thành phố Quy Nhơn, tỉnh Bình Định",null,13.7748134,109.2239132
VPBank Thanh Hóa,ATM-24/7,"Lô 05+06, đường Phan Chu Trinh, phường Điện Biên, thành phố Thanh Hoá, tỉnh Thanh Hóa",null,19.8121966,105.775556
VPBank Phạm Văn Đồng,ATM-24/7,"Căn hộ Vincom Shophouse Gardenia - Số B1-03+B1-05A, Đường Hàm Nghi, Q.Nam Từ Liêm, Hà Nội",null,21.0354584,105.7627312
VPBank Bình Thuận,ATM-24/7,"132 Trần Hưng Đạo, thành phố Phan Thiết, tỉnh Bình Thuận",null,10.9343273,108.1038835
Công ty  Giầy Ngọc Hồng II,ATM-24/7,"Thôn 2, xã An Hội, huyện Bình Lục, tỉnh Hà Nam",null,20.4838794,106.0530441
VPBank Đông Ba CDM,ATM-24/7,"179 Trần Hưng Đạo, Phú Hòa, TP Huế, tỉnh Thừa Thiên Huế",null,16.4716229,107.5872375
Công ty  Giầy Ngọc Hồng I,ATM-24/7,"Thôn 2, xã An Hội, huyện Bình Lục, tỉnh Hà Nam",null,20.4838794,106.0530441
VPBank Đống Đa CDM,ATM-24/7,"171 Đống Đa, Thạch Thang, Hải Châu, Đà Nẵng",null,16.077461,108.216461
VPBank Đò Quan,ATM-24/7,"Số 35-36, Lô CL 12, khu Đô thị Dệt may Nam Định, thành phố Nam Định, tỉnh Nam Định",null,20.420841,106.168804
VPBank Vỹ Dạ,ATM-24/7,"214 Nguyễn Sinh Cung, Vỹ Dạ,  TP. Huế, tỉnh Thừa Thiên Huế",null,16.482982,107.596417
Tòa nhà Việt Á,ATM-24/7,"Tòa Nhà Việt Á, Đường Duy Tân, Cầu Giấy, Hà Nội",null,21.0306821,105.7849563
Công ty TMDV Tiến Thành,ATM-24/7,"Cụm Công nghiệp Dĩnh Kế, phường Dĩnh Kế, thành phố Bắc Giang, tỉnh Bắc Giang",null,21.257487,106.166720
VPBank Lạc Trung CDM,ATM-24/7,"55 Lạc Trung, Hai Bà Trưng, Hà Nội",null,21.0028645,105.8665059
Bệnh viện Phục hồi Chức năng Bắc Giang,ATM-24/7,"Khu 284, xã Quế Nham, huyện Tân Yên, tỉnh Bắc Giang",null,21.313576,106.159815
VPBank Đồng Tâm CDM,CDM,"92 Trần Đại Nghĩa, quận Hai Bà Trưng, Hà Nội",null,20.9982042,105.8458214
Tòa nhà CEO,ATM-24/7,"Tòa nhà CEO, Phạm Hùng, Nam Từ Liêm, Hà Nội",null,21.0166832,105.7821125
Công ty Taixin Vina,ATM,"Số 19, đường 11, KCN VSIP Bắc Ninh, xã Đại Đồng, huyện Tiên Du, tỉnh Bắc Ninh",null,21.0822382,105.9883634
Công ty CP Hoàng Sơn I,ATM-24/7,"Thôn 2, xã Đức Liễu, huyện Bù Đăng, tỉnh Bình Phước",null,11.715762,107.140673
Bệnh viện Nhi Trung ương 2,ATM-24/7,"18/879 Đê La Thành, Đống Đa, Hà Nội",null,21.0248769,105.8074996
Công ty GOLDSUN Bắc Ninh,ATM,"Lô H12, Khu Công nghiệp Quế Võ 1, huyện Quế Võ, tỉnh Bắc Ninh",null,21.127912,106.2227605
Công ty May Đồng Phú Cường 2,ATM-24/7,"C1-4 Cụm Công Nghiệp Phú Cường, Xã Phú Cường, huyện Định Quán, tỉnh Đồng Nai",null,11.0845646,107.1717774
VPBank Thanh Xuân CDM,ATM-24/7,"Tòa nhà Housinco Tân Triều, lô Ct5, KĐT Tây Nam Kim Giang I, Xã Tân Triều, Huyện Thanh Trì, TP Hà Nội",null,20.98295,105.80894
Công ty May Đồng Phú Cường,ATM-24/7,"C1-4 Cụm Công Nghiệp Phú Cường, Xã Phú Cường, huyện Định Quán, tỉnh Đồng Nai",null,11.0845646,107.1717774
VPBank Nha Trang,ATM-24/7,"26 YERSIN, Nha Trang, Khánh Hòa",null,12.2495601,109.1894298
Công ty TT Pro Sport,ATM,"Khu 4A, thị trấn Ngô Đồng, huyện Giao Thủy, tỉnh Nam Định",null,20.28779,106.451662
Công ty Bao Bì Đại Lục- Hố Nai 3,ATM-24/7,"Lô 4-4A Đường số 10-Khu công nghiệp Hố Nai 3,Trảng Bom, Đồng Nai",null,10.9509254,106.938686
Công ty Cổ phần Quốc tế ALPHA,ATM-24/7,"Lô E13-E14, Cụm Công nghiệp Dạy Nghề, xã Đông Thọ, huyện Yên Phong, tỉnh Bắc Ninh",null,21.1800365,105.9435482
Công ty TNHH DF Zin,ATM,"Lô D2,KCN Hòa Xá, xã Mỹ Xá, thành phố Nam Định, tỉnh Nam Định",null,20.4176072,106.1461747
Coopmart Biên Hòa,ATM-24/7,"121 Quốc lộ 15, phường Tân Tiến, TP Biên Hòa, Đồng Nai",null,10.9586054,106.8341301
VPBank Cát Linh CDM,ATM-24/7,"24 Cát Linh, quận Ba Đình, Hà Nội",null,21.029036,105.8307637
VPBank Bà Chiểu CDM,ATM-24/7,"341 Lê Quang Định, quận Bình Thạnh, TP.Hồ Chí Minh",null,10.8119058,106.6904901
VPBank Đồng Nai,ATM-24/7,"K19 Võ Thị Sáu, phường Thống Nhất, TP Biên Hòa, tỉnh Đồng Nai",null,10.9471159,106.830396
Công ty TNHH DEAHAN,ATM-24/7,"Thôn 6, xã Hoằng Kim, huyện Hoằng Hóa, tỉnh Thanh Hóa",null,19.907063,105.812289
VPBank Đông Sài Gòn CDM,ATM-24/7,"Tầng trệt và tầng 1 của nhà số P6-SH.10 thuộc nhà Chung cư Park 6 – phường 22, Quận Bình Thạnh, TP Hồ Chí Minh",null,10.7921907,106.7190411
Công ty May Hồ Gươm 09,ATM,"Ngã Ba Thọ Phú, xã Kiên Thọ, huyện Ngọc Lặc, tỉnh Thanh Hóa",null,null,null
VPBank Khâm Thiên CDM,CDM,"180-182 Khâm Thiên, quận Đống Đa, Hà Nội",null,21.019192,105.836033
Công ty May Hồ Gươm,ATM-24/7,"Xí Nghiệp 8 – Tập Đoàn Hồ Gươm Chi nhánh Cẩm Thủy, Xã Cẩm Tú, huyện Cẩm Thủy, Tỉnh Thanh Hóa",null,null,null
VPBank Phạm Văn Đồng CDM,ATM-24/7,"Căn hộ Vincom Shophouse Gardenia - Số B1-03+B1-05A, Đường Hàm Nghi, Q.Nam Từ Liêm, Hà Nội",null,21.0354584,105.7627312
VPBank Lạch Tray CDM,ATM-24/7,"Số 276B Lạch Tray, phường Lạch Tray, quận Ngô Quyền, thành phố Hải Phòng",null,20.840743,106.6938359
VPBank Ý Yên,ATM-24/7,"Đường 57A, Thị trấn Lâm, huyện Ý Yên, tỉnh Nam Định",null,20.3234114,106.0149874
VPBank Cẩm Phả CDM,ATM-24/7,"308 Trần Phú, phường Cẩm Thành, thành phố Cẩm Phả, tỉnh Quảng Ninh",null,21.0095538,107.2739838
Công ty Speed Motion Việt Nam,ATM,"Thôn Phong Cốc, xã Xuân Minh, huyện Thọ Xuân, tỉnh Thanh Hóa",null,19.953515,105.550551
VPBank Nha Trang CDM,ATM-24/7,"26 YERSIN, Nha Trang, Khánh Hòa",null,12.2495601,109.1894298
Công ty CP Dgwin Việt Nam,ATM-24/7,"Xã Thọ Nguyên, huyện Thọ Xương, tỉnh Thanh Hóa",null,19.9047272,105.3921656
Công ty kết cấu thép 568,ATM,"Km 33 Quốc Lộ 5, xã Minh Đức, huyện Mỹ Hào, tỉnh Hưng Yên",null,20.9214323,106.1374579
VPBank Hà Nội I,ATM-24/7,"5 Điện Biên Phủ, Q.Ba Đình, Hà Nội",null,21.0291199,105.842426
SAIGONRES PLAZA CDM,ATM-24/7,"79-81 Nguyễn Xí - Phường 26, Q.Bình Thạnh, TP Hồ Chí Minh",null,10.816666,106.707035
VPBank Nhà Bè,ATM-24/7,"Số 51 Khu Dân Cư Phú Long, Phân Khu Số 8, đường Nguyễn Hữu Thọ, Ấp 5, Xã Phước Kiển",null,10.718676,106.702692
Nguyễn Ảnh Thủ CDM,ATM-24/7,"18A Nguyễn Ảnh Thủ, Hiệp Thành, Quận 12, TP Hồ Chí Minh",null,10.876606,106.645076
VPBank Thường Tín,ATM-24/7,"Xã Văn Bình, huyện Thường Tín, Hà Nội",null,20.8935787,105.8573536
VPBank Đội Cung CDM,ATM-24/7,"Số 113, đường Trường Chinh, phường Lê Lợi, thành phố Vinh, tỉnh Nghệ An",null,18.6811226,105.6649147
VPBank Yên Phong CDM,ATM-24/7,"Thôn Ngô Nội, xã Trung Nghĩa, huyện Yên Phong, Bắc Ninh",null,21.1885945,105.9595802
VPBank Hóc Môn,ATM-24/7,"39/13 Lê Thị Hà, khu phố 8, Thị trấn Hóc Môn, huyện Hóc Môn,TP Hồ Chí Minh",null,10.8860775,106.5983504
Công ty Comme De Game Vina,ATM-24/7,"Cụm CN Đông La, xã Đông La, huyện Đông Hưng, tỉnh Thái Bình",null,20.5639590,106.3580980
VPBank Dĩ An CDM,ATM-24/7,"18 đường Dĩ An – Truông Tre, Khu phố Nhị Đồng 2, phường Dĩ An, thành phố Dĩ An, tỉnh Bình Dương",null,10.8970782,106.7646807
VPBank Thủ Đức CDM,ATM-24/7,"100C Đặng Văn Bi, khu phố 2, phường Bình Thọ, TP. Thủ Đức, TP Hồ Chí Minh",null,10.843883,106.762408
VPBank Dĩ An,ATM-24/7,"18 đường Dĩ An – Truông Tre, Khu phố Nhị Đồng 2, phường Dĩ An, thành phố Dĩ An, tỉnh Bình Dương",null,10.8970782,106.7646807
VPBank Phú Hội,ATM-24/7,"64 Hùng Vương, phường Phú Nhuận, TP. Huế, tỉnh Thừa Thiên Huế",null,16.4629333,107.5969538
Công ty THHH Triệu Thái Sơn,ATM-24/7,"Xã Dân Lực, huyện Triệu Sơn, tỉnh Thanh Hóa",null,19.840284,105.599796
Công ty TNHH Ryonan Electric Việt Nam,ATM,"Lô B10 KCN Thăng Long, xã Kim Chung, huyện Đông Anh, Hà Nội",null,21.1221123,105.7798664
VPBank An Giang,ATM-24/7,"179-181 Trần Hưng Đạo, phường Mỹ Bình, thành phố Long Xuyên, tỉnh An Giang",null,10.3681422,105.44757
VPBank Kỳ Hòa,ATM-24/7,"276C CMT8, P.10, Q.3,TP Hồ Chí Minh",null,10.780731,106.676835
Công ty in và bao bì Goldsun,ATM,"KCN Phú Minh, phường Cổ Nhuế 2, quận Bắc Từ Liêm, Hà Nội",null,21.0594375,105.7647713
Công ty Viexim Hưng Yên,ATM-24/7,"Thôn Hảo, xã Liêu Xá, huyện Yên Mỹ, tỉnh Hưng Yên",null,20.922114,106.058199
Công ty TNHH MTV Ngọc Việt,ATM-24/7,"Thị trấn Vân Đình, huyện Ứng Hòa, Hà Nội",null,20.736517,105.76729
VPBank Phú Lâm,ATM-24/7,"122 Kinh Dương Vương, Q6, TP Hồ Chí Minh",null,10.7500747,106.6290527
Tòa nhà Bình Dương Square,ATM-24/7,"01 Đường Phú Lợi, phường Phú Lợi, TP Thủ Dầu Một, tỉnh Bình Dương",null,10.984132,106.666300
VPBank Quảng Bình,ATM-24/7,"108 Trần Hưng Đạo Đồng Hới, Đồng Hới, tỉnh Quảng Bình",null,17.4691662,106.6132982
UBND P.Vĩnh Lạc,ATM-24/7,"343- 347 Nguyễn Trung Trực, Rạch Giá, tỉnh Kiên Giang",null,9.9979325,105.0921174
VPBank Hải Dương,ATM-24/7,"11 Trần Hưng Đạo, phường Trần Hưng Đạo, TP Hải Dương",null,20.938015,106.3388869
VPBank Bến Thủy,ATM-24/7,"Số 01, đường Nguyễn Văn Trỗi, phường Bến Thủy, thành phố Vinh, tỉnh Nghệ An",null,18.6585213,105.6986214
VPBank Kiên Giang,ATM-24/7,"4 Trần Phú, Rạch Giá, tỉnh Kiên Giang",null,10.0165538,105.08057
Tòa nhà CT1 Sudico,ATM-24/7,"KĐT SUDICO, Mễ Trì Hạ, Từ Liêm, Hà Nội",null,21.0165182,105.7795285
VPBank Đồng Tâm,ATM-24/7,"92 Trần Đại Nghĩa, Hai Bà Trưng, Hà Nội",null,20.9982042,105.8458214
VPBank Nam Sài Gòn,ATM-24/7,"352 Huỳnh Tấn Phát, Q.7, TP Hồ Chí Minh",null,10.749157,106.728536
VPBank Cầu Giấy CDM,ATM-24/7,"2 Nguyễn Khánh Toàn, phường Quan Hoa, quận Cầu Giấy, Hà Nội",null,21.0370156,105.8014425
Công ty TNHH Giày Việt Hảo,ATM-24/7,"Thôn Quỳnh Khuê, xã Kim Xuyên, huyện Kim Thành, tỉnh Hải Dương",null,20.974673,106.482323
VPBank Bình Phước,ATM-24/7,"860 Phú Riềng Đỏ, phường Tân Xuân, thị xã Đồng Xoài, tỉnh Bình Phước",null,11.5314186,106.8970774
Công ty May Việt Trí,ATM-24/7,"Thôn Đông La, xã Hồng Quang, huyện Thanh Miên, Hải Dương",null,20.8048568,106.1766366
VIMICO Lào Cai,ATM-24/7,"Xã Bản Vược, huyện Bát Xát, tỉnh Lào Cai",null,22.6047296,103.832284
VPBank Ninh Kiều,ATM-24/7,"353 Nguyễn Văn Cừ, Ninh Kiều, thành phố Cần Thơ",null,10.045581,105.767227
VPBank Bà Rịa,ATM-24/7,"44 Bạch Đằng, Khu phố 2, phường Phước Trung, thành phố Bà Rịa, tỉnh Bà Rịa Vũng Tàu",null,10.493462,107.170214
VPBank Phan Huy ích,ATM-24/7,"242 Phan Huy Ích, Q.Gò Vấp, TP Hồ Chí Minh",null,10.83667,106.636
VPBank Nam Từ Liêm CDM,ATM-24/7,"292 Hồ Tùng Mậu, phường Phú Diễn, quận Bắc Từ Liêm, Hà Nội",null,21.041635,105.762144
Âu Cơ CDM,ATM-24/7,"267 Âu Cơ, Phường 5, Quận 11, TP Hồ Chí Minh",null,10.774920,106.647759
VPBank Sơn Tây,ATM-24/7,"Số 354 đường Chùa Thông, phường Sơn Lộc,Thị xã Sơn Tây, Hà Nội",null,21.126721,105.502857
VPBank Tân Bình CDM,ATM-24/7,"307E Nguyễn Văn Trổi, Q.Tân Bình, TP Hồ Chí Minh",null,10.798948,106.669507
VPBank Trung Chánh,ATM-24/7,"146 Nguyễn Ảnh Thủ, Ấp Đông, xã Thới Tam Thôn, huyện Hóc Môn, TP Hồ Chí Minh",null,10.87494,106.62250
VPBank Tân Phú CDM,CDM,"595-597 Lũy Bán Bích, Phường Phú Thạnh, Quận Tân Phú, TP HCM",null,10.7786575,106.6351009
VPBank Nam Sài Gòn CDM,ATM-24/7,"352 Huỳnh Tấn Phát, Q.7, TP Hồ Chí Minh",null,10.749157,106.728536
VPBank Kinh Đô,ATM-24/7,"292 Tây Sơn, phường Trung Liệt, quận Đống Đa, Hà Nội",null,21.0070477,105.8228378
VPBank Lý Tự Trọng CDM,ATM-24/7,"Số 106C và Số 108 Đường Lý Tự Trọng, Phường Thới Bình, Quận Ninh Kiều, Thành Phố Cần Thơ, Việt Nam.",null,10.03620,105.77793
VPBank Hùng Vương PT,ATM-24/7,"1274 Hùng Vương, phường Tiên Cát, thành phố Việt Trì, tỉnh Phú Thọ",null,21.308660,105.403227
VPBank Chánh Hưng CDM,ATM-24/7,"357 Phạm Hùng, H.Bình Chánh, TP Hồ Chí Minh",null,10.7339213,106.6732837
VPBank Hà Tây,ATM-24/7,"số 121 - 123 đường Tô Hiệu, phường Nguyễn Trãi, Quận Hà Đông, Hà Nội",null,20.9665087,105.7775278
VPBank Hải Dương CDM,CDM,"11 Trần Hưng Đạo, thành phố Hải Dương, tỉnh Hải Dương",null,20.938015,106.3388869
VPBank Lạc Quần 2,ATM-24/7,"Số 98 Quốc lộ 21, Thị trấn Cổ Lễ, huyện Trực Ninh, tỉnh Nam Định",null,20.3271823,106.2595308
VPBank Nam Định CDM,ATM-24/7,"Số 69 Lê Hồng Phong, phường Nguyễn Du, thành phố Nam Định, tỉnh Nam Định",null,20.426375,106.17724
VPBank Ba Đồn,ATM-24/7,"381 Quang Trung, TT Ba Đồn, tỉnh Quảng Bình",null,17.756865,106.419843
VPBank Long An CDM,ATM-24/7,"Số 6 Lê Cao Dõng, phường 2, thị xã Tân An, tỉnh Long An",null,10.5371695,106.4071329
Chung cư Carina Plaza CDM,ATM-24/7,"1648 Đường Võ Văn Kiệt, Phường 16, Quận 8, TP Hồ Chí Minh",null,10.729120,106.624596
VPBank Cộng Hòa,ATM-24/7,"19C Cộng Hòa, Q.Tân Bình, TP Hồ Chí Minh",null,10.801562,106.650261
VPBank Nghệ An CDM,ATM-24/7,"Nhà A Khu Thương mại thành phố Vinh, tỉnh Nghệ An",null,18.6707564,105.6742798
VPBank Kiên Giang CDM,ATM-24/7,"4 Trần Phú, Rạch Giá, tỉnh Kiên Giang",null,10.0165538,105.08057
VPBank Hội An,ATM-24/7,"523 Hai Bà Trưng, TP Hội An,  tỉnh Quảng Nam",null,15.883250,108.325185
VPBank Nguyễn Tri Phương,ATM-24/7,"96 đường 2/9, phường Bình Thuận, quận Hải Châu, thành phố Đà Nẵng",null,16.056320,108.222183
VPBank Nam Hà Nội CDM,ATM-24/7,"18 ngõ 221 đường Giáp Bát, phường Giáp Bát, Hoàng Mai, Hà Nội",null,20.983874,105.844659
Công ty TNHH MTV Ngọc Việt II,ATM,"Thị trấn Vân Đình, huyện Ứng Hòa, Hà Nội",null,20.736517,105.76729
VPBank Lê Văn Sỹ,ATM-24/7,"288-290 Lê Văn Sỹ, Q.3, TP Hồ Chí Minh",null,10.7870139,106.679744
VPBank Nguyễn Duy Trinh,ATM-24/7,"657-659 đường Nguyễn Duy Trinh, KP4, phường Bình Trưng Đông, Tp Thủ Đức, TP Hồ Chí Minh",null,10.788310,106.775280
VPBank Quảng Trị,ATM-24/7,"38 QL9, Phường 1, thành phố Đông Hà, tỉnh Quảng Trị",null,16.817521,107.086597
Bệnh viện Nhi Trung ương 3,ATM-24/7,"18/879 Đê La Thành, Đống Đa, Hà Nội",null,21.0248769,105.8074996
VPBank Hải An CDM,ATM-24/7,"346 Văn Cao, phường Đằng Lâm, quận Hải An,thành phố Hải Phòng",null,20.8316249,106.7026052
VPBank Trung Kính,ATM-24/7,"219 Trung Kính, phường Yên Hòa, quận Cầu Giấy, Hà Nội",null,34.047863,100.6196553
VPBank Bến Thành II,ATM-24/7,"39 Lê Duẩn, phường Bến Nghé, Quận 1, TP Hồ Chí Minh",null,10.78142,106.70060
VPBank Nơ Trang Long,ATM-24/7,"151 Nơ Trang Long, P12, Q.Bình Thạnh, TP Hồ Chí Minh",null,10.8132337,106.6966565
Công ty TNHH YA-AJM Việt Nam,ATM-24/7,"Cụm CN An Đồng, xã An Đồng, Nam Sách, Hải Dương",null,20.995464,106.3346061
VPBank Văn Quán,ATM-24/7,"Tòa nhà Rainbow, Đường 19/5, phường Văn Quán, quận Hà Đông, Hà Nội",null,20.974849,105.787962
VPBank Diễn Châu,ATM-24/7,"Nhà số 43, Tổ 8, Khối 3, TT Diễn Châu, huyện Diễn Châu, tỉnh Nghệ An",null,18.983484,105.601027
VPBank Hưng Vượng,ATM-24/7,"17 Bùi Bằng Đoàn, khu phố Hưng Vượng, P.Tân Phong, Quận 7,TP Hồ Chí Minh",null,15.5698161,108.4892272
VPBank An Giang CDM,ATM-24/7,"179-181 Trần Hưng Đạo, phường Mỹ Bình, thành phố Long Xuyên, tỉnh An Giang",null,10.3681422,105.44757
VPBank Thành Công,ATM-24/7,"Tầng 1, Tòa nhà Golden Place A, P. Mễ Trì, P. Phú Đô, Nam Từ Liêm, Hà Nội",null,21.009457,105.773674
VPBank Nguyễn Thái Học CDM,ATM-24/7,"278 Nguyễn Thái Học, thành phố Quy Nhơn, tỉnh Bình Định",null,13.7689814,109.2172078
Công ty Deuhues CDM,ATM-24/7,"Lô F1, F2, F7, F8 - Khu Công Nghiệp Dầu Giây, Xã Bàu Hàm 2",null,10.83168,106.73023
Công ty Creative Source III,ATM-24/7,"Lô CN2 và VN3 diện tích 71.744,3m2 Cụm CN Minh Lãng, xã Vũ Thư, tỉnh Thái Bình",null,20.4808527,106.269079
VPBank Sông Lam,ATM-24/7,"Shophouse LK1-10, dự án đầu tư xây dựng Khu nhà ở thấp tầng Trường Thịnh Phát, Khối Yên Sơn, phường Hà Huy Tập, Thành Phố Vinh, tỉnh Nghệ An",null,18.692662,105.689056
VPBank Đồng Nai CDM,ATM-24/7,"K19 Võ Thị Sáu, phường Thống Nhất, TP Biên Hòa, Đồng Nai",null,10.9471159,106.830396
Công ty Creative Source II,ATM-24/7,"Lô CN2 và VN3 diện tích 71.744,3m2 Cụm CN Minh Lãng, xã Vũ Thư, tỉnh Thái Bình",null,20.4808527,106.269079
VPBank Hai Bà Trưng CDM,CDM,"182A Lò Đúc, quận Hai Bà Trưng, Hà Nội",null,21.0094821,105.8609802
VPBank Thanh Hóa CDM,ATM-24/7,"Lô 05+06, đường Phan Chu Trinh, phường Điện Biên, thành phố Thanh Hoá, tỉnh Thanh Hóa",null,19.8121966,105.775556
Công ty Creative Source I,ATM-24/7,"Lô CN2 và VN3 diện tích 71.744,3m2 Cụm CN Minh Lãng, xã Vũ Thư, tỉnh Thái Bình",null,20.4808527,106.269079
VPBank Hố Nai,ATM-24/7,"212 đường Xa Lộ Hà Nội, Khu Phố 1, Phường Tân Biên, Thành Phố Biên Hòa, Tỉnh Đồng Nai",null,10.966386,106.886309
VPBank Thụy Khuê CDM,ATM-24/7,"Số 251U+251T+251V đường Thụy Khuê, phường Thụy Khuê, Quận Tây Hồ, Hà Nội",null,21.0434838,105.818944
Trường Đại học Đại Nam,ATM,"Số 1, Phốn Xốm, Phường Phú Lãm, Quận Hà Đông, Hà Nội",null,20.947531,105.75843
Công ty May Đức Hạnh,ATM,"Xã Trung Lương, huyện Bình Lục, tỉnh Hà Nam",null,20.476061,106.036255
VPBank Đăk Lăk,ATM-24/7,"35-37 Ngô Quyền, P.Tân Lợi, TP.Buôn Ma Thuột, tỉnh Đăk Lăk",null,12.6878632,108.0519607
Công ty Xi măng Sài Sơn,ATM,"Thôn Nam Sơn, xã Nam Phương Tiến, huyện Chương Mỹ, Hà Nội",null,20.51240,105.35313
Trường THCN chế tạo máy,ATM-24/7,"131 Nguyễn Trãi, Thượng Đình, Thanh Xuân, Hà Nội",null,20.9971763,105.8153849
Công ty Toyoda Gosei 2,ATM,"Lô F, KCN Tiền Hải, xã Tây Giang, huyện Tiền Hải, tỉnh Thái Bình",null,20.3917427,106.5130080
Lữ Đoàn 205,ATM-24/7,"22 Trần Duy Hưng, Trung Hòa, Cầu Giấy, Hà Nội",null,21.0137863,105.8027581
VPBank Ba Đình,ATM-24/7,"Tầng 1 tòa nhà Việt Hải, Duy Tân, Cầu Giấy, Hà Nội",null,21.0301772,105.7860506
ATM Lấp Vò,ATM-24/7,"QL80, Cụm CN Vàm Cống, An Thanh, Bình Thành, huyện Lấp Vò, tỉnh Đồng Tháp",null,10.3343209,105.4926278
Công ty An Phát,ATM-24/7,"Lô CN 11-12, Cụm CN An Đồng, xã An Đồng Nam Sách, Hải Dương",null,21.0270628,106.3588886
Trường Đại học Công nghệ Giao thông Vận tải,ATM-24/7,"54 Triều Khúc, Thanh Xuân Nam, Thanh Xuân, Hà Nội",null,20.9848308,105.7988798
VPBank Trần Lãm CDM,ATM-24/7,"588 Lý Bôn, phường Kỳ Bá, thành phố Thái Bình, tỉnh Thái Bình",null,20.4402779,106.3397672
VPBank Tân Phú CDM 2,ATM-24/7,"595-597 Lũy Bán Bích, Phường Phú Thạnh, Quận Tân Phú, TP HCM",null,10.7786575,106.6351009
Chung cư Khánh Hội 2 CDM,ATM-24/7,"360A Bến Vân Đồn, Phường 1, Quận 4, Thành phố Hồ Chí Minh",null,10.7560357,106.6906566
VPBank Âu Cơ CDM,ATM-24/7,"109 Nghi Tàm, Yên Phụ, quận Tây Hồ, Hà Nội",null,21.053488,105.837504
VPBank Bến Tre,ATM-24/7,"261B Đại Lộ Đồng Khởi, phường Phú Khương, thành Phố Bến Tre, tỉnh Bến Tre",null,10.244609,106.375162
Chung cư RichStar CDM,ATM-24/7,"239-241 Hòa Bình, quận Tân Phú, TP Hồ Chí Minh",null,10.7726904,106.6236066
VPBank Mỹ Đình CDM,ATM-24/7,"Tầng 1 tòa nhà CT1-1 khu đô thị Mễ Trì Hạ, phường Mễ Trì, quận Nam Từ Liêm, Hà Nội",null,21.015306,105.7809528
Khu đô thị Vạn Phúc CDM,ATM-24/7,"31 Nguyễn Thị Nhung, phường Hiệp Bình Phước,TP. Thủ Đức, TP Hồ Chí Minh",null,10.842237,106.714873
VPBank Vĩnh Yên,ATM-24/7,"245 -247 đường Hùng Vương, phường Tích Sơn, TP Vĩnh Yên, Vĩnh Phúc",null,21.3077197,105.5850005
VPBank Định Công,ATM-24/7,"55 Trần Nguyên Đán, Định Công, Hoàng Mai, Hà Nội",null,20.9862594,105.8332166
Công ty Gỗ Bùi Văn Ngọ-Long An,ATM-24/7,"Ấp 5, Đức Hòa Đông, huyện Đức Hòa, tỉnh Long An",null,10.8649918,106.5696702
VPBank Nam Định,ATM-24/7,"Số 69 Lê Hồng Phong, phường Nguyễn Du, thành phố Nam Định, tỉnh Nam Định",null,20.426375,106.17724
Công ty Bao Bì Đại Lục,ATM-24/7,"Cụm Công nghiệp Long Bình Nhơn, Xã Long Bình Nhơn, TP Tân An, tỉnh Long An",null,10.547918,106.3613875
Công ty DHA Bắc Ninh II,ATM,"Xã Phượng Giáo, thị trấn Thứa, huyện Lương Tài, tỉnh Bắc Ninh",null,21.0216092,106.2043232
VPBank Tây Ninh,ATM-24/7,"Nhà phố thương mại (Shophouse) số PG2-35 và PG2-36 thuộc Dự án Tổ hợp Trung tâm thương mại, Khách sạn tiêu chuẩn 5 sao và nhà phố Shophouse Tây Ninh, Đường 30/4, Khu phố 1, phường 3, Tp. Tây Ninh",null,11.3351554,106.1098854
Công ty Foster I,ATM,"1 đường 11,KCN VSIP Bắc Ninh, huyện Từ Sơn, tỉnh Bắc Ninh",null,21.0844898,105.9785518
VPBank Phú Quốc,ATM-24/7,"133 Nguyễn Trung Trực, Thị trấn Dương Đông, huyện Phú Quốc, tỉnh Kiên Giang",null,10.2233378,103.964392
VPBank Huế,ATM-24/7,"35 Lý Thường Kiệt, P. Phú Nhuận, TP.Huế, tỉnh Thừa Thiên Huế",null,16.4615259,107.5913781
Công ty Thời trang  Itas Mars,ATM-24/7,"Khu dân cư Đường Vòng, phường Yên Bình, thành phố Tam Điệp, tỉnh Ninh Bình",null,20.177912,105.947467
VPBank Đà Nẵng,ATM-24/7,"112 Phan Chu Trinh, phường Phước Ninh, Hải Châu, Đà Nẵng",null,16.0648154,108.2199239
Công ty TNHH Nam Triệu,ATM,"Thôn Nghi, xã Tam Hưng, huyện Thủy Nguyên, thành phố Hải Phòng",null,20.9376281,106.7637453
Học viện Công nghệ Bưu chính,ATM-24/7,"142 Đường Trần Phú, Hà Đông, Hà Nội",null,20.9763606,105.782615
Công ty TNHH Vỹ Lâm,ATM-24/7,"Cụm Công nghiệp An Lão, thị trấn An Lão, huyện An Lão, thành phố Hải Phòng",null,20.8255561,106.5474681
VPBank Long An,ATM-24/7,"Số 6 Lê Cao Dõng, phường 2, thị xã Tân An, tỉnh Long An",null,10.5371695,106.4071329
Công ty TNHH Nam Thuận,ATM,"Thôn Rực Liễn, Xã Thủy Sơn, huyện Thủy Nguyên, thành phố Hải Phòng",null,20.923394,106.651272
Công ty Tài Nguyên Toàn Cầu LDR,ATM-24/7,"Lô B4, B5, B6, Đường số 1, Khu công nghiệp Thuận Đạo, TT Bến Lức, huyện Bến Lức, tỉnh Long An",null,10.619549,106.490440
Công ty Lucky Việt Nam II,ATM-24/7,"Khu Tiểu Trà, Hưng Đạo, quận Dương Kinh, thành phố Hải Phòng",null,20.7953821,106.689688
Công ty TT Prosport 3,ATM,"Xóm 5, xã Hồng Thuận, huyện Giao Thủy, tỉnh Nam Định",null,20.2882670,106.4435319
Công ty Lucky Việt Nam I,ATM-24/7,"Khu Tiểu Trà, Hưng Đạo, quận Dương Kinh, thành phố Hải Phòng",null,20.7953821,106.689688
VPBank Hồng Lĩnh,ATM-24/7,"Số 101 đường Trần Phú, phường Nam Hồng, thị xã Hồng Lĩnh, tỉnh Hà Tĩnh",null,18.5244601,105.7028457
VPBank Hải Phòng,ATM-24/7,"Số 31-33 Phạm Ngũ Lão, phường Lương Khánh Thiện, Quận Ngô Quyền, thành phố Hải Phòng",null,20.8568129,106.6867492
VPBank Văn Phú CDM,ATM-24/7,"Tòa C, CCH- CT2, KĐT Văn Phú, Hà Đông, Hà Nội",null,21.0001334,105.821951
VPBank Cần Thơ,ATM-24/7,"52-54 Trần Văn Khéo, Ninh Kiều, thành phố Cần Thơ",null,10.0448009,105.7847625
VPBank Bến Lức,ATM-24/7,"83 Nguyễn Hữu Thọ, Bến Lức, tỉnh Long An",null,10.6387396,106.4874154
ATM Ministop Hoàng Hoa Thám,ATM-24/7,"10A Hoàng Hoa Thám, Phường 7, Quận Bình Thạnh, TP Hồ Chí Minh",null,10.804619,106.691791
VPBank Phú Mỹ Hưng,ATM-24/7,"85 Hoàng Văn Thái, Q.7, TP Hồ Chí Minh",null,10.7291087,106.7202352
AEON Mall Bình Dương,ATM,"01 Đại lộ Bình Dương, Khu phố Bình Giao, Phường Thuận Giao, Thành phố Thuận An, Tỉnh Bình Dương",null,10.9324249,106.7115546
Tòa nhà CT9 Sudico,ATM-24/7,"KĐT SUDICO, Mễ Trì Hạ, Từ Liêm, Hà Nội",null,21.0165182,105.7795285
Tòa nhà ACM,ATM-24/7,"96 Cao Thắng, phường 4, Quận 3, TP Hồ Chí Minh",null,10.7715108,106.680679
VPBank Thăng Long CDM,ATM-24/7,"91 Nguyễn Chí Thanh, quận Đống Đa, Hà Nội",null,21.0207075,105.8094335
Công ty Wooyang Vina 2,ATM-24/7,"579/1 Lê Văn Khương, P. Hiệp Thành, Q. 12, TP Hồ Chí Minh",null,10.8940407,106.6468717
Công ty TNHH Thép Shengli,ATM,"KCN Cầu Nghìn, thị trấn An Bài, huyện Quỳnh Phụ, tỉnh Thái Bình",null,20.6486020,106.4262580
Công ty Lạc Long,ATM-24/7,"Lô Q4, đường số 8, KCN Long Hậu Mở Rộng - Xã Long Hậu- huyện Cần Giuộc- tỉnh Long An",null,10.625218,106.7199822
VPBank Quảng Nam,ATM-24/7,"175 + 177 Phan Chu Trinh, Tam Kỳ, tỉnh Quảng Nam",null,15.5698161,108.4892272
Vincom Plaza Gò Vấp,ATM-24/7,"12 Phan Văn Trị, P5, Gò Vấp, TP Hồ Chí Minh",null,10.8270472,106.6892774
VPBank Nguyễn Du,ATM-24/7,"Số 214, đường Nguyễn Công Trứ, phường Bắc Hà, thành phố Hà Tĩnh, tỉnh Hà Tĩnh",null,18.346753,105.902464
Phòng Khám Đa Khoa KCN Tân Bình,ATM-24/7,"lô 2-6 đường Lê Trọng Tấn, phường Tây Thạnh, quận Tân Phú, TPTP Hồ Chí Minh",null,10.8105596,106.6126059
VPBank Móng Cái,ATM-24/7,"6 Hùng Vương, TP Móng Cái, Quảng Ninh",null,21.5279757,107.9701352
Coopmart Xa Lộ Hà Nội,ATM-24/7,"191 Quang Trung, phường Hiệp Phú, quận 9, TP Hồ Chí Minh",null,10.8481795,106.7743266
VPBank Bố Trạch,ATM-24/7,"366 Hùng Vương, TT Hoàn Lão, Bố Trạch,  tỉnh Quảng Bình",null,17.5808620,106.5363080
Công ty May Xuất Khẩu Việt Thái,ATM-24/7,"142 Quang Trung, thành phố Thái Bình, tỉnh Thái Bình",null,20.4388313,106.3260286
Công ty Tài Chính FE,ATM-24/7,"144 Cộng Hòa, P12, quận Tân Bình, TP Hồ Chí Minh",null,10.8019171,106.6522494
Công ty TT Pro Sport,ATM,"Khu 4A, thị trấn Ngô Đồng, huyện Giao Thủy, tỉnh Nam Định",null,20.28779,106.451662
Công ty Keum Dam Vina,ATM-24/7,"Khu phố Phước Hải, phường Thái Hòa, thị xã Tân Uyên, tỉnh Bình Dương",null,10.9926559,106.7491454
Công ty Foster II,ATM,"1 đường 11,KCN VSIP Bắc Ninh, huyện Từ Sơn, tỉnh Bắc Ninh",null,21.0844898,105.9785518
VPBank Kim Mã CDM,ATM-24/7,"54-58-56 Kim Mã, Kim Mã, Ba Đình, Hà Nội",null,21.0325741,105.8282029
VPBank Thủ Đô CDM,ATM-24/7,"34B Trần Phú, phường Điện Biên, quận Ba Đình, Hà Nội",null,21.030236,105.843341
Vincom Cần Thơ,ATM-24/7,"209 Đường 30 tháng 4, phường Xuân Khánh, thành phố Cần Thơ",null,10.0258144,105.7757974
VPBank Thăng Long 2,ATM-24/7,"91 Nguyễn Chí Thanh, quận Đống Đa, Hà Nội",null,21.0207075,105.8094335
VPBank Trần Duy Hưng CDM,ATM-24/7,"Tầng 1, Tòa nhà số S4.03 Khu đô thị Vinhomes Smart City, Tây Mỗ, Hà nội.",null,21.011464,105.785935
Công ty TNHH BT FASHION,ATM,"Thôn Đông, thị trấn Bích Động, huyện Việt Yên, tỉnh Bắc Giang",null,21.2783512,106.1051705
ATM Số 01 Lương Yên,ATM-24/7,"01 Lương Yên, Bạch Đằng, Hai Bà Trưng, Hà Nội",null,21.0115096,105.8628623
Nhà máy Thuận Hưng - Woodsland,ATM-24/7,"Lô 49K,KCN Quang Minh, Mê Linh, Hà Nội",null,21.1856191,105.7792521
HTX ACE WORLD Bình An,ATM-24/7,"Thôn Cát, xã Đức Giang, huyện Yên Dũng, tỉnh Bắc Giang",null,21.2139742,106.1820199
VPBank Đông Hà,ATM-24/7,"17 Trần Hưng Đạo, Đông Hà, tỉnh Quảng Trị",null,16.8227755,107.0989306
May Bắc Giang - Lục Nam II,ATM-24/7,"Thị trấn Đồi Ngô, huyện Lục Nam, tỉnh Bắc Giang",null,21.3040025,106.3801368
Công ty Hoàng Vũ,ATM-24/7,"Cụm CN TT Phùng, Đan Phượng, Hà Nội",null,21.0935866,105.6570377
May Bắc Giang - Lục Nam I,ATM-24/7,"Thị trấn Đồi Ngô, huyện Lục Nam, tỉnh Bắc Giang",null,21.3040025,106.3801368
VPBank Lam Sơn,ATM-24/7,"253 Trần Phú, P.Ba Đình, TP.Thanh Hóa, tỉnh Thanh Hóa",null,19.801645,105.776477
Công ty cổ phần – Tổng công ty May Bắc Giang,ATM,"Số 349 đường Giáp Hải, phường Dĩnh Kế, thành phố Bắc Giang, tỉnh Bắc Giang.",null,21.2856174,106.2223921
VPBank Long Thành,ATM-24/7,"A1-3 và A1-4 Khu dân cư Cầu Xéo, Chợ Long Thành, Thị trấn Long Thành, tỉnh Đồng Nai",null,10.7692743,106.953888
Công ty XNK may Đại Lâm,ATM-24/7,"Thôn Dễu, xã Đại Lâm, huyện Lạng Giang, tỉnh Bắc Giang",null,21.2936111,106.2888889
VPBank Gò Vấp CDM 02,ATM-24/7,"2B Quang Trung, Quận Gò Vấp, TP Hồ Chí Minh",null,10.8269942,106.6781705
UBND xã Ngọc Vân,ATM-24/7,"Xã Ngọc Vân, huyện Tân Yên, tỉnh Bắc Giang",null,21.3535833,106.0463837
VPBank Gò Vấp CDM,ATM-24/7,"2B Quang Trung, Quận Gò Vấp, TP Hồ Chí Minh",null,10.8269942,106.6781705
VPBank Kiến An,ATM-24/7,"Số 125 Trần Thành Ngọ, phường Trần Thành Ngọ, Quận Kiến An, thành phố Hải Phòng",null,20.8103752,106.6257081
Công ty May QT,ATM,"Xã Tân Sỏi, huyện Yên Thế, tỉnh Bắc Giang",null,21.4461953,106.169748
VPBank Quang Trung,ATM-24/7,"Số 184 Quang Trung, phường Phạm Hồng Thái, Quận Hồng Bàng, thành phố Hải Phòng",null,20.8552058,106.6726813
Công ty May Việt Thành,ATM,"Khu công nghiệp Cái Sơn, Hằng Bàng, KV 4, phường An Bình, quận Ninh Kiều, thành phố Cần Thơ",null,10.0337643,105.7469902
VPBank Đồng Hới,ATM-24/7,"59 Tố Hữu, Nam Lý, Đồng Hới, tỉnh Quảng Bình",null,17.4696567,106.6044611
Xí nghiệp May Lạng Giang II,ATM-24/7,"Thôn Bằng, xã Nghĩa Hòa, huyện Lạng Giang, tỉnh Bắc Giang",null,21.4316047,106.2399585
VPBank Thuận An,ATM-24/7,"68A đường Nguyễn Văn Tiết, phường Lái Thiêu, thành phố Thuận An, Tỉnh Bình Dương",null,10.9908335,106.6545599
Công ty Cổ phần May Thể Thao Nghi Xuân,ATM-24/7,"Thôn Hồng Mỹ, Xã Xuân Mỹ, Huyện Nghi Xuân, Tỉnh Hà Tĩnh",null,18.626472,105.78023
Công ty Cổ phần May Tiên Lục,ATM-24/7,"Thôn Giữa, xã Tiên Lục, huyện Lạng Giang, tỉnh Bắc Giang",null,21.395327,106.2110311
VPBank Hà Tĩnh,ATM-24/7,"Số 17, đường Trần Phú, phường Trần Phú, thành phố Hà Tĩnh, tỉnh Hà Tĩnh",null,18.3395963,105.8943328
Công ty Thời trang VERT,ATM,"Kim Tràng, xã Tân Lập, huyện Tân Yên, tỉnh Bắc Giang",null,21.336463,106.1434031
VPBank Vỹ Dạ CDM,ATM-24/7,"214 Nguyễn Sinh Cung, Vỹ Dạ,  TP. Huế, tỉnh Thừa Thiên Huế",null,16.482982,107.596417
Công ty may Hàn Việt,ATM-24/7,"Thị trấn Bảo Sơn, huyện Lục Nam, tỉnh Bắc Giang",null,21.3596764,106.3300036
VPBank Phú Yên,ATM-24/7,"182 Đại Lộ Hùng Vương, phường 7, TP. Tuy Hòa, tỉnh Phú Yên",null,13.0923325,109.3139763
VPBank Bắc Giang,ATM-24/7,"Số 303 đường Lê Lợi, phường Hoàng Văn Thụ, thành phố Bắc Giang, tỉnh Bắc Giang",null,21.2757257,106.2034138
VPBank Sở Giao Dịch CDM,ATM-24/7,"34 Hai Bà Trưng, quận Hoàn Kiếm, Hà Nội",null,21.0247064,105.8523778
VPBank Lê Chân,ATM-24/7,"Số 230-232 Tô Hiệu, phường Trại Cau, Quận Lê Chân, thành phố Hải Phòng",null,20.850956,106.678312
VPBank Vĩnh Phúc CDM,ATM-24/7,"Số 351 Đường Mê Linh, phường Liên Bảo, thành phố Vĩnh Yên, tỉnh Vĩnh Phúc",null,21.31343,105.61172
VPBank Lê Hồng Phong,ATM-24/7,"Thửa 13, Lô 22B, Khu đô thị mới Ngã Năm, Sân bay Cát Bi, phường Đông Khê, Quận Ngô Quyền,thành phố Hải Phòng",null,20.8477885,106.7069341
Tòa nhà Everich CDM,ATM-24/7,"968 Đường 3/2, quận 11, TP Hồ Chí Minh",null,10.7630574,106.6570853
VPBank Hải Vân,ATM-24/7,"523 Điện Biên Phủ, Thanh Khê, Đà Nẵng",null,16.0657197,108.1988645
Công ty Tài chính FE CDM,CDM,"144 Cộng Hòa, P12, quận Tân Bình, TP.Hồ Chí Minh",null,10.8019171,106.6522494
VPBank Thủ Đức,ATM-24/7,"100C Đặng Văn Bi, khu phố 2, phường Bình Thọ, TP. Thủ Đức, TP Hồ Chí Minh",null,10.843883,106.762408
VPBank Hồ Chí Minh CDM,ATM-24/7,"165-169 Hàm Nghi, Q.1, TP Hồ Chí Minh",null,10.770717,106.699662
VPBank Hà Nội CDM,ATM-24/7,"Số 5 Điện Biên Phủ, Phường Điện Biên, Quận Ba Đình, Tp Hà Nội",null,21.0291199,105.842426
VPBank Thảo Điền,ATM-24/7,"57 Quốc Hương, Phường Thảo Điền, Thành phố Thủ Đức, TP Hồ Chí Minh",null,10.806654,106.730988
VPBank Sóc Trăng,ATM-24/7,"38-40-40A Trần Hưng Đạo, Khóm 2, Phường 2, Thành Phố Sóc Trăng, Tỉnh Sóc Trăng",null,9.595227,105.969894
VPBank Phùng,ATM-24/7,"Số 228 Tây Sơn, TT. Phùng, H. Đan Phương, Hà Nội",null,21.084054,105.670530
VPBank Bắc Giang CDM,ATM-24/7,"Số 303 đường Lê Lợi, phường Hoàng Văn Thụ, thành phố Bắc Giang, tỉnh Bắc Giang",null,21.2757257,106.2034138
VPBank Kiến An 2,ATM-24/7,"Số 125 Trần Thành Ngọ, phường Trần Thành Ngọ, Quận Kiến An, thành phố Hải Phòng",null,20.8103752,106.6257081
Công ty Bao Bì Đại Lục 3,ATM-24/7,"Lô A2, Khu A, Đường số 1, CCN Lợi Bình Nhơn, TP Tân An, tỉnh Long An",null,10.552101,106.366650
Công ty Yamani I,ATM,"Xã Nam Hồng, huyện Nam Trực, tỉnh Nam Định",null,20.3420547,106.2433886
VPBank Quảng Ninh CDM,CDM,"Số 12, Đường 25-4, TP Hạ Long, Quảng Ninh",null,20.9519872,107.0771494
VPBank Cần Thơ CDM,ATM-24/7,"52-54 Trần Văn Khéo, Ninh Kiều, thành phố Cần Thơ",null,10.0448009,105.7847625
VPBank Sài Gòn CDM,ATM-24/7,"129 Nguyễn Chí Thanh, Q.5, TP Hồ Chí Minh",null,10.7595753,106.6682084
VPBank Huế CDM,ATM-24/7,"35 Lý Thường Kiệt, P. Phú Nhuận, TP.Huế, tỉnh Thừa Thiên Huế",null,16.4615259,107.5913781
VPBank Phan Văn Trị,ATM-24/7,"366A29 Phan Văn Trị, phường 5, Quận Gò Vấp, TP Hồ Chí Minh",null,10.824533,106.691197
VPBank Đà Nẵng CDM,ATM-24/7,"112 Phan Chu Trinh, phường Phước Ninh, Hải Châu, Đà Nẵng",null,16.0648154,108.2199239
VPBank Chợ lớn CDM,ATM-24/7,"57 Trần Bình - 54 Tháp Mười, Q.6, TP Hồ Chí Minh",null,10.749322,106.6510784
VPBank Hải Phòng CDM,ATM-24/7,"Số 31-33 Phạm Ngũ Lão, phường Lương Khánh Thiện, Quận Ngô Quyền, thành phố Hải Phòng",null,20.8568129,106.6867492
VPBank Hưng Yên CDM,ATM-24/7,"Đường 39A, KCN Phố Nối B, xã Nghĩa Hiệp, huyện Yên Mỹ, tỉnh Hưng Yên",null,20.925848,106.065101
VPBank Sầm Sơn,ATM-24/7,"Số 47, Đường Nguyễn Du, phường Trường Sơn, Thị xã Sầm Sơn, tỉnh Thanh Hóa",null,19.7343386,105.8980136
VPBank Thành Sen,ATM-24/7,"Số 63, đường Nguyễn Chí Thanh, phường Tân Giang, thành phố Hà Tĩnh, tỉnh Hà Tĩnh",null,18.3382014,105.9053331
VPBank Quận 3,ATM-24/7,"63 Phạm Ngọc Thạch, Phường Võ Thị Sáu, Quận 3, TP Hồ Chí Minh",null,10.786407,106.6918260
Công ty May Văn Phú II,ATM-24/7,"Thôn Phong Lai 1, xã Văn Phú, huyện Nho Quan, Tỉnh Ninh Bình",null,20.2596633,105.7662848
VPBank Tràng An CDM,ATM-24/7,"99 Hoàng Cầu, phường Ô Chợ Dừa",null,21.0162018,105.8226888
VPBank Nguyễn Thiện Thuật CDM,ATM-24/7,"299-301 Nguyễn Thiện Thuật, Q.3, TP Hồ Chí Minh",null,10.7697235,106.6775725
Công ty May Văn Phú I,ATM-24/7,"Thôn Phú Lâm, xã Văn Phú, huyện Nho Quan, tỉnh Ninh Bình",null,20.2596633,105.7662848
Bưu điện bãi Chạo,ATM-24/7,"xóm Bãi Chạo, xã Tú Sơn, huyện Kim Bôi, Hòa Bình",null,20.7382699,105.4071576
Công ty TNHH YG VINA I,ATM-24/7,"LO 2,KCN Gian Khẩu,Gia Viễn, Ninh Bình",null,20.3401718,105.9281859
Công ty Transon I,ATM-24/7,"Khu CN Lương Sơn, xã Hòa Sơn, huyện Lương Sơn, Hòa Bình",null,20.8888134,105.5402879
VPBank Lương Thế Vinh CDM,ATM-24/7,"ML6 căn 25-26, Khu đô thị Vinhome Greenbay, phường Mễ Trì, Nam Từ Liêm, Hà Nội",null,20.9999154,105.785359
Công ty CPXNK 3-2 Hòa Bình,ATM-24/7,"Số 14 An Dương Vương, phường Chăm Mát, thành phố Hòa Bình, tỉnh Hòa Bình",null,20.7853881,105.3357993
Công ty May Sông Hồng Xuân Trường I,ATM,"Tổ 18, Trường Chinh, huyện Xuân Trường, tỉnh Nam Định",null,20.2993311,106.3581527
Công ty Panasonic II,ATM,"Lô J1/J2, Khu CN Thăng Long, huyện Đông Anh, Hà Nội",null,21.1096592,105.7842673
Công ty TNHH R Việt Nam,ATM-24/7,"Tổ 9, Lê Thánh Tông, thành phố Hòa Bình, tỉnh Hòa Bình",null,20.8293478,105.3433394
Công ty Panasonic II,ATM,"Lô J1/J2, Khu CN Thăng Long, huyện Đông Anh, Hà Nội",null,21.1096592,105.7842673
VPBank Hòa Bình,ATM-24/7,"Số 681, đường Cù Chính Lan, phường Phương Lâm, thành phố Hòa Bình, tỉnh Hòa Bình",null,20.8177241,105.3367967
VPBank Đông Đô,ATM-24/7,"362 Phố Huế, Lê Đại Hành, Q.Hai Bà Trưng, Hà Nội",null,21.0094004,105.8513208
Công ty Toyota Hà Đông,ATM-24/7,"số 977-979 đường Quang Trung, phường Yên Nghĩa, quận Hà Đông, Hà Nội",null,20.949697,105.748573
VPBank Bùi Hữu Nghĩa CDM,ATM-24/7,"474A Trần Hưng Đạo, Q.5, TP Hồ Chí Minh",null,10.7536879,106.6617835
Công ty TNHH may XK DHA,ATM,"Xã Bích Hòa, huyện Thanh Oai, Hà Nội",null,20.9170698,105.7644596
VPBank Trung Hòa Nhân Chính CDM,ATM-24/7,"Tòa nhà 29T1, Hoàng Đạo Thúy, phường Trung Hòa, Cầu Giấy, Hà Nội",null,21.0081741,105.802853
Chung cư  Sky 9 CDM,ATM-24/7,"Số 61 - 63 Liên Phường, Phường Phú Hữu, Thành phố Thủ Đức, TP Hồ Chí Minh",null,10.804141,106.7903
Công ty Toyoda Gosei,ATM,"Lô F, KCN Tiền Hải, xã Tây Giang, huyện Tiền Hải, tỉnh Thái Bình",null,20.3917427,106.5130080
Công ty Sông Hồng Nam Định III,ATM,"105 Nguyễn Đức Thuận, phường Thống Nhất, thành phố Nam Định, tỉnh Nam Định",null,20.4420700,106.1748858
Công ty May Sông Hồng Xuân Trường II,ATM,"Tổ 18, Trường Chinh, huyện Xuân Trường, tỉnh Nam Định",null,20.2993311,106.3581527
Xí Nghiệp may Lạng Giang I,ATM-24/7,"Thôn Bằng, xã Nghĩa Hòa, huyện Lạng Giang, tỉnh Bắc Giang",null,21.4316047,106.2399585
VPBank Hòa Bình CDM,ATM-24/7,"Số 681, đường Cù Chính Lan, phường Phương Lâm, thành phố Hòa Bình, tỉnh Hòa Bình",null,20.8177241,105.3367967
VPBank Phú Thọ CDM,ATM-24/7,"Số 2269, đường Hùng Vương, phường Nông Trang, thành phố Việt Trì, tỉnh Phú Thọ",null,21.326407,105.380698
VPBank Liễu Giai CDM,ATM-24/7,"18 Liễu Giai, quận Ba Đình, Hà Nội",null,21.0346699,105.814194
VPBank Cộng Hòa CDM,ATM-24/7,"19C Cộng Hòa, Q.Tân Bình, TP Hồ Chí Minh",null,10.801562,106.650261
VPBank Nguyễn Lương Bằng CDM,ATM-24/7,e,null,20.9369416,106.3102475
VPBank Nguyễn Trãi CDM,ATM-24/7,"Số 232+234+236 Đường Nguyễn Trãi, phường Tân Sơn, tỉnh Thanh Hóa",null,19.8037502,105.7713036
VPBank Thành Đô CDM,ATM-24/7,"4 Dã Tượng, Q.Hoàn Kiếm, Hà Nội",null,21.023999,105.8465134
VPBank Lạc Quần CDM,ATM-24/7,"Số 98 Quốc lộ 21, Thị trấn Cổ Lễ, huyện Trực Ninh, tỉnh Nam Định",null,20.3271823,106.2595308
VPBank Kinh Đô CDM,ATM-24/7,"292 Tây Sơn, phường Trung Liệt, quận Đống Đa, Hà Nội",null,21.0070477,105.8228378
VPBank Hàng Xanh CDM,ATM-24/7,"10A Nguyễn Thị Minh Khai, P.Đa Kao, Q1, TP Hồ Chí Minh",null,10.7882161,106.7029187
Tòa nhà CT2 Cổ Nhuế CDM,ATM-24/7,"Tòa nhà CT2, Cổ Nhuế, Bắc Từ Liêm, Hà Nội",null,21.0503843,105.7849992
VPBank Bạch Đằng CDM,ATM-24/7,"104-106 Bạch Đằng, Q.Bình Thạnh, TP Hồ Chí Minh",null,10.803264,106.707902
CT4 XaLa CDM,ATM-24/7,"CT4 KĐT Xa La, phường Phúc La, quận Hà Đông, Hà Nội",null,20.961975,105.793519
VPBank Nguyễn Văn Huyên CDM,ATM-24/7,"73 Nguyễn Văn Huyên, phường Quan Hoa, quận Cầu Giấy, Hà Nội",null,21.035627,105.797616
VPBank Hưng Vượng CDM,ATM-24/7,"17 Bùi Bằng Đoàn, khu phố Hưng Vượng, P.Tân Phong, Quận 7,TP Hồ Chí Minh",null,10.729826,106.708578
VPBank Ứng Hòa CDM,ATM-24/7,"Số 07-09 phố Quang Trung, TT Vân Đình, Ứng Hòa, HN",null,20.73270,105.77050
VPBank Nơ Trang Long CDM,ATM-24/7,"151 Nơ Trang Long, P12, Q.Bình Thạnh, TP Hồ Chí Minh",null,10.8132337,106.6966565
VPBank Mỹ Đức CDM,ATM-24/7,"148-150 Đường Đại Nghĩa, Thị Trấn Đại Nghĩa, Huyện Mỹ Đức, Thành Phố Hà Nội",null,20.68485,105.74246
VPBank Nguyễn Duy Trinh CDM,ATM-24/7,"657-659 đường Nguyễn Duy Trinh, KP4, phường Bình Trưng Đông, Tp Thủ Đức, TP Hồ Chí Minh",null,10.788310,106.775280
Tòa nhà Nexus I,ATM,"3A-3B Tôn Đức Thắng, Phường Bến Nghé, Q.1, TP Hồ Chí Minh",null,10.779652,106.706435
VPBank Phú Hội CDM,ATM-24/7,"64 Hùng Vương, phường Phú Nhuận, TP. Huế, tỉnh Thừa Thiên Huế",null,16.4629333,107.5969538
VPBank Ba Đình CDM,ATM-24/7,"Tầng 1 tòa nhà Việt Hải, Duy Tân, Cầu Giấy, Hà Nội",null,21.0301772,105.7860506
VPBank Bình Dương CDM,ATM-24/7,"557 Đại lộ Bình Dương, phường Hiệp Thành, thành phố Thủ Dầu Một, tỉnh Bình Dương",null,10.9881905,106.6644065
VPBank Văn Quán CDM,ATM-24/7,"Tòa nhà Rainbow, Đường 19/5, phường Văn Quán, quận Hà Đông, Hà Nội",null,20.974849,105.787962
VPBank Bình Dương CDM II,ATM-24/7,"557 Đại lộ Bình Dương, phường Hiệp Thành, thành phố Thủ Dầu Một, tỉnh Bình Dương",null,10.9881905,106.6644065
VPBank Vũng Tàu CDM,ATM-24/7,"Nhà số 13 Khu thương mại 15 tầng, Nguyễn Thái Học, thành phố Vũng Tàu, tỉnh Bà Rịa Vũng Tàu",null,10.3635695,107.0822221
VPBank Bến Lức CDM,ATM-24/7,"83 Nguyễn Hữu Thọ, huyện Bến Lức, tỉnh Long An",null,10.6387396,106.4874154
VPBank Thái Hà CDM,ATM-24/7,"37 Yên Lãng, phường Trung Liệt, quận Đống Đa, Hà Nội",null,21.0108448,105.822425
VPBank Bình Phú CDM,ATM-24/7,"56 Bình Phú, P11, Q.6, TP Hồ Chí Minh",null,10.7465149,106.6313125
VPBank Kim Liên CDM,ATM-24/7,"61 Xã Đàn, phường Phương Liên, quận Đống Đa, Hà Nội",null,21.0119685,105.8360222
VPBank Từ Sơn CDM,ATM-24/7,"241-243 Trần Phú, phường Đình Bảng, thị trấn Từ Sơn, tỉnh Bắc Ninh",null,21.1136017,105.951156
VPBank Mai Thúc Loan CDM,ATM-24/7,"45 Mai Thúc Loan, phường Thuận Thành, TP Huế, tỉnh Thừa Thiên Huế",null,16.476961,107.582982
VPBank Vũ Trọng Phụng CDM,ATM-24/7,"Số 1 Nguyễn Huy Tưởng, phường Thanh Xuân Trung, quận Thanh Xuân, Hà Nội",null,20.9998712,105.8077351
VPBank Thái Bình CDM,ATM-24/7,"259M Lê Quý Đôn, phường Bồ Xuyên, thành phố Thái Bình, tỉnh Thái Bình",null,20.4529353,106.3395774
VPBank Lê Lợi CDM,ATM-24/7,"Số 208, đường Lê Lợi, phường Lê Lợi, thành phố Bắc Giang, tỉnh Bắc Giang",null,21.2731924,106.1965179
VPBank Bắc Ninh CDM,ATM-24/7,"34 Lý Thái Tổ, thành phố Bắc Ninh, tỉnh Bắc Ninh",null,21.1735468,106.0631453
VPBank Lê Thanh Nghị CDM,ATM-24/7,"215 Lê Thanh Nghị, phường Bùi Thị Xuân, TP Hải Dương",null,20.9320894,106.3287112
VPBank Hà Tĩnh CDM,ATM-24/7,"Số 17, đường Trần Phú, phường Trần Phú, thành phố Hà Tĩnh, tỉnh Hà Tĩnh",null,18.3395963,105.8943328
VPBank Hà Thành CDM,CDM,"Toà nhà R6, số 72A Nguyễn Trãi, phường Thượng Đình, quận Thanh Xuân, Hà Nội",null,21.0009207,105.8160354
VPBank Quảng Trị CDM,ATM-24/7,"38 QL9, Phường 1, thành phố Đông Hà, tỉnh Quảng Trị",null,"16,817521","107,086597"
VPBank Thái Nguyên CDM,ATM-24/7,"Số 631, đường Lương Ngọc Quyến, phường Phan Đình Phùng, thành phố Thái Nguyên, tỉnh Thái Nguyên",null,21.587916,105.8309401
VPBank Chương Mỹ CDM,ATM-24/7,"54 tổ 6, khu Xuân Hà, thị trấn Xuân Mai, huyện Chương Mỹ, Hà Nội",null,20.900108,105.578056
VPBank Đồng Tháp CDM,ATM-24/7,"171-173 Hùng Vương, Phường 2, TP Cao Lãnh, Tỉnh Đồng Tháp",null,10.4550130,105.6363970
Công ty Kính nổi Hạ Long,ATM-24/7,"KCN Khánh Cư, xã Khánh Cư, Huyện Yên Khánh, tỉnh Ninh Bình",null,20.215191,106.0543333
VPBank Bình Thuận CDM,ATM-24/7,"132 Trần Hưng Đạo, thành phố Phan Thiết, tỉnh Bình Thuận",null,10.9343273,108.1038835
VPBank Bà Điểm CDM,ATM-24/7,"52/10 Ấp Hậu Lân, Xã Bà Điểm, Huyện Hóc Môn, TP Hồ Chí Minh",null,10.847716,106.601067
VPBank Đăk Nông,ATM-24/7,"Số 318 Tôn Đức Thắng, Phường Nghĩa Thành, Thành phố Gia Nghĩa, Tỉnh Đắk Nông",null,12.012292,107.686428
Vinhomes Phạm Hùng CDM,ATM-24/7,"Lô E1.3 Vinhomes SkyLake, KĐT mới Cầu Giấy, Mỹ Đình 1, Nam Từ Liêm, Hà Nội",null,21.0204372,105.7814889
VPBank Đăk Nông CDM,ATM-24/7,"Số 318 Tôn Đức Thắng, Phường Nghĩa Thành, Thành phố Gia Nghĩa, Tỉnh Đắk Nông",null,12.012292,107.686428
VPBank Long Thành CDM,ATM-24/7,"A1-3 và A1-4 Khu dân cư Cầu Xéo, Chợ Long Thành, Thị trấn Long Thành, tỉnh Đồng Nai",null,10.7692743,106.953888
VPBank Tuy Phong CDM,ATM-24/7,"Số 65B Thống Nhất, Thị trấn Phan Rí Cửa, huyện Tuy Phong, tỉnh Bình Thuận",null,11.18095,108.562416
VPBank Trung Chánh CDM,ATM-24/7,"146 Nguyễn Ảnh Thủ, Ấp Đông, xã Thới Tam Thôn, huyện Hóc Môn, TP Hồ Chí Minh",null,10.87494,106.62250
VPBank Hòa Xuân CDM,ATM-24/7,"Lô số B1.7.29+30 đường Nguyễn Phước Lan, phường Hòa Xuân, quận Cẩm Lệ, thành phố Đà Nẵng",null,16.020142,108.228577
VPBank Như Quỳnh CDM,ATM-24/7,"Số 12 đường số 1 Như Quỳnh Center, Thị Trấn Như Quỳnh, Văn Lâm, Hưng Yên",null,20.982246,105.98301
VPBank Hội An CDM,ATM-24/7,"523 Hai Bà Trưng, TP Hội An,  tỉnhQuảng Nam",null,15.88325,108.325185
VPBank Hòa Thành CDM,ATM-24/7,"01-03 Trương Quyền, Phường Long Hoa, Thị Xã Hoà Thành, Tỉnh Tây Ninh",null,11.282163,106.12902
VPBank Sa Đéc CDM,ATM-24/7,"309 Đại Lộ Hùng Vương, phường 01, TP Sa Đéc, Đồng Tháp",null,10.292460,105.76661
Khu đô thị Gamuda CDM,ATM-24/7,"Tầng 1 BT08, Đường 2.5 KĐT Gamuda, phường Trần Phú, quận Hoàng Mai, Hà Nội",null,20.9702217,105.8787415
VPBank Phú Yên CDM,ATM-24/7,"Số 180-182 Đại lộ Hùng Vương, Phường 7, Tuy Hòa, tỉnh Phú Yên",null,13.0922803,109.3138349
VPBank Lê Đức Thọ CDM,ATM-24/7,"20 Lô A1 Đường Lê Đức Thọ, phường Mỹ Đình II, quận Nam Từ Liêm, Hà Nội",null,21.0317952,105.7696375
VPBank Phan Văn Trị CDM,ATM-24/7,"366A29 Phan Văn Trị, phường 5, Quận Gò Vấp, TP Hồ Chí Minh",null,10.824533,106.691197
VPBank Gia Lâm CDM,ATM-24/7,"Số 01S02 và 01S8A, ô đất B3-CT04, tòa S1.09 (L26M-2) dự án KĐT Gia Lâm - Vinhomes Ocean Park, xã Đa Tốn, huyện Gia Lâm, Hà Nội",null,20.995071,105.944054
Vincom Ocean Park CDM,ATM-24/7,"Xã Đa Tốn, Huyện Gia Lâm, Hà Nội",null,20.99334,105.96092
VPBank Sở Giao Dịch 2  CDM 2,ATM-24/7,"3A-3B Tôn Đức Thắng, Phường Bến Nghé, Q.1, TP Hồ Chí Minh",null,10.779652,106.706435
VPBank Nguyễn Hữu Huân CDM,ATM-24/7,"52 Nguyễn Hữu Huân, Hoàn Kiếm, Hà Nội",null,21.0334587,105.8544842
Cộng Hòa 3,ATM,"19C Cộng Hòa, phường 12, Q.Tân Bình, TP Hồ Chí Minh",null,10.801562,106.650261
VPBank Bắc Ninh,ATM-24/7,"34 Lý Thái Tổ, phường Ninh Xá, thành phố Bắc Ninh, tỉnh Bắc Ninh",null,21.1735468,106.0631453
VPBank Định Công CDM,ATM-24/7,"55 Trần Nguyên Đán, Định Công, Hoàng Mai, Hà Nội",null,20.9862594,105.8332166
Cộng Hòa 4,ATM,"19C Cộng Hòa, phường 12, Q.Tân Bình, TP Hồ Chí Minh",null,10.801562,106.650261
VPBank Lê Văn Việt,ATM-24/7,"304 Lê Văn Việt, P. Tăng Nhơn Phú B, TP. Thủ Đức, TP. Hồ Chí Minh",null,10.844417,106.785031
VPBank Hố Nai CDM,ATM-24/7,"212 đường Xa Lộ Hà Nội, Khu Phố 1, Phường Tân Biên, Thành Phố Biên Hòa, Tỉnh Đồng Nai",null,10.966386,106.886309
Cộng Hòa 5,ATM,"19C Cộng Hòa, phường 12, Q.Tân Bình, TP Hồ Chí Minh",null,10.801562,106.650261
Công ty Transon II,ATM-24/7,"Khu CN Lương Sơn, xã Hòa Sơn, huyện Lương Sơn, Hòa Bình",null,20.8888134,105.5402879
VPBank An Sương CDM,ATM-24/7,"24/44C Trường Chinh, Q.12, TP Hồ Chí Minh",null,10.8311062,106.6223708
Công ty Baisheng Phú Thọ,ATM-24/7,"Khu I, xã Trung Nghĩa, huyện Thanh Thủy, tỉnh Phú Thọ",null,21.169231,105.251469
VPBank Yên Hòa CDM,ATM-24/7,"Tầng 1- Chung cư CC3 Khu đô thị Yên Hòa, Cầu Giấy, Hà Nội",null,21.0220587,105.7877078
Công ty Tài Chính FE 6,ATM,"3A-3B Tôn Đức Thắng, Phường Bến Nghé, Q.1, TP Hồ Chí Minh",null,10.779652,106.706435
Công ty CP May Sông Hồng Phú Thọ,ATM-24/7,"Khu CN Cổ Tiết, Tam Nông, Phú Thọ",null,21.283956,105.2568106
VPBank Gia Định CDM 3,ATM-24/7,"296 Phan Xích Long, quận Phú Nhuận, TP.Hồ Chí Minh",null,10.7984293,106.6884239
Công ty Tài Chính FE 7,ATM,"3A-3B Tôn Đức Thắng, Phường Bến Nghé, Q.1, TP Hồ Chí Minh",null,10.779652,106.706435
Công ty TNHH Long Yu VN,ATM-24/7,"KM9, Thôn Cao Lộng, xã Tân Thịnh, huyện Nam Trực, tỉnh Nam Định",null,20.3742611,106.2359363
VPBank Gia Định CDM,ATM-24/7,"296 Phan Xích Long, quận Phú Nhuận, TP.Hồ Chí Minh",null,10.7984293,106.6884239
Công ty Tài Chính FE 8,ATM,"3A-3B Tôn Đức Thắng, Phường Bến Nghé, Q.1, TP Hồ Chí Minh",null,10.779652,106.706435
VPBank Văn Thánh,ATM-24/7,"68 - 70 Nguyễn Gia Trí, Phường 25, Quận Bình Thạnh, TP.Hồ Chí Minh",null,10.8019035,106.7154733
VPBank Sơn Trà CDM,ATM-24/7,"1094 Ngô Quyền, P. Hải An, Sơn Trà, Đà Nẵng",null,16.059006,108.2350473
Công ty Tài Chính FE 9,ATM,"3A-3B Tôn Đức Thắng, Phường Bến Nghé, Q.1, TP Hồ Chí Minh",null,10.779652,106.706435
VPBank Trần Não,ATM-24/7,"188 -190 Trần Não, Phường An Khánh, TP.Thủ Đức, TP. Hồ Chí Minh",null,10.790368,106.730193
VPBank Phạm Văn Hai CDM,ATM-24/7,"77-79-85/1B Phạm Văn Hai, P3, Q.Tân Bình, TP Hồ Chí Minh",null,10.794346,106.662349
Công ty Tài Chính FE 10,ATM,"3A-3B Tôn Đức Thắng, Phường Bến Nghé, Q.1, TP Hồ Chí Minh",null,10.779652,106.706435
VPBank Hội Sở I,ATM-24/7,"89 Láng Hạ, quận Đống Đa, Hà Nội",null,21.0159718,105.8151107
VPBank Kỳ Bá CDM,ATM-24/7,"225G Đường Hai Bà Trưng, phường Kỳ Bá, thành phố Thái Bình, tỉnh Thái Bình",null,20.4473505,106.3426429
Tòa nhà Nexus II,ATM,"3A-3B Tôn Đức Thắng, Phường Bến Nghé, Q.1, TP Hồ Chí Minh",null,10.779652,106.706435
Công ty TNHH Dệt Hà Nam,ATM-24/7,"KCN Châu Sơn, phường Châu Sơn, thành phố Phủ Lý, tỉnh Hà Nam",null,20.519465,105.897588
VPBank An Nhơn CDM,ATM-24/7,"46 Ngô Gia Tự, phường Bình Định, thị xã An Nhơn, tỉnh Bình Định",null,13.888295,109.118690
VPBank Lý Nhân CDM,ATM-24/7,"127 Trần Hưng Đạo, TT Vĩnh Trụ, H. Lý Nhân, Hà Nam",null,20.33362,106.01571
Tòa nhà Ecohome2 I,ATM-24/7,"Đường Tân Xuân, Đông Ngạc, Bắc Từ Liêm, Hà Nội",null,21.086098,105.7859551
VPBank Thanh Oai CDM,ATM-24/7,"256-258 tổ 3, Phố Kim Bài, Thị trấn Kim Bài, Huyện  Thanh Oai, Thành phố Hà Nội",null,20.85029,105.76934
VPBank Rạch Dừa,ATM-24/7,"100-102 Đường 30/04, phường Thắng Nhất, TP.Vũng Tàu, tỉnh Bà Rịa -Vũng Tàu",null,10.3925667,107.1026823
Trường TCCS Vũ Trang,ATM,"xã Thủy Xuân Tiên, huyện Chương Mỹ, Hà Nội",null,20.8887229,105.5776769
VPBank Cai Lậy CDM,ATM-24/7,"Số 326 đường 30 tháng 4 , Khu phố 2, Phường 5, Thị xã Cai Lậy, Tỉnh Tiền Giang",null,10.399798,106.119586
VPBank Long Khánh CDM,ATM-24/7,"151 - 153 Hùng Vương, Khu phố 1, Phường Xuân Hòa, Thành phố Long Khánh, Tỉnh Đồng Nai",null,10.926444,107.241378
HH1C Linh Đàm,ATM-24/7,"HH1C Linh Đàm, Hoàng Mai, Hà Nội",null,20.9647451,105.8267473
VPBank Phú Lâm CDM,ATM-24/7,"122 Kinh Dương Vương, Q6, TP Hồ Chí Minh",null,10.7500747,106.6290527
VPBank Bảo Lộc CDM,ATM-24/7,"509 - 509B Trần Phú, Phường B’Lao, Thành phố Bảo Lộc, Tỉnh Lâm Đồng",null,11.540009,107.812463
VPBank Lê Văn Việt CDM,ATM-24/7,"304 Lê Văn Việt, P. Tăng Nhơn Phú B, TP. Thủ Đức, TP. Hồ Chí Minh",null,10.844417,106.785031
Trường Phú Mỹ,ATM-24/7,"120B Ngô Tất Tố, Q.Bình Thạnh",null,10.7924673,106.7120397
Tòa Nhà Riverfont FC1,ATM,"3A-3B Tôn Đức Thắng, Phường Bến Nghé, Q.1, TP Hồ Chí Minh",null,10.779652,106.706435
VPBank Phước Hải CDM,ATM-24/7,"91 và 93 Thích Quảng Đức, Khu đô thị VCN Phước Hải, Phường Phước Hải, Thành phố Nha Trang, Tỉnh Khánh Hòa",null,12.2397520,106.1781830
BigC Cantavil,ATM-24/7,"Số 1 Ấp 3 khu ĐTM An Phú, Q.2, TP.Hồ Chí Minh",null,10.801506,106.747128
Tòa Nhà Riverfont FC2,ATM,"3A-3B Tôn Đức Thắng, Phường Bến Nghé, Q.1, TP Hồ Chí Minh",null,10.779652,106.706435
VPBank Đò Quan CDM,ATM-24/7,"Số 35-36, Lô CL 12, khu Đô thị Dệt may Nam Định, thành phố Nam Định, tỉnh Nam Định",null,20.420841,106.168804
Tòa nhà H3,ATM,"384 Hoàng Diệu, phường 6, quận 4, TP. Hồ Chí Minh",null,10.7601978,106.6989601
VPBank Núi Thành CDM,ATM-24/7,"429 Núi Thành, phường Hòa Cường Bắc, Hải Châu,  Đà Nẵng",null,16.0377812,108.2222354
Quận Ủy Quận 10,ATM-24/7,"01 Thánh Thái, P.14, Q.10, TP Hồ Chí Minh",null,10.7705325,106.6624514
VPBank Bỉm Sơn CDM,ATM-24/7,"Số 18 đường Nguyễn Huệ, phường Ngọc Trạo, Thị xã Bỉm sơn, tỉnh Thanh Hóa",null,20.0848305,105.8571719
Pico Plaza,ATM-24/7,"20 Cộng Hòa, P.4, Q.Tân Bình, TP Hồ Chí Minh",null,10.8005781,106.6531323
VPBank Trà Vinh CDM,ATM-24/7,"272 Nguyễn Đáng, Khóm 6, Phường 7, TP Trà Vinh, tỉnh Trà Vinh",null,9.927089,106.331902
Phạm Thế Hiển CDM,ATM-24/7,"2092 Phạm Thế Hiển, Phường 6, Quận 8, TP Hồ Chí Minh",null,10.734876,106.645684
Chung cư HAGL1,ATM-24/7,"357 Lê Văn Lương, Q7, TPTP Hồ Chí Minh",null,10.7407322,106.704253
Chợ Nàng Hai CDM,ATM-24/7,"Thửa đất số 186, Tờ bản đồ số 22, Khóm Tân Hòa, Phường An Hòa, Thành phố Sa Đéc, Tỉnh Đồng Tháp.",null,10.313432,105.746234
Tòa nhà REE,ATM,"9 Đoàn Văn Bơ, quận 4, TP.Hồ Chí Minh",null,10.764686,106.7023569
VPBank Hội Sở CDM II,CDM,"89 Láng Hạ, quận Đống Đa, Hà Nội",null,21.0159718,105.8151107
Tòa nhà COPAC,ATM-24/7,"12 Tôn Đản, Q.4, TP Hồ Chí Minh",null,10.7624538,106.7075238
ATM CTY MIKAZUKI,ATM-24/7,"Khu du lịch Xuân Thiều, phường Hòa Hiệp Nam, quận Liên Chiểu, thành phố Đà Nẵng",null,19.0921444,108.1444134
Bệnh viện Quận 7,ATM-24/7,"101 Nguyễn Thị Thập, P. Tân Phú, Q7, TP Hồ Chí Minh",null,10.7373066,106.7241827
VINMEC CAN THO CDM,ATM-24/7,"150A đường 3/2, phường Xuân Khánh, quận Ninh Kiều, thành phố Cần Thơ",null,10.0268426,105.7697616
VPBank Hồ Chí Minh 4,ATM-24/7,"165-169 Hàm Nghi, Q.1, TP Hồ Chí Minh",null,10.770717,106.699662
VPBank Ninh Kiều CDM,ATM-24/7,"353 Nguyễn Văn Cừ, Ninh Kiều, thành phố Cần Thơ",null,10.045581,105.767227
HH1B Linh Đàm,ATM-24/7,"HH1B Linh Đàm, Hoàng Mai, Hà Nội",null,20.9634603,105.8257732
VPBank Gang Thép CDM,ATM-24/7,"Tổ 10, đường Bắc Sơn, phường Hoàng Văn Thụ, thành phố Thái Nguyên, tỉnh Thái Nguyên",null,21.59442,105.82687
Siêu thị Hiền Lương,ATM,"Thị trấn Vân Đình, huyện Ứng Hòa, Hà Nội",null,20.696075,105.7571236
VPBank Hàm Nghi CDM,ATM-24/7,"102-104 Hàm Nghi, Thanh Khê, Đà Nẵng",null,16.0616774,108.2106624
Công ty CP Tràng An,ATM-24/7,"KCN Thạch Thất, Quốc Oai, Hà Nội",null,21.0064757,105.6310474
VPBank Đông Hương CDM,ATM-24/7,"490 Đại lộ Lê Lợi, Phường Đồng Hương, TP Thanh Hóa",null,19.806373,105.795304
Sân Golf Skylake,ATM-24/7,"Khu vực Hồ Văn Sơn, Chương Mỹ, Hà Nội",null,20.8342308,105.6192157
VPBank Ý Yên CDM,ATM-24/7,"Đường 57, thị trấn Lâm, huyện Ý Yên, tỉnh Nam Định",null,20.3234114,106.0149874
Trường ĐH PCCC cơ sở 2,ATM,"Xã Hòa Xá, huyện Lương Sơn, tỉnh Hòa Bình",null,20.854269,105.5537714
VPBank Chợ Vinh CDM,ATM-24/7,"20 Cao Thắng, phường Hồng Sơn, TP Vinh, tỉnh Nghệ An",null,18.6646085,105.674234
Trường Thể dục Thể thao Thanh Thiếu Nhi,ATM-24/7,"KĐT Đền Lừ, Hoàng Văn Thụ, Hoàng Mai, Hà Nội",null,20.9867243,105.8583392
VPBank Bắc Hà Nội CDM,ATM-24/7,"Tòa 27A3, KĐT Thành phố Giao lưu, P. Cổ Nhuế 1, Q. Bắc Từ Liêm, Hà Nội",null,21.0516058,105.7808956
Công ty Vận tải Hà Nội,ATM-24/7,"32 Nguyễn Công Trứ, Hai Bà Trưng, Hà Nội",null,21.013819,105.853025
VPBank Quảng Bình CDM,ATM-24/7,"108 Trần Hưng Đạo Đồng Hới, Đồng Hới, tỉnh Quảng Bình",null,17.4691662,106.6132982
Công ty TNHH Goshi Thăng Long,ATM,"KCN Sài Đồng A, quận Long Biên, Hà Nội",null,21.0302778,105.9191667
VPBank Phan Huy Ích CDM,ATM-24/7,"242 Phan Huy Ích, Q.Gò Vấp, TP Hồ Chí Minh",null,10.83667,106.636
VPBank Hồ Chí Minh,ATM-24/7,"165-169 Hàm Nghi, Q.1, TP Hồ Chí Minh",null,10.770717,106.699662
VPBank Xương Giang CDM,ATM-24/7,"Số 28-30, Nguyễn Thị Minh Khai, phường Ngô Quyền, thành Phố Bắc Giang, tỉnh Bắc Giang.",null,21.285429,106.206543
Công ty J.Young- Đông Thạnh,ATM-24/7,"Hương Lộ 80B, ấp 4, Xã Đông Thạnh, huyện Hóc Môn, Thành Phố Hồ chí Minh",null,10.9006022,106.644621
VPBank Hoàng Hoa Thám CDM,ATM-24/7,"26 Hoàng Hoa Thám, Q.Tân Bình, TP Hồ Chí Minh",null,10.7976633,106.6471859
Tòa nhà Ecohome2 II,ATM-24/7,"Đường Tân Xuân, Đông Ngạc, Bắc Từ Liêm, Hà Nội",null,21.086098,105.7859551
MOVENPICK CDM,CDM,"Lô D12a, D12b và D12c, Khu 4 thuộc Khu du lịch Bắc bán đảo Cam Ranh, Xã Cam Hải Đông, Huyện Cam Lâm, Tỉnh Khánh Hòa",null,12.045580,109.208178
Tòa nhà V-Tower Kim Mã,ATM-24/7,"649 Kim Mã, Ngọc Khánh, Ba Đình, Hà Nội",null,21.0285464,105.8062894
Công ty Việt Thái Vitexco 5,ATM-24/7,"KM10, QL 10, xã Đông Hợp, huyện Đông Hưng, tỉnh Thái Bình",null,20.5476201,106.3562211
VPBank Xuân La CDM,ATM-24/7,"LKC 39 Dự án Khu nhà ở thấp tầng A1TT1 Xuân Tảo, Bắc Từ Liêm, Hà Nội",null,21.062840,105.800354
VPBank Chương Dương CDM,ATM-24/7,"562, Nguyễn Văn Cừ, phường Gia Thụy, quận Long Biên, Hà Nội",null,21.049556,105.8838507
VPBank Trần Phú CDM,ATM-24/7,"83 Trần Phú, phường Trần Hưng Đạo, thành phố Thái Bình, tỉnh Thái Bình",null,20.4428122,106.3329356
VPBank Tây Hà Nội CDM,ATM-24/7,"Tầng 1, TN Tây Hà, Tố Hữu, Nam Từ Liêm, Hà Nội",null,20.9964391,105.7931632
VPBank Lê Chân CDM,ATM-24/7,"Số 230-232 Tô Hiệu, phường Trại Cau, Quận Lê Chân, thành phố Hải Phòng",null,20.850956,106.678312
VPBank Hà Tây CDM,ATM-24/7,"số 121 - 123 đường Tô Hiệu, phường Nguyễn Trãi, Quận Hà Đông, Hà Nội",null,20.9665229,105.777508
VPBank Lê Hồng Phong CDM,ATM-24/7,"Thửa 13, Lô 22B, Khu đô thị mới Ngã Năm, Sân bay Cát Bi, phường Đông Khê, Quận Ngô Quyền,thành phố Hải Phòng",null,20.8477885,106.7069341
VPBank Điện Biên CDM,ATM-24/7,"260 Điện Biên, phường Quang Trung, thành phố Hưng Yên, tỉnh Hưng Yên",null,20.646393,106.057100
VPBank Hải Vân CDM,ATM-24/7,"523 Điện Biên Phủ, Thanh Khê, Đà Nẵng",null,16.0657197,108.1988645
Pháp Vân CDM,ATM-24/7,"SOUTH BUILDING, KĐT Pháp Vân, phường Từ Hiệp, quận Hoàng Mai, Hà Nội",null,20.9561981,105.8468721
VPBank Khánh Hội CDM,ATM-24/7,"107 Nguyễn Thị Thập, Khu Phố 2, Phường Tân Phú, Quận 7, TP. Hồ Chí Minh",null,10.737936,106.721202
Toà nhà Nam Đô CDM,ATM-24/7,"609 Trương Định, Hoàng Mai, Hà Nội",null,20.9793732,105.8447903
VPBank Hiệp Hòa,ATM-24/7,"80, đường 19/5, thị trấn Thắng, huyện Hiệp Hòa, tỉnh Bắc Giang",null,20.9747648,105.7876156
VPBank Linh Đàm CDM II,ATM-24/7,"BT1 - Ô 18 Bắc Linh Đàm, Hoàng Mai, Hà Nội",null,20.9677453,105.8265847
Công ty Venture,ATM,"Km40, QL5, thị trấn Lai Cách, huyện Cẩm Giàng, tỉnh Hải Dương",null,20.9340107,106.254984
VPBank Hồng Hà CDM,ATM-24/7,"86 Nguyễn Văn Cừ, Phường Hồng Hải, TP Hạ Long, Tỉnh Quảng Ninh",null,20.9553240,107.1011630
Sông Hồng Nghĩa Hưng I,ATM,"Xã Nghĩa Thái, huyện Nghĩa Hưng, tỉnh Nam Định",null,20.2394151,106.1669156
VPBank Quế Võ CDM,ATM-24/7,"Thôn Mao Trung, xã Phượng Mao, huyện Quế Võ, tỉnh Bắc Ninh",null,21.154476,106143913
Công ty Yamani II,ATM,"Xã Nam Hồng, huyện Nam Trực, tỉnh Nam Định",null,20.3420547,106.2433886
VPBank Tân Uyên CDM,ATM-24/7,"Thửa đất số 13, tờ bản đồ số 10, ĐT747, Phường Uyên Hưng, Thị xã Tân Uyên, Tỉnh Bình Dương",null,11.0638523,106.7961980
Công ty May Sông Hồng Nam Định II,ATM,"Quốc lộ 10, huyện Lộc Hà, tỉnh Nam Định",null,20.45132,106.1890151
VPBank Long Hải CDM,ATM-24/7,"265 đường Võ Thị Sáu, Thị trấn Long Hải, Huyện Long Điền, Tỉnh Bà Rịa - Vũng Tàu",null,10.414424,107.219312
Công ty May Sông Hồng Nam Định I,ATM,"Quốc lộ 10, huyện Lộc Hà, tỉnh Nam Định",null,20.45132,106.1890151
VPBank Bình Hưng CDM,ATM-24/7,"số 467 Quốc Lộ 50, Xã Bình Hưng, Huyện Bình Chánh, TP Hồ Chí Minh",null,11.0638523,106.796198
Sông Hồng Hải Hậu II,ATM,"Xã Hải Phương, huyện Hải Hậu, tỉnh Nam Định",null,20.1649485,106.2784757
VPBank Củ Chi CDM,ATM-24/7,"70 Tỉnh lộ 8, Khu phố 2, Thị trấn Củ Chi, Huyện Củ Chi, TP Hồ Chí Minh",null,10.969821,106.489264
Sông Hồng Hải Hậu I,ATM,"Xã Hải Phương, huyện Hải Hậu, tỉnh Nam Định",null,20.1649485,106.2784757
VPBank Yên Lạc CDM,ATM-24/7,"Số 103, Đường Nguyễn Khoan, Thị Trấn Yên Lạc, Huyện Yên Lạc, Vĩnh Phúc",null,21.235801,105.573253
VPBank Yên Khánh CDM,ATM-24/7,"Phố 3, thị trấn Yên Ninh, huyện Yên Khánh, tỉnh Ninh Bình",null,20.18036,106.06477
Sông Hồng Nghĩa Hưng II,ATM,"Xã Nghĩa Thái, huyện Nghĩa Hưng, tỉnh Nam Định",null,20.2394151,106.1669156
VPBank Đức Hòa CDM,ATM-24/7,"Số D1 và D2 thuộc Dự án Imperia Grand Đức Hòa – Đường 3 tháng 2 nối dài, Thị trấn Hậu Nghĩa, Huyện Đức Hòa, Tỉnh Long An",null,10.902303,106.396326
VPBank Sông Đà CDM,ATM-24/7,"Tổ 13, Đại lộ Thịnh Lang, phường Tân Thịnh, thành phố Hòa Bình, tỉnh Hòa Bình",null,20.8327456,105.3410524
CT7  Dương Nội CDM,ATM-24/7,"CT7 KĐT Dương Nội, Quận Hà Đông, TP Hà Nội",null,20.9626938,105.7478614
VPBank Vĩnh Long,ATM-24/7,"3G-3F  Hưng Đạo Vương , Phường 1, Thành phố Vĩnh Long, Tỉnh Vĩnh Long",null,10.254706,105.973046
VPBank Sở Giao Dịch 2  CDM 1,ATM-24/7,"3A-3B Tôn Đức Thắng, Phường Bến Nghé, Q.1, TP Hồ Chí Minh",null,10.779652,106.706435
Trại Giam Suối Hai,ATM,"Xã Cẩm Lĩnh, huyện Ba Vì, Hà Nội",null,21.1519762,105.3702764
Công ty TNHH Phú Linh,ATM-24/7,"Xóm Nam Long, xã Nghĩa Long, huyện Nghĩa Đàn, tỉnh Nghệ An",null,19.24603,105.44349
Công ty Y Khoa Việt,ATM-24/7,"Lô 01-8A, Cụm Công Nghiệp Hai Bà Trưng, phường Hoàng Văn Thụ, quận Hoàng Mai, Hà Nội",null,20.9833274,105.8663575
VPBank Bãi Cháy CDM,ATM-24/7,"Số 551 Đường Hạ Long, phường Bãi Cháy, thành phố Hạ Long, tỉnh Quảng Ninh",null,20.95882,107.02203
VPBank Hà Đông CDM,ATM-24/7,"T1 CT1, KDT Mỗ Lao, Hà Đông, Hà Nội",null,20.9801569,105.7832027
VPBank Lạng Giang CDM,ATM-24/7,"Lô SH2, số 16-17-18-19, Khu Đô Thị mới Phía Tây, Thị trấn Vôi, Huyện Lạng Giang, Tỉnh Bắc Giang",null,21.35483,106.25886
VPBank Bến Ngự CDM,ATM-24/7,"66 Trần Thúc Nhẫn, phường VĨnh Ninh, TP Huế, tỉnh Thừa Thiên Huế",null,16.4556359,107.58356
VPBank Sông Công CDM,ATM-24/7,"Số 194 đường Cách mạng tháng 8, tổ 11, phường Thắng Lợi, thành phố Sông Công, tỉnh Thái Nguyên",null,21.46795,105.84531
VPBank Cửa Bắc CDM,ATM-24/7,"Số 70, phố Cửa Bắc, phường Trúc Bạch, quận Ba Đình, Hà Nội.",null,21.042878,105.842769
VPBank Sơn La CDM,ATM-24/7,"Số 21 đường Trường Chinh, Phường Quyết Thắng, Thành phố Sơn La, Tỉnh Sơn La.",null,21.32609,103.91495
VPBank Hiệp Hòa CDM,ATM-24/7,"80, đường 19/5, thị trấn Thắng, huyện Hiệp Hòa, tỉnh Bắc Giang",null,20.9747648,105.7876156
Công ty Cổ Phần Tập Đoàn Gia Định,ATM-24/7,"Khu phố 1A, phường An Phú, thành phố Thuận An, tỉnh Bình Dương",null,10.958913,106.733432
VPBank Châu Đốc CDM,ATM-24/7,"62-64 Nguyễn Văn Thoại, thị xã Châu Đốc, tỉnhAn Giang",null,10.7094021,105.1181455
VPBank Cần Giờ CDM,ATM-24/7,"209A Đào Cử, Thị trấn Cần Thạnh, Huyện Cần Giờ, TP Hồ Chí Minh",null,10.411599,106.966735
VPBank Lương Sơn CDM,ATM-24/7,"629 Trần Phú, tiểu khu 13, thị trấn Lương Sơn, huyện Lương Sơn, tỉnh Hòa Bình",null,20.871952,105.531973
VPBank Bình Chánh CDM,ATM-24/7,"Số D6/5 Quốc Lộ 1A, ấp 2, Xã Bình Chánh, Huyện Bình Chánh, TP HCM",null,10.666403,106.572054
VPBank Phổ Yên CDM,ATM-24/7,"45 Trường Chinh, phường Ba Hàng, thị trấn Phổ Yên, huyện Phổ Yên, tỉnh Thái Nguyên",null,20.948669,105.934481
VPBank Rạch Dừa CDM,ATM-24/7,"100-102 Đường 30/04, P. Thắng Nhất, TP.Vũng Tàu, tinh BR-VT",null,10.3925667,107.1026823
VPBank Văn Giang CDM,ATM-24/7,"Khu biệt thự Thủy Nguyên, MRA-185A, xã Phụng Công, huyện Văn Giang, tỉnh Hưng Yên",null,20.948631,105.934369
VPBank Lý Thường Kiệt CDM,ATM-24/7,"112-118 Lý Thường Kiệt, quận Tân Bình, TP.Hồ Chí Minh",null,10.7879629,106.6529402
VPBank Đồng Văn CDM,ATM-24/7,"185 Tổ dân phố Nguyễn Hữu Tiến, thị xã Duy Tiên, huyện Duy Tiên, tỉnh Hà Nam",null,20.6451650,105.9319200
VPBank Thành Nam CDM,ATM-24/7,"Số 350 đường Trần Hưng Đạo, phường Bà Triệu, thành phố Nam Định",null,20.4304395,106.1726855
VPBank Quảng Ngãi CDM,ATM-24/7,444 - 446 Quang Trung - P.Nguyễn Nghiêm -TP Quảng Ngãi - Tỉnh Quảng Ngãi,null,15.121785,108.80441
VPBank Tô Hiến Thành CDM,ATM-24/7,"407 Tô Hiến Thành, phường 14, Quận 10, TP Hồ Chí Minh",null,10.775504,106.662979
VPBank Sóc Trăng CDM,ATM-24/7,"38-40-40A Trần Hưng Đạo, Khóm 2, Phường 2, Thành Phố Sóc Trăng, Tỉnh Sóc Trăng",null,9.595227,105.969894
VPBank Phú Xuân CDM,ATM-24/7,"101-101A Huỳnh Tấn Phát, huyện Nhà Bè, TP.Hồ Chí Minh",null,10.7002657,106.7385798
Chợ Sóc Trăng CDM,ATM-24/7,"10 Nguyễn Văn Trỗi, Khóm 1, Phường 1, TP.Sóc Trăng, Tỉnh Sóc Trăng",null,9.604890,105.975743
VPBank Trần Hưng Đạo CDM,ATM-24/7,"201 Minh Khai, phường Minh Khai, quận Hai Bà Trưng, Hà Nội",null,20.997586,105.861686
VPBank Kim Tân CDM,ATM-24/7,"Ngã 6, phường Kim Tân, thành phố Lào Cai, tỉnh Lào Cai",null,22.4815787,103.9743824
VPBank Lê Văn Lương CDM,ATM-24/7,"Tầng 1, Tòa nhà HCC1, Lê Văn Lương, phường Nhân Chính, quận Thanh Xuân, Hà Nội",null,21.002905,105.801717
VPBank Ninh Thuận CDM,ATM-24/7,"360 Thống Nhất, Phường Phủ Hà, Thành phố Phan Rang - Tháp Chàm, Tỉnh Ninh Thuận",null,11.569604,108.991067
VPBank Uông Bí CDM,ATM-24/7,"496 Quang Trung, phường Quang Trung, Uông Bí, Quảng Ninh",null,21.0345944,106.7695621
VPBank Bạc Liêu CDM,ATM-24/7,"137 Trần Phú, phường 7, TP Bạc Liêu, Tỉnh Bạc Liêu",null,9.290508,105.721695
VPBank Trần Não CDM,ATM-24/7,"188 -190 Trần Não, Phường An Khánh, TP.Thủ Đức, TP. Hồ Chí Minh",null,10.790368,106.730193
VPBank Phước Kiển CDM,ATM-24/7,"1262 Lê Văn Lương, Ấp 2, Xã Phước Kiểng, Huyện Nhà Bè, TP. Hồ Chí Minh",null,10.700563,106.704396
VPBank Bàu Cát CDM,ATM-24/7,"33 Trương Công Định, phường 14, Tân Bình, TP Hồ Chí Minh",null,10.7963019,106.6412972
VPBank Thảo Điền CDM,ATM-24/7,"57 Quốc Hương, Phường Thảo Điền, Thành phố Thủ Đức, TP Hồ Chí Minh",null,10.806654,106.730988
VPBank Văn Thánh CDM,ATM-24/7,"68 - 70 Nguyễn Gia Trí, Phường 25, Quận Bình Thạnh, TP.Hồ Chí Minh",null,10.8019035,106.7154733
VPBank Thanh Trì CDM,ATM-24/7,"TT3-01 và TT3-02, Tòa chung cư IEC, đường Vũ Lăng, xã Tứ Hiệp, huyện Thanh Trì, Hà Nội",null,20.940649,105.849167
VPBank Thuận An CDM,ATM-24/7,"68A đường Nguyễn Văn Tiết, phường Lái Thiêu, thành phố Thuận An, Tỉnh Bình Dương",null,10.9908335,106.6545599
VPBank Chí Linh CDM,ATM-24/7,"251 Nguyễn Trãi, phường Sao Đỏ, thành phố Chí Linh, tỉnh Hải Dương",null,21.06373,106.23203
VPBank Quận 10 CDM,ATM-24/7,"87 Đường 3/2, P12, Q.10, TP Hồ Chí Minh",null,10.773544,106.677529
VPBank Long Biên CDM,ATM-24/7,"3 Nguyễn Sơn, quận Long Biên, Hà Nội",null,21.0482033,105.8754426
VPBank Thạch Thất CDM,ATM-24/7,"Số 9, đường 419, thôn Vĩnh Lộc, xã Phùng Xá, huyện Thạch Thất, Hà Nội.",null,21.01392,105.617859
VPBank Đà Lạt CDM,ATM-24/7,"Số 89 Phan Bội Châu, Phường 1, Đà Lạt, Lâm Đồng",null,11.9444933,108.4382570
VPBank Hoa Lư CDM,ATM-24/7,"925 Đại Cồ Việt, thị trấn Thiên Tôn, huyện Hoa Lư, tỉnh Ninh Bình",null,20.299194,105.952733
VPBank Hoài Đức CDM,ATM-24/7,"Số 23-24 Lô 38, KĐT GELEXIMCO, xã An Khánh, huyện Hoài Đức, Hà Nội",null,21.003119,105.732798
VPBank Trung Sơn CDM,ATM-24/7,"49-51 Đường 9A, KDC Trung sơn, huyện Bình Chánh, TP Hồ Chí Minh",null,10.7378351,106.6898202
VPBank Nhà Bè CDM,ATM-24/7,"Số 51 Khu Dân Cư Phú Long, Phân Khu Số 8, đường Nguyễn Hữu Thọ, Ấp 5, Xã Phước Kiển",null,10.718676,106.702692
VPBank Sóc Sơn CDM,ATM-24/7,"Số 11-12 khu A, KĐT Mới, TT Sóc Sơn, huyện Sóc Sơn, Hà Nội.",null,21.260443,105.849939
VPBank Thường Tín CDM,ATM-24/7,"Xã Văn Bình, huyện Thường Tín, thành phố Hà Nội.",null,20.871799,105.867801
VPBank Đức Trọng CDM,ATM-24/7,"1A & số 3 đường Thống Nhất, Thị trấn Liên Nghĩa, Huyện Đức Trọng, Tỉnh Lâm Đồng",null,11.736322,108.374098
VPBank Hóc Môn CDM,ATM-24/7,"39/13 Lê Thị Hà, khu phố 8, Thị trấn Hóc Môn, huyện Hóc Môn, TP Hồ Chí Minh",null,10.8860775,106.5983504
Nguyễn Thị Định CDM,ATM-24/7,"611 Nguyễn Thị Định, Phường Cát Lái, TP Thủ Đức, TP Hồ Chí Minh",null,10.7760967,106.7664262
VPBank Bình Phước CDM,ATM-24/7,"860 Phú Riềng Đỏ, phường Tân Xuân, thị xã Đồng Xoài, tỉnh Bình Phước",null,11.5314186,106.8970774
Công ty Tài Chính FE 11,ATM,"3A-3B Tôn Đức Thắng, Phường Bến Nghé, Q.1, TP Hồ Chí Minh",null,10.779652,106.706435
VPBank Quận 11 CDM,ATM-24/7,"318-318A Lãnh Binh Thăng, Q11, TP Hồ Chí Minh",null,10.764722,106.648022
Vinhomes Grand Park CDM,ATM-24/7,"Shophouse số: 01S10 Sảnh S3.02, Phường Long Thạnh Mỹ, Tp.Thủ Đức, TP Hồ Chí Minh",null,10.839612,106.834305
VPBank Quận 11 CDM 2,ATM-24/7,"318-318A Lãnh Binh Thăng, Q11, TP Hồ Chí Minh",null,10.764722,106.648022
VPBank Sông Cầu CDM,ATM-24/7,"243 đường Phạm Văn Đồng, phường Xuân Phú, thị xã Sông Cầu, tỉnh Phú Yên",null,13.452081,109.219615
VPBank Đăk Lăk CDM,ATM-24/7,"35-37 Ngô Quyền, phườngTân Lợi, TP.Buôn Ma Thuột, tỉnh Đăk Lăk",null,12.6878632,108.0519607
Xí nghiệp 11- Công ty CP Hồ Gươm,ATM,"Xóm Mường Lầm, Xã Phong Phú, Huyện Tân Lạc, Tỉnh Hòa Bình",null,null,null
VPBank Hà Nam CDM,ATM-24/7,"PG1-05A,60 Biên Hòa, thành phố Phủ Lý, tỉnh Hà Nam",null,20.5431196,105.9172967
VPBank Bình Định CDM,ATM-24/7,"83 Mai Xuân Thưởng, thành phố Quy Nhơn, tỉnh Bình Định",null,13.7748134,109.2239132
VPBank Cà Mau CDM,ATM-24/7,"134 Nguyễn Tất Thành, phường 8, thành phố Cà Mau, tỉnh Cà Mau",null,9.1679636,105.145412
Ecohome Phúc Lợi CDM,ATM-24/7,"Tòa nhà Ecohome Phúc Lợi, phường Phúc Lợi, quận Long Biên, Hà Nội",null,21.0406545,105.9274644
VPBank Lạng Sơn CDM,ATM-24/7,"Số 125-127 đường Lê Lợi, P VĨnh Trọng, thành phố Lạng Sơn, tỉnh Lạng Sơn",null,21.8537434,106.7634828
VPBank Thủy Nguyên CDM,ATM-24/7,"Số 86, Phố Mới, xã Thủy Sơn, huyện Thủy Nguyên, thành phố Hải Phòng",null,20.9151250,106.6743930
VPBank Ninh Bình CDM,ATM-24/7,"91 đường Lê Hồng Phong, phường Đông Thành, TP Ninh Bình, tỉnh Ninh Bình",null,20.2577212,105.9735766
VPBank Phú Quốc CDM,ATM-24/7,"133 Nguyễn Trung Trực, Thị trấn Dương Đông, huyện Phú Quốc, tỉnh Kiên Giang",null,10.2233378,103.964392
VPBank Đông Thủ Đô CDM,ATM-24/7,"Căn hộ H4- TM1, khu nhà ở xã hội B8.NXH, phường Phúc Đồng, quận Long Biên, Hà Nội",null,21.041994,105.9052262
VPBank Tây Ninh CDM,ATM-24/7,"Nhà phố thương mại (Shophouse) số PG2-35 và PG2-36 thuộc Dự án Tổ hợp Trung tâm thương mại, Khách sạn tiêu chuẩn 5 sao và nhà phố Shophouse Tây Ninh, Đường 30/4, Khu phố 1, phường 3, Tp. Tây Ninh, tỉnh Tây Ninh",null,11.3351554,106.1098854
VPBank Hội Sở CDM,ATM-24/7,"89 Láng Hạ, quận Đống Đa, Hà Nội",null,21.0159718,105.8151107
VPBank Lào Cai CDM,ATM-24/7,"109 Hoàng Liên, phường Cốc Lếu, thành phố Lào Cai, tỉnh Lào Cai",null,22.497032,103.967880
VPBank Lagi CDM,ATM-24/7,"153 A11-A13, Lê Lợi, thị xã La Gi, tỉnh Bình Thuận",null,10.6596854,107.7752298
VPBank Bến Thành CDM,ATM-24/7,"39 Lê Duẩn, phường Bến Nghé, Quận 1, TP Hồ Chí Minh",null,10.78142,106.70060
VPBank Gia Lai CDM,ATM-24/7,"30 Trần Phú, TP. Pleiku, Tỉnh Gia Lai",null,13.9783857,108.0001154
VPBank Linh Đàm CDM,ATM-24/7,"BT1 - Ô 18 Bắc Linh Đàm, Hoàng Mai, Hà Nội",null,20.9677453,105.8265847
VPBank Phương Mai CDM,ATM-24/7,"75 Phương Mai, Đống Đa, Hà Nội",null,21.003523,105.836647
Chung cư Riverside Garden CDM,ATM-24/7,"349 Vũ Tông Phan, phường Khương Đình, quận Thanh Xuân, Hà Nội",null,20.9906119,105.8138611
VPBank Trần Nguyên Hãn CDM,CDM,"Số 170A đường Trần Nguyên Hãn, phường Trần Nguyên Hãn, quận Lê Chân, thành phố Hải Phòng",null,20.8479551,106.6714671
VPBank Quảng Nam CDM,ATM-24/7,"175 + 177 Phan Chu Trinh, Tam Kỳ,  tỉnh Quảng Nam",null,15.5698161,108.4892272
VPBank Phạm Hùng CDM,ATM-24/7,"Tòa nhà Shop W1 và tòa nhà số W1, W2 Lô đất HH, đường Phạm Hùng, phường Mễ Trì, Quận Nam Từ Liêm, thành phố Hà Nội",null,21.011464,105.785935
VPBank Đông Hà Nội CDM,ATM-24/7,"Sảnh Thương mại tầng 1, SH-18, Tòa nhà Century Tower, số 458 Minh Khai, quận Hai Bà Trưng, Hà Nội",null,20.9964269,105.8682295
VPBank Hoàng Quốc Việt CDM,CDM,"184 Hoàng Quốc Việt, quận Cầu Giấy, Hà Nội",null,21.046718,105.79059
VPBank Trung Kính CDM,ATM-24/7,"219 Trung Kính, phường Yên Hòa, quận Cầu Giấy, Hà Nội",null,34.047863,100.6196553
VPBank Lê Văn Sỹ CDM,ATM-24/7,"288-290 Lê Văn Sỹ, quận 3, TP.Hồ Chí Minh",null,10.7870139,106.679744
VPBank Tiền Giang CDM,ATM-24/7,"1A, đường Hùng Vương, phường 1, thành phố Mỹ Tho, tỉnh Tiền Giang",null,10.356711,106.363953
VPBank Trần Thái Tông CDM,ATM-24/7,"D5- Đường Trần Thái Tông, Hà Nội",null,21.0332222,105.7882755
VPBank Tân Túc,ATM-24/7,"353 Nguyễn Hữu Trí, Khu Phố 1, Huyện Bình Chánh, TP.HCM",null,10.693023,106.580566
VPBank Phú Mỹ Hưng CDM,ATM-24/7,"85 Hoàng Văn Thái, Q.7, TP Hồ Chí Minh",null,10.7291087,106.7202352
VPBank Đông Anh CDM,ATM-24/7,"115-117 Tổ 03, Thị trấn Đông Anh, Huyện Đông Anh, TP. Hà Nội",null,21.1394195,105.8545155
VPBank Kiến An CDM,ATM-24/7,"Số 125 Trần Thành Ngọ, phường Trần Thành Ngọ, Quận Kiến An, thành phố Hải Phòng",null,20.8103752,106.6257081
VPBank Tân Túc CDM,ATM-24/7,"353 Nguyễn Hữu Trí, Khu Phố 1, Huyện Bình Chánh, TP.HCM",null,10.693023,106.580566
VPBank Tây Sài Gòn CDM,ATM-24/7,"270 Vành Đai Trong, P.Bình Trị Đông B, Quận Bình Tân, TP Hồ Chí Minh",null,10.7512509,106.6155623
VPBank Sầm Sơn CDM,ATM-24/7,"Số 47, Đường Nguyễn Du, phường Trường Sơn, Thị xã Sầm Sơn, tỉnh Thanh Hóa",null,19.7343386,105.8980136
VPBank Lê Trọng Tấn CDM,ATM-24/7,"56 Lê Trọng Tấn, Q.Thanh Xuân, Hà Nội",null,20.9995614,105.8278542
VPBank Vĩnh Long CDM,ATM-24/7,"3G-3F  Hưng Đạo Vương , Phường 1, Thành phố Vĩnh Long, Tỉnh Vĩnh Long",null,10.254706,105.973046
VPBank Quận 3 CDM,ATM-24/7,"63 Phạm Ngọc Thạch, Phường Võ Thị Sáu, Quận 3, TP Hồ Chí Minh",null,10.786407,106.6918260
VPBank Ngô Quyền CDM,CDM,"39A Ngô Quyền, phường Hàng Bài, quận Hoàn Kiếm, Hà Nội",null,21.021626,105.854158
VPBank Kỳ Bá,ATM-24/7,"225G Đường Hai Bà Trưng, phường Kỳ Bá, thành phố Thái Bình, tỉnh Thái Bình",null,20.4473505,106.3426429
VPBank Đông Đô CDM,ATM-24/7,"Số 362 Phố Huế, Phường Phố Huế, Quận Hai Bà Trưng, Hà Nội.",null,21.0094004,105.8513208
VPBank Kỳ Hòa CDM,ATM-24/7,"276C CMT8, P.10, Q.3, TP Hồ Chí Minh",null,10.780731,106.676835
PGD Cát Linh,PGD,"Số 24 Cát Linh, Phường Cát Linh, Quận Đống Đa, Thành phố Hà Nội, Việt Nam",(84-24) 3734 3961/3734 5457/38432942,21.029036,105.8307637
CN PHÚ YÊN,PGD,"180 -182 Đại lộ Hùng Vương, Phường 7, Thành Phố Tuy Hòa, Phú Yên",null,13.0923325,109.3139763
CN AN GIANG,PGD,"179-181 Trần Hưng Đạo, phường Mỹ Bình, TP Long Xuyên, An Giang",null,10.3681422,105.44757
PGD Thành Công,PGD,"Diện tích thương mại số A08 Tầng 1+2 và một phần diện tích tầng 4 Tòa nhà A thuộc Dự Án Công viên giải trí, trường học và tổ hợp nhà ở, thương mại, dịch vụ Golden Palace A, Phường Mễ Trì, Quận Nam Từ Liêm, Thành phố Hà Nội, Việt Nam.",(84-24) 3772 5523/4/5/6/7,21.022313,105.8163284
PGD Mai Thúc Loan,PGD,"91 Mai Thúc Loan, phường Đông Ba, Tỉnh Thừa Thiên Huế, Việt Nam",(84-28) 54461233/35/32,16.476189,107.582205
PGD Sông Cầu,PGD,"Số 243 Phạm Văn Đồng, Phường Xuân Phú Thị xã Sông Cầu, Tỉnh Phú Yên",null,null,null
PGD Thủy Nguyên,PGD,"Số 86 Phố Mới, Xã Thủy Sơn, Huyện Thủy Nguyên, Thành phố Hải Phòng, Việt Nam.","(84-227) 3658566/(84-227) 3658 569",20.915125,106.674393
PGD Kim Liên,PGD,"Số 61 phố Xã Đàn, phường Phương Liên, quận Đống Đa, Thành phố Hà Nội, Việt Nam",(84-24) 3 5771881,21.0119685,105.8360222
PGD Tân Uyên,PGD,"Thửa đất số 13, Tờ bản đồ số 10, Phường Uyên Hưng, Thị xã Tân Uyên, Tỉnh Bình Dương",(0258) 3 512 179,11.0638523,106.796198
PGD Hà Tây,PGD,"Một phần tầng 1 tòa nhà HUD3 TOWER, số 121 - 123 đường Tô Hiệu, Phường Nguyễn Trãi, Quận Hà Đông,Thành phố Hà Nội, Việt Nam",(84-24) 3355 2701,20.9665229,105.777508
PGD Văn Quán,PGD,"Phòng P101-Tầng 1, Phòng P201-Tầng 2, Tòa nhà Rainbown Văn Quán, Đường 19/05, Khu đô thị mới Văn Quán, Phường Văn Quán, Quận Hà Đông, Thành phố Hà Nội, Việt Nam",(84-24) 73057314/33120800,20.974849,105.787962
PGD Bùi Hữu Nghĩa,PGD,"Một phần tầng trệt, Lầu 1 và Lầu 2 tòa nhà số 474A Trần Hưng Đạo, phường 2, quận 5, thành phố Hồ Chí Minh.",(0247) 3000000 - máy lẻ 306352,10.7536879,106.6617835
CN ĐỒNG THÁP,PGD,"Số 171 - 173 Hùng Vương, Phường 2, Thành phố Cao Lãnh, tỉnh Đồng Tháp",null,10.4558918,105.6368149
PGD Tây Hà Nội,PGD,"Tầng 1, tòa nhà Tây Hà, đường Tố Hữu, khu đô thị mới Phùng Khoang, tổ 11, phường Trung Văn, quận Nam Từ Liêm, Thành phố Hà Nội, Việt Nam",(84-24) 36291051/ (84-24) 36291052,20.9964391,105.7931632
"PGD Kỳ Hòa (An Dương Vương cũ)",PGD,"276C Cách Mạng Tháng Tám, Phường 10, Quận 3, Tp. Hồ Chí Minh",(0269) 3864488,10.780731,106.676835
CN LONG AN,PGD,"Tòa nhà Số 6, đường Lê Cao Dõng, phường 2, Thành phố Tân An, tỉnh Long An.",null,10.5371695,106.4071329
PGD Liễu Giai,PGD,"Số 18 Liễu Giai, phường Cống Vị, Quận Ba Đình, Thành phố Hà Nội, Việt Nam",(84-24) 3762 2626/3762 2572/3/4,21.0346699,105.814194
PGD Chợ Lớn,PGD,"Số 54 Trần Bình và 57 Tháp Mười, phường 2, Quận 6, thành phố HỒ CHÍ MINH",(0272) 3524524,10.749322,106.6510784
PGD Kiến An,PGD,"Số 125 Trần Thành Ngọ, Phường Trần Thành Ngọ, Quận Kiến An, Thành phố Hải Phòng, Việt Nam",(84-227) 364 8699,20.8103752,106.6257081
"PGD Phạm Hùng (PGD Láng Thượng cũ)",PGD,"Diện tích thương mại Tầng 1, Tòa nhà Shop W1 và tòa nhà số W1, W2 Lô đất HH, đường Phạm Hùng, Phường Mễ Trì, Quận Nam Từ Liêm, thành phố Hà Nội",(84-24) 37606023/24,21.011464,105.785935
PGD Nguyễn Thiện Thuật,PGD,"299-301 Nguyễn Thiện Thuật, P.1, Q.3, TPHỒ CHÍ MINH",(84-292) 376 8788/89,10.7697235,106.6775725
CN THÁI BÌNH,PGD,"Số nhà 259 M, phố Lê Quý Đôn, phường Bồ Xuyên, Thành phố Thái Bình, tỉnh Thái Bình, Việt Nam",(84-210) 6261666/667,20.4529353,106.3395774
PGD Lý Thường Kiệt,PGD,"Tầng trệt, tầng lửng, tầng 1 tòa nhà GMG, Số 539-541-543-545 đường Lý Thường Kiệt, Phường 8, quận Tân Bình, thành phố Hồ Chí Minh",(0270) 3853 855,10.7879629,106.6529402
PGD Trần Phú,PGD,"Số 83 + 83A, phố Trần Phú, tổ 16, Phường Trần Hưng Đạo, Thành phố Thái Bình, Tỉnh Thái Bình, Việt Nam",(84-210) 6258 015/17,20.4428122,106.3329356
PGD Nguyễn Văn Huyên (Đội Cấn cũ),PGD,"Tầng 1 đến tầng 3, Số 73 đường Nguyễn Văn Huyên, tổ 22, Phường Quan Hoa, Quận Cầu Giấy, Thành phố Hà Nội, Việt Nam.",(84-24) 3722 6171,21.035627,105.797616
PGD Tân Bình,PGD,"307E đường Nguyễn Văn Trỗi, Phường 1, Quận Tân Bình, Tp. Hồ Chí Minh",(0297) 394 8111,10.798948,106.669507
PGD Trần Lãm,PGD,"Số 588 Phố Lý Bôn, Phường Kỳ Bá, Thành phố Thái Bình, Tỉnh Thái Bình, Việt Nam",(84-208) 365 6769,20.4402779,106.3397672
"PGD Trung Kính (PGD Quan Hoa cũ)",PGD,"Một phần tầng 1 tháp A và một phần tầng 3 tháp A và B, tòa nhà Central Point, số 219 Phố Trung Kính, Phường Yên Hoà, Quận Cầu Giấy, Thành phố Hà Nội, Việt Nam",(84-24) 62697883/4,21.0204738,105.7914871
PGD Tân Phú,PGD,"Tầng 1, Tầng 2, Tầng 3, Số 595 - 597 Lũy Bán Bích, Phường Phú Thạnh, Quận Tân Phú, Thành phố Hồ Chí Minh, Việt Nam",(0297) 3984979,10.779515,106.635285
PGD Kỳ Bá,PGD,"Số 225G, đường Hai Bà Trưng, Phường Lê Hồng Phong, Thành phố Thái Bình, Tỉnh Thái Bình.",(84-208) 3840 656,20.4473505,106.3426429
Trung Hòa Nhân Chính,PGD,"Tầng 1, Tòa nhà 29T1, khu chung cư N05 Đông Nam Trần Duy Hưng, Phường Trung Hòa, Quận Cầu Giấy, Thành phố Hà Nội, Việt Nam",(84-24) 62695986,21.0081741,105.802853
CN VĨNH LONG,PGD,"Số 3F - 3G đường Trần Hưng Đạo, phường 1, thành phố Vĩnh Long, tỉnh Vĩnh Long",null,10.254706,105.973046
CN BẮC GIANG,PGD,"Số 303 đường Lê Lợi, phường Hoàng Văn Thụ, Thành phố Bắc Giang, Tỉnh Bắc Giang, Việt Nam",(84-211) 372 0323/24/(84-211) 372 0138,21.2757257,106.2034138
PGD Trần Duy Hưng,PGD,"Diện tích thương mại số 1.S11 tại tầng 1 thuộc Tòa nhà số S4.03, Lô đất F4-CH01 , Phường Tây Mỗ, Quận Nam Từ Liêm, Hà Nội, Việt Nam",(84-24) 73055115,21.011464,105.785935
PGD Ngô Gia Tự,PGD,"Tầng 1 đến tầng 4, số 28+30 Nguyễn Thị Minh Khai, Phường Ngô Quyền, thành phố Bắc Giang, Tỉnh Bắc Giang, Việt Nam",(84-211) 353 0379,21.285429,106.206543
"PGD Vũ Trọng Phụng (PGD Nguyễn Tuân cũ)",PGD,"01 phần tầng 1, tòa nhà 21T1, dự án Hapulico Complex, số 01 Nguyễn Huy Tưởng, P Thanh xuân trung,  Thanh Xuân , Hà Nội",(84-24)35579793,20.9998712,105.8077351
CN THÁI NGUYÊN,PGD,"Số 631, đường Lương Ngọc Quyến, Phường Phan Đình Phùng, Thành phố Thái Nguyên, Tỉnh Thái Nguyên, Việt Nam",(84-238)3581681,21.587916,105.8309401
PGD Hiệp Hòa,PGD,"80, đường 19/5, thị trấn Thắng, huyện Hiệp Hòa, Tỉnh Bắc Giang, Việt Nam",(84-211) 3696 878,21.356752,105.9818187
"PGD Hải An (PGD Trường Chinh cũ)",PGD,"Số 346 Văn Cao, Phường Đằng Lâm, Quận Hải An, Thành phố Hải Phòng, Việt Nam",(84-204) 3555 566/65,20.8316249,106.7026052
PGD Hồng Lĩnh,PGD,"Số 101 đường Trần Phú, phường Nam Hồng, thị xã Hồng Lĩnh, tỉnh Hà Tĩnh, Việt Nam",(84-28) 3872 2876/77/78/79,18.5244601,105.7028457
CN HƯNG YÊN,PGD,"Khu công nghiệp Phố Nối B, xã Nghĩa Hiệp, huyện Yên Mỹ,  tỉnh Hưng Yên",(84-228) 383 4834,20.9302244,106.057952
CN HÀ TĨNH,PGD,"Số 17, đường Trần Phú, phường Trần Phú, thành phố Hà Tĩnh, tỉnh Hà Tĩnh, Việt Nam",(028) 3941 4191,18.3395963,105.8943328
PGD Như Quỳnh,PGD,"Thửa đất số 469+470, tờ bản đồ số 05, Thị trấn Như Quỳnh, Huyện Văn Lâm, Tỉnh Hưng Yên, Việt Nam",(84-228) 395 9596,null,null
PGD Đồng Văn,PGD,"Số 185, tổ dân phố Nguyễn Hữu Tiến, Phường Đồng Văn, Thị xã Duy Tiên, Tỉnh Hà Nam, Việt Nam",(84-220) 3893 821,20.645165,105.93192
PGD Đội Cung,PGD,"Số 113, đường Trường Chinh, phường Lê Lợi, thành phố Vinh, tỉnh Nghệ An, Việt Nam",(028) 38210076,18.6811226,105.6649147
PGD Từ Sơn,PGD,"Phố Mới, Phường Đình Bảng, Thành phố Từ Sơn, tỉnh Bắc Ninh",(84-237) 3725 856,21.1136017,105.951156
PGD  Chương Mỹ,PGD,"Số Nhà 54, Tổ 6, Khu Xuân Hà, Thị Trấn Xuân Mai, Huyện Chương Mỹ, Thành Phố Hà Nội, Việt Nam.",(84-220) 3837 808,20.900108,105.578056
"VĂN PHÒNG MIỀN NAM (Sở Giao Dịch 2)",,"Tầng 1, Tầng 2, Tầng 3, Tầng 4, Tháp 3A1, số 3A-3B Tôn Đức Thắng, Phường Bến Nghé, Quận 1, Thành phố Hồ Chí Minh, Việt Nam",070  385 3854,null,null
PGD Lê Chân,PGD,"Số 230-232 Tô Hiệu, Phường Trại Cau, Quận Lê Chân, Thành phố Hải Phòng, Việt Nam",(84-203)3567882/ 3567881,20.850956,106.678312
VĂN PHÒNG ĐẠI DIỆN MIỀN NAM,,"Tầng 1 và tầng 2, Tòa nhà Ree Tower Số 9 Đoàn Văn Bơ, Phường 12, Quận 4, Thành phố Hồ Chí Minh, Việt Nam",null,null,null
PGD Thạch Thất,PGD,"Số 9 Đường 419, Thôn Vĩnh Lộc, Xã Phùng Xá, Huyện Thạch Thất, Thành Phố Hà Nội, Việt Nam",(84-225) 3545 119 /(84-225) 3545 118,21.01392,105.617859
PGD Khánh Hội,PGD,"Số 107 Nguyễn Thị Thập, Khu Phố 2, Phường Tân Phú, Quận 7, Thành phố Hồ Chí Minh",(0274) 3662401,10.7379096,106.7210494
CN SỞ GIAO DỊCH,PGD,"Tầng 1 và tầng 3, tòa nhà số 34, phố Hai Bà Trưng, Phường Tràng Tiền, Quận Hoàn Kiếm, Thành phố Hà Nội, Việt Nam",024. 3266 9363/57/58/59/60/61,21.0247064,105.8523778
PGD Mỹ Đức,PGD,"Số nhà 148-150 đường Đại Nghĩa, Thị trấn Đại Nghĩa, huyện Mỹ Đức, Thành phố Hà Nội",(84-225) 352 068 /(84-225) 3521 067,null,null
PGD Nguyễn Duy Trinh (Thạnh Mỹ Lợi cũ),PGD,"Số 657 và 659 Nguyễn Duy Trinh, Khu phố 4, Phường Bình Trưng Đông, Thành phố Thủ Đức, Thành phố Hồ Chí Minh, Việt Nam",(84-28) 39318969/ (84-28) 39318959,10.7881897,106.7753573
PGD Thủ Đô,PGD,"Một phần diện tích tại tầng 1 tòa nhà số 34B Trần Phú, phường Điện Biên, quận Ba Đình, thành phố Hà Nội",024. 3734 9560,21.030236,105.843341
PGD Lê Văn Việt,PGD,"Một phần Tầng Hầm, Tầng Trệt (Tầng 1), Tầng Lửng của các căn nhà tại địa chỉ: số 304 - 306 và 300/1 - 300/3 Lê Văn Việt, Phường Tăng Nhơn Phú B, Thành phố Thủ Đức, Thành phố Hồ Chính Minh",(84-28) 38547048,10.844417,106.785031
PGD Ứng Hòa,PGD,"Tầng 1 và Tầng 2, số 07+09 phố Quang Trung, thị trấn Vân Đình, huyện Ứng Hòa, thành phố Hà Nội",(84-225) 3577 755/ (84-225) 3577 756,null,null
PGD Âu Cơ,PGD,"Tầng 1 và tầng 2, số 109 Nghi Tàm, Phường Yên Phụ, Quận Tây Hồ, Thành phố Hà Nội, Việt Nam",(84-24) 3715 1921/22,21.053488,105.837504
PGD Phú Hội,PGD,"Số 64 Hùng Vương, Phường Phú Nhuận, Thành phố Huế, Tỉnh Thừa Thiên Huế, Việt Nam",028 3516 6008,16.4629333,107.5969538
PGD Uông Bí,PGD,"Số 496 đường Quang Trung, phường Quang Trung, thành phố Uông Bí,  tỉnh Quảng Ninh, Việt Nam",(84-222) 3681 999,21.0345944,106.7695621
PGD Quận 3,PGD,"Tầng Trệt và Tầng 1, Tòa nhà số 63 Phạm Ngọc Thạch, Phường Võ Thị Sáu, Quận 3, Thành phố Hồ Chí Minh",(028) 37519143,10.7844551,106.6942183
PGD Thanh Oai,PGD,"Số 256-258, Tổ 3, Phố Kim Bài, Thị trấn Kim Bài, Huyện Thanh Oai, Thành phố Hà Nội, Việt Nam",(84-225) 3847 355/ (84-225) 3847 356,null,null
PGD Phúc Yên,PGD,"Số nhà 104, đường Hai Bà Trưng, phường Hùng Vương, Thành Phố Phúc Yên, tỉnh Vĩnh Phúc, Việt Nam",(84-239) 389 8969,21.231431,105.7083684
PGD Gia Lâm,PGD,"Diện tích thương mại S1.0901S02 và S1.0901S8A, Ô đất B3-CT04, Tòa S1.09 Dự án Khu đô thị Gia Lâm – Vinhomes Ocean Park, xã Đa Tốn, Huyện Gia Lâm, Thành Phố Hà Nội, Việt Nam",(84-225)3955 904/ (84-225) 3955 905,20.995071,105.944054
PGD Sóc Sơn,PGD,"Khu Đô Thị Mới, Thị Trấn Sóc Sơn, Huyện Sóc Sơn, Thành Phố Hà Nội, Việt Nam.",(84-225) 3719 886 /(84-225) 3719 885,21.260443,105849939
PGD Phùng,PGD,"Phố Tây Sơn, Thị Trấn Phùng, Huyện Đan Phượng, Thành Phố Hà Nội",(84-24) 33898733,21.084054,105.67053
PGD Yên Phong,PGD,"Thôn Ngô Nội, Xã Trung Nghĩa, Huyện Yên Phong, Tỉnh Bắc Ninh, Việt Nam",0237 3771 595,21.1885945,105.9595802
PGD Mỹ Đình,PGD,"Tầng 1 tòa nhà CT1-1 khu đô thị Mễ Trì Hạ, phường Mễ Trì, quận Nam Từ Liêm, Thành phố Hà Nội, Việt Nam",(84-24) 3 787 5006/7/8/9,21.015306,105.7809528
CN HÀ NAM,PGD,"Nhà thấp tầng số PG1 - 05A, Vincom Shophouse Hà Nam, 60, đường Biên Hòa, Phường Minh Khai, Thành phố Phủ Lý, Tỉnh Hà Nam, Việt Nam",(84-220) 3837 815,20.5431196,105.9172967
PGD Phạm Văn Đồng,PGD,"Nhà ở số B1-03 và B1-05A, Lô TT01, KĐT thành phố Xanh (Vinhome Gardenia) đường Hàm Nghi, phường Cầu Diễn, Quận Nam Từ Liêm, TP Hà Nội",(84-24) 3 792 0015/17/18/19,21.0354584,105.7627312
CN HẢI PHÒNG,PGD,"Số 31-33 Phạm Ngũ Lão, Phường Cầu Đất, Quận Ngô Quyền, Thành phố Hải Phòng, Việt Nam",(84-203)3723818/ 3723828,20.8568129,106.6867492
PGD Trần Thái Tông,PGD,"Số D5 Trần Thái Tông, khu đô thị mới Cầu Giấy, Phường Dịch Vọng Hậu, Quận Cầu Giấy, Thành phố Hà Nội, Việt Nam",(84-24) 62875666,21.0332222,105.7882755
"PGD Lê Hồng Phong (PGD Ngã Sáu cũ)",PGD,"Thửa 13, Lô 22B, Khu đô thị mới Ngã Năm, Sân bay Cát Bi, Phường Đông Khê , Quận Ngô Quyền, TP Hải Phòng",(84-203) 3789.959,20.8477885,106.7069341
"PGD Lê Văn Lương (PGD Láng Hạ cũ)",PGD,"Tầng 1, Tòa nhà HACC1 Complex Building, Lô đất 2.6 NO đường Lê Văn Lương, Phường Nhân Chính, Quận Thanh Xuân, Thành phố Hà Nội",(84-24) 32484852,21.002905,105.801717
PGD Lạch Tray,PGD,"Số 276B Lạch Tray, Phường Lạch Tray, Quận Ngô Quyền, Thành phố Hải Phòng, Việt Nam",(84-227) 3836686,20.840743,106.6938359
PGD Quang Trung,PGD,"Số 184 Quang Trung, Phường Phan Bội Châu, Quận Hồng Bàng, Thành phố Hải Phòng, Việt Nam",(84-227) 384 8226,20.8552058,106.6726813
CN THƯỜNG TÍN,PGD,"Khu đất kinh doanh dịch vụ, Xã Văn Bình, Huyện Thường Tín, Thành phố Hà Nội",(84-225) 3552 533/ (84-225) 3552 522,20.871799,105.867801
PGD Trần Nguyên Hãn,PGD,"Số 170A đường Trần Nguyên Hãn, phường Trần Nguyên Hãn, quận Lê Chân, Thành phố Hải Phòng, Việt Nam",(84-204) 6252 588/99,20.8479551,106.6714671
"PGD Lam Sơn (PGD Đông Thọ cũ)",PGD,"Một phần diện tích tại tòa nhà Số 253 Đường Trần Phú, Phường Ba Đình, thành phố Thanh Hóa, Tỉnh Thanh Hóa",(84-232) 351 8989,19.801645,105.776477
CN NGÔ QUYỀN,PGD,"Toà nhà Vinaplat, 39 Ngô Quyền, Phường Hàng Bài, Quận Hoàn Kiếm, Thành phố Hà Nội, Việt Nam",(84-24) 22205088,21.021626,105.854158
PGD Hoàn Kiếm,PGD,"16 Thi Sách,  Phường Ngô Thì Nhậm, Quận Hai Bà Trưng, TP Hà Nội",(84-24) 3935 1513/39350583,21.0090571,105.8607507
PGD Đông Anh,PGD,"Số 115, khối 1B và số 117, tổ 9, khối 1B, Thị Trấn Đông Anh, Huyện Đông Anh, Thành phố Hà Nội, Việt Nam",024. 3965 5203/202,21.1394195,105.8545155
PGD Tràng An,PGD,"Số 99 Hoàng Cầu, Phường Ô Chợ Dừa, Quận Đống Đa, Thành phố Hà Nội, Việt Nam",(84-24) 37478322/ 37478323/ 37478335/ 37478336,21.0162018,105.8226888
"PGD Bắc Hà Nội (PGD Tôn Đức Thắng cũ)",PGD,"Tầng 1 Tòa nhà 27A3, khu nhà ở cao tầng CT2 – Khu đô thị thành phố Giao Lưu, Phường Cổ Nhuế 1, Quận Bắc Từ Liêm, thành phố Hà Nội",(84-24) 35131969/ 35131970/ 35131971/ 35131972/ 35132485,21.0516058,105.7808956
PGD Lạc Trung,PGD,"Số 55 Lạc Trung, phường Vĩnh Tuy, quận Hai Bà Trưng, Thành phố Hà Nội, Việt Nam",(84-24) 3633 5874/75/76,21.0028645,105.8665059
"PGD Nam Hà Nội (PGD Giải Phóng cũ)",PGD,"Toàn bộ diện tích Tầng 1 + Tầng 2 + Tầng 3 tại ngôi nhà số 18 ngõ 221 đường Giáp Bát, phường Giáp Bát, Quận Hoàng Mai, thành phố Hà Nội",(84-24) 3664 8852/53/54,20.983874,105.844659
"PGD Thành Đô (PGD Lý Nam Đế cũ)",PGD,"Số 4 Dã Tượng, Phường Trần Hưng Đạo, Quận Hoàn Kiếm, Thành phố Hà Nội, Việt Nam",(84-24) 37478692/ 37478693/ 37478694,21.023999,105.8465134
PGD Nguyễn Lương Bằng,PGD,"Ngôi nhà số 205, Nguyễn Lương Bằng, phường Thanh Bình, Thành phố Hải Dương, Tỉnh Hải Dương, Việt Nam",(84-204) 3556633,20.9369416,106.3102475
CN HẢI DƯƠNG,PGD,"Số 11 Trần Hưng Đạo, phường Trần Hưng Đạo, Thành phố Hải Dương, Tỉnh Hải Dương, Việt Nam",(84-204) 3863 544,20.938015,106.3388869
CN LÀO CAI,PGD,"Số 109 Hoàng Liên, Phường Cốc Lếu, Thành Phố Lào Cai, Tỉnh Lào Cai, Việt Nam",(84-239) 368 5222,22.497032,103.96788
PGD Quế Võ,PGD,"Khu phố Mao Trung, Phường Phượng Mao, Thị Xã Quế Võ, Tỉnh Bắc Ninh.",(84-237) 6252 004,21.154476,106143913
PGD Hà Thành,PGD,"Ô số L1-01, Tầng 1, Tòa nhà R6, Khu trung tâm thương mại Vincom Mega Mall, Số 72A Nguyễn Trãi, Phường Thượng Đình, Quận Thanh Xuân, Thành phố Hà Nội, Việt Nam",(84-24) 66640036,21.0009207,105.8160354
PGD Chí Linh,PGD,"Số 251 Đường Nguyễn Trãi, Phường Sao Đỏ, Thành Phố Chí Linh, Tỉnh Hải Dương, Việt Nam",(84- 205)375.8999,21.06373,106.23203
PGD Phước Kiển,PGD,"1262 Lê Văn Lương, Ấp 2, Xã Phước Kiển, Huyện Nhà Bè, Thành Phố Hồ Chí Minh",(028) 35119151,10.700563,106.704396
PGD Ninh Kiều,PGD,"Số 353 đường Nguyễn Văn Cừ, phường An Hòa, quận Ninh Kiều, thành phố Cần Thơ",null,10.045581,105.767227
CN QUẢNG NINH,PGD,"Tòa nhà Hạ Long TK, Số 12 đường 25/4, Tổ 43, Khu 3, Phường Bạch Đằng, Thành phố Hạ Long, Tỉnh Quảng Ninh, Việt Nam",(84-222) 3893 686,20.9519872,107.0771494
PGD Kim Mã ( Giảng Võ cũ ),PGD,"Số 54+56+58 Đường Kim Mã, Phường Kim Mã, Quận Ba Đình, Thành phố Hà Nội, Việt Nam",(84-24) 3 512 2031/3 512 1178,21.0278728,105.824573
PGD Nguyễn Trãi,PGD,"Số 232+234+236 Đường Nguyễn Trãi, Phường Tân Sơn, Thành phố Thanh Hoá, Tỉnh Thanh Hoá, Việt Nam",(84-234) 394 3939,19.8037502,105.7713036
CN BÌNH PHƯỚC,PGD,"Số 860 Phú Riềng Đỏ, Phường Tân Xuân, Thị Xã Đồng Xoài, Tỉnh Bình Phước.",null,11.5314186,106.8970774
"PGD Đông Hương (PGD Trường Thi cũ)",PGD,"Tầng 1 tòa nhà Thành Trung Plaza, số 490 Đại lộ Lê Lợi, phường Đông Hương, thành phố Thanh Hóa, tỉnh Thanh Hóa, Việt Nam",(84-232) 384 6969,19.806373,105795304
PGD Vỹ Dạ,PGD,"212 Nguyễn Sinh Cung, Phường Vỹ Dạ, Thành phố Huế, Tỉnh Thừa Thiên Huế, Việt Nam",(84-28) 3515 8893/94/95/96/97/98,16.482982,107.596417
CN BẠC LIÊU,PGD,"Số 137 Trần Phú, Phường 7, Thành phố Bạc Liêu, Tỉnh Bạc Liêu",null,9.290508,105.721695
PGD Hàm Nghi,PGD,"102-104 Hàm Nghi, phường Thạc Gián, quận Thanh Khê, Thành phố Đà Nẵng, Việt Nam",(028) 35262298,16.0616774,108.2106624
PGD Bỉm Sơn,PGD,"Số 18 đường Nguyễn Huệ, Phường Ngọc Trạo, Thị xã Bỉm sơn, Tỉnh Thanh Hóa, Việt Nam",(84-234) 354 5556 - 354 5557,20.0848305,105.8571719
CN THANH TRÌ,PGD,"Căn Số TT3-01 và Căn Số TT3-02 thuộc Khu Nhà Ở Xã Hội IEC, tại Ô Quy Hoạch B3-2 Thuộc Phân Khu Đô Thị Ký Hiệu S5, Xã Tứ Hiệp, Huyện Thanh Trì, Thành Phố Hà Nội, Việt Nam.",null,20.940649,105.849167
PGD Văn Thánh,PGD,"Số 68-70 Nguyễn Gia Trí, Phường 25, Quận Bình Thạnh, Thành Phố Hồ Chí Minh, Việt Nam",(+84)  28 3979 7549,10.8019035,106.7154733
PGD Lý Nhân,PGD,"Số 127 Đường Trần Hưng Đạo, Thị trấn Vĩnh Trụ, Huyện Lý Nhân, Tỉnh Hà Nam",(84-203) 382 7979 /35827676/3657669 /3657668,null,null
CN THANH HOÁ,PGD,"Lô 05+06, đường Phan Chu Trinh, Phường Điện Biên, Thành phố Thanh Hoá, Tỉnh Thanh Hóa, Việt Nam",(84-234) 357 1616 - 3 57 1717,19.8121966,105.775556
PGD Bà Chiểu,PGD,"Số 341 Lê Quang Định, Phường 5, Quận Bình Thạnh, TPHỒ CHÍ MINH",(84-28) 3839 0313,10.8119058,106.6904901
PGD Bến Thủy,PGD,"Số 01, đường Nguyễn Văn Trỗi, Phường Bến Thủy, Thành phố Vinh, Tỉnh Nghệ An, Việt Nam",(84- 235)0383 3003,18.6585213,105.6986214
"PGD Đông Thủ Đô (PGD Đồng Xuân cũ)",PGD,"Sàn thương mại dịch vụ số H4-TM1 Khu nhà ở xã hội tại ô đất có ký hiệu B8.NXH, Phường Phúc Đồng, Quận Long Biên, thành phố Hà Nội, Việt Nam.",024. 3927 4790/91/92,21.041994,105.9052262
PGD Thành Nam,PGD,"Số 350 đường Trần Hưng Đạo, phường Bà Triệu, Thành phố Nam Định, Việt Nam",(84-234) 389 7171; (0234) 389 8169,20.4304395,106.1726855
PGD Thành Sen,PGD,"Số 63, đường Nguyễn Chí Thanh, Phường Tân Giang, Thành phố Hà Tĩnh, Tỉnh Hà Tĩnh, Việt Nam",(028) 37222351,18.3382014,105.9053331
PGD Nguyễn Hữu Huân,PGD,"Số 52 Nguyễn Hữu Huân, Phường Lý Thái Tổ, Quận Hoàn Kiếm, Thành phố Hà Nội, Việt Nam",(84-24) 3926 4020/21/22,21.0334587,105.8544842
PGD Ý Yên,PGD,"Đường 57A, Thị trấn Lâm, Huyện Ý Yên, Tỉnh Nam Định, Việt Nam",(84-234) 3814 646,20.3234114,106.0149874
PGD Đống Đa,PGD,"171 - Đống Đa, phường Thạch Thang, Quận Hải Châu, Thành phố Đà Nẵng, Việt Nam",(84-28) 73000000/ 305315,16.077461,108.216461
PGD Thái Hà,PGD,"Tầng 1 và Tầng 2 ngôi nhà số 78A, tổ 4A, Phường Trung Liệt, Quận Đống Đa, Hà Nội.",(84-24) 39352411,21.0108448,105.822425
PGD Lạc Quần,PGD,"Số 98 Quốc lộ 21, Thị trấn Cổ Lễ, Huyện Trực Ninh, Tỉnh Nam Định, Việt Nam",0236 3946 797,20.3271823,106.2595308
PGD Núi Thành,PGD,"407- Núi Thành, Phường Hoà Cường Bắc, Quận Hải Châu, Thành phố Đà Nẵng, Việt Nam",(84-28) 39111681/ 08.39111682,16.0377812,108.2222354
PGD Chương Dương,PGD,"Một phần diện tích tại tầng 1 và tầng 5 tòa nhà Plaschem, số 562 đường Nguyễn Văn Cừ, phường Gia Thụy, quận Long Biên, thành phố Hà Nội",024. 3652 6512/ 38722198,21.049556,105.8838507
"PGD Đông Hà Nội (PGD Việt Hưng cũ)",PGD,"Diện tích sàn thương mại tại Tầng 1 và tầng 2 thuộc SH-18, Tòa nhà Century Tower số 458 đường Minh Khai, Phường Vĩnh Tuy, Quận Hai Bà Trưng, thành phố Hà Nội",024.7305.6600,20.9964269,105.8682295
PGD Sơn Trà,PGD,"1094 Ngô Quyền, Phường An Hải Tây, Quận Sơn Trà, Thành phố Đà Nẵng, Việt Nam",(84-28) 36207650 – 36207651,16.059006,108.2350473
"PGD Long Biên (PGD Ngọc Lâm cũ)",PGD,"Số 3 Nguyễn Sơn, Phường Ngọc Lâm, Quận Long Biên, TP Hà Nội",024. 3873 6212,21.0482033,105.8754426
CN NAM ĐỊNH,PGD,"Số 69 Lê Hồng Phong, Phường Nguyễn Du, Thành phố Nam Định, Tỉnh Nam Định, Việt Nam",0236 3621 371,20.426375,106.17724
CN HÀ NỘI,PGD,"Tầng 1,2 tòa nhà số 5 Điện Biên Phủ, Phường Điên Biên, Quận Ba Đình, Tp Hà Nội",024.3822.2838,21.0291199,105.842426
CN  BẮC NINH,PGD,"Một phần tầng 1 và một phần tầng 2, tòa nhà Việt Long, số 34, đường Lý Thái Tổ, phường Ninh Xá, thành phố Bắc Ninh, tỉnh Bắc Ninh, Việt Nam",(84-228) 355 5678,21.1735468,106.0631453
PGD Yên Lạc,PGD,"Tầng 1+2 Số 103 Đường Nguyễn Khoan, Tổ dân phố 3 Đoài, Thị trấn Yên Lạc, Huyện Yên Lạc, Tỉnh Vĩnh Phúc",(84-239) 378 7789/0393 787 666,null,null
PGD Khâm Thiên,PGD,"Số 180-182 Khâm Thiên, Phường Thổ Quan, Quận Đống Đa, Thành phố Hà Nội, Việt Nam",(84-24) 35189533/ 35189773/ 35189774/ 35189775,21.019192,105.836033
PGD Yên Hòa,PGD,"Tầng 1 Khu nhà chung cư E3, khu đô thị Yên Hòa, Phường Yên Hòa, Quận Cầu Giấy, Thành phố Hà Nội, Việt Nam","(84-24) 37834733, (84-4) 37834734",21.0220587,105.7877078
CN HUẾ,PGD,"35 Lý Thường Kiệt, Phường Phú Nhuận, Thành phố Huế, Tỉnh Thừa Thiên Huế, Việt Nam",(028) 35126293,16.4615259,107.5913781
PGD Linh Đàm,PGD,"BT1, Ô 18 Bắc Linh Đàm, Phường Đại Kim, Quận Hoàng Mai, Thành phố Hà Nội, Việt Nam",(84-24) 3540 1864,20.9677453,105.8265847
PGD Cầu Giấy,PGD,"Số 2 đường Nguyễn Khánh Toàn, phường Quan Hoa, Quận Cầu Giấy, Thành phố Hà Nội, Việt Nam",(84-24) 37675730,21.0370156,105.8014425
PGD Bến Ngự,PGD,"Số 68 đường Trần Thúc Nhẫn, phường Vĩnh Ninh, Tỉnh Thừa Thiên Huế, Việt Nam",(028) 37402834,16.4556359,107.58356
PGD Hoàng Quốc Việt,PGD,"Tầng 1, tòa nhà 11 tầng, số 184, đường Hoàng Quốc Việt, phường Nghĩa Đô, quận Cầu Giấy, Thành phố Hà Nội, Việt Nam",(84-24) 3 755 7516/17/18/19,21.046718,105.79059
"PGD Văn Phú (PGD Vương Thừa Vũ cũ)",PGD,"Sàn dịch vụ thương mại (SH30 + SH31), Tòa C chung cư H-CT2, Ô đất H-CT2 -Khu nhà ở Hi Brand, Khu đô thị mới Văn Phú, phường Phú La, quận Hà Đông, TP Hà Nội, Việt Nam",(84-24) 35683826,21.0001334,105.821951
CN QUẢNG BÌNH,PGD,"Số 108 Trần Hưng đạo, Phường Đồng Phú, Thành phố Đồng Hới, Tỉnh Quảng Bình, Việt Nam",02873.039.955 hoặc 02873.049.996,17.4691662,106.6132982
CN KIÊN GIANG,PGD,"04 Trần Phú, Khu phố Lý Thường Kiệt, Phường Vĩnh Thanh, Thành phố Rạch Giá, Tỉnh Kiên Giang, Việt Nam",null,10.0165538,105.08057
CN THĂNG LONG,PGD,"Tòa nhà M3-M4 đường Nguyễn Chí Thanh, Phường Láng Hạ, Quận Đống Đa, Thành phố Hà Nội, Việt Nam",(84-24) 62662979 – 62662980 – 62662981–,21.0207075,105.8094335
PGD Sông Đà,PGD,"Tổ 13, Đại lộ Thịnh Lang, Phường Tân Thịnh, Thành phố Hòa Bình, Tỉnh Hòa Bình, Việt Nam",0237 6252 688,20.8327456,105.3410524
"CN NHÀ BÈ (CN HIỆP PHƯỚC)",PGD,"148B Nguyễn Hữu Thọ, Ấp 5, Xã Phước Kiển, Huyện Nhà Bè, Thành phố Hồ Chí Minh",(028) 3949 0262 - (028) 39493488,10.71861,106.70216
PGD Thanh Xuân,PGD,"Tầng 1 Tòa nhà thuộc Dự án Tổ hợp văn phòng và nhà ở  Housinco Tân Triều tại Ô đất CT5, Khu đô thị Tây Nam Kim Giang I, xã Tân Triều, Huyện Thanh Trì, Thành phố Hà Nội, Việt Nam.",(84-24) 3 552 4968,20.9854373,105.7949908
PGD Lê Văn Sỹ,PGD,"Số 288 - 290 Lê Văn Sỹ, phường 14, quân 3, thành phố Hồ Chí Minh",(84-28) 3982 3603,10.7870139,106.679744
"CN THẢO ĐIỀN (An Phú đổi tên)",PGD,"Số 57 đường Quốc Hương, Phường Thảo Điền, Thành phố Thủ Đức (trước đây là Quận 2), Thành phố Hồ Chí Minh",(028) 6292 9062/63,10806654,106.730988
CN NINH BÌNH,PGD,"Số 91, Đường Lê Hồng Phong, Phường Đông Thành, Thành phố Ninh Bình, Tỉnh Ninh Bình, Việt Nam",0236 3758 939,20.2577212,105.9735766
CN ĐÀ LẠT,PGD,"Số 37 Phan Bội Châu, Phường 1, Thành phố Đà Lạt, Tỉnh Lâm Đồng",null,11.9444603,108.437263
PGD Thụy Khuê,PGD,"Số 251T - 251U - 251V Phố Thụy Khuê, Tổ 21, Cụm 10, Phường Thuỵ Khuê, Quận Tây Hồ, Thành phố Hà Nội, Việt Nam",(84-24) 3728 0931,21.0434838,105.818944
"PGD Bình Hưng (tên cũ PGD Nhà Bè)",PGD,"Tầng 1 và Tầng 2, số 647 Quốc Lộ 50, Xã Bình Hưng, Huyện Bình Chánh, Thành phố Hồ Chí Minh.",0262 367 3333,10.7260439,106.6560212
CN QUẢNG NAM,PGD,"Số nhà 175 - 177 đường Phan Châu Trinh, Phường Phước Hòa, thành phố Tam Kỳ, tỉnh Quảng Nam, Việt Nam",(0251) 394 8958,15.5698161,108.4892272
PGD Ba Đình,PGD,"Tầng 1 Tòa nhà Việt Hải, Lô C2-H Cụm Tiểu thủ công nghiệp và công nghiệp nhỏ Cầu Giấy, Phường Dịch Vọng Hậu, Quận Cầu Giấy, Thành phố Hà Nội, Việt Nam",(84-24) 3247 4050/7305 7312,21.0301772,105.7860506
"PGD Bạch Đằng (PGD Thống Nhất cũ)",PGD,"104 - 106 Bạch Đằng, Phường 24, Quận Bình Thạnh, Thành phố Hồ Chí Minh",(0290) 35 800 80,10.803264,106.707902
CN HOÀI ĐỨC,PGD,"Tầng 1 và tầng 2 Nhà A38-NV16 Ô số 23 và A38-NV16 Ô số 24, Khu đô thị mới hai bên đường Lê Trọng Tấn, xã An Khánh, Huyện Hoài Đức, Thành Phố Hà Nội, Việt Nam",null,21.003119,105.732798
PGD Nam Thăng Long,PGD,"Lô số 4, khu thương mại thấp tầng (Shophouse CT-17), khu đô thị Nam Thăng Long, Phường Xuân La, Quận Tây Hồ, Thành phố Hà Nội, Việt Nam",(84-24) 3758 8747/8/9,20.963182,105.766417
PGD Phan Huy Ích,PGD,"Số 242 Phan Huy Ích, Phường 12, Quận Gò Vấp, TP. HỒ CHÍ MINH",(0271) 388 3939,10.83667,106.636
CN PHÚ THỌ,PGD,"Số nhà 2269, đường Hùng Vương, phường Nông Trang, Thành phố Việt Trì, tỉnh Phú Thọ, Việt Nam",(84-237) 3755 268,21.326407,105.380698
PGD Ba Đồn,PGD,"Số 381 Quang Trung, Khu Phố 5, Phường Ba Đồn, Thị Xã Ba Đồn, Tỉnh Quảng Bình, Việt Nam",(028)36200360,17.756865,106.419843
PGD Nguyễn Tri Phương,PGD,"Số 96 đường 2/9 phường Bình Thuận, quận Hải Châu, thành phố Đà Nẵng, Việt Nam.",(84-28) 5404 2568,16.05632,108.222183
PGD Gang Thép,PGD,"Số 542-544, đường Cách mạng Tháng Tám, tổ 12, phường Trung Thành, thành phố Thái Nguyên, tỉnh Thái Nguyên, Việt Nam",(84-238)3589427,21.5458161,105.8707122
PGD Đồng Hới,PGD,"59 Tố Hữu, Tiểu khu 11, Phường Nam Lý, Thành phố Đồng Hới, Tỉnh Quảng Bình, Việt Nam",(028) 3517 6224,17.4696567,106.6044611
PGD Hòa Xuân ( PGD Điện Biên Phủ cũ),PGD,"180+182 Đường Nguyễn Phước Lan, Phường Hòa Xuân , Quận Cẩm Lệ, Thành Phố Đà Nẵng, Việt Nam.",(028) 54122094,16.020142,108.228577
PGD Sông Công,PGD,"Số 194 Đường Cách mạng tháng 8, Tổ 11, Phường Thắng Lợi, Thành phố Sông Công, Tỉnh Thái Nguyên.",(84-238)3543388,null,null
CN QUẢNG TRỊ,PGD,"Số 38 Quốc Lộ 9B, Khu Phố 8, Phường 1, Thành Phố Đông Hà, tỉnh Quảng Trị.",(028) 39101873,16.817521,107.086597
CN ĐÀ NẴNG,PGD,"112 - Phan Châu Trinh, phường Phước Ninh, quận Hải Châu, Thành phố Đà Nẵng, Việt Nam",(84-28) 54027942/43/44,16.0648154,108.2199239
PGD Đông Hà,PGD,"Số 17 Trần Hưng Đạo, phường 1, Thành phố Đông Hà, Tỉnh Quảng Trị, Việt Nam",(028) 73042080,16.8227755,107.0989306
CN VĨNH PHÚC,PGD,"Số nhà 01, đường Mê Linh, phường Liên Bảo, thành phố Vĩnh Yên, tỉnh Vĩnh Phúc, Việt Nam",(84-238)3545588,21.3136463,105.5978661
PGD Nguyễn Du,PGD,"Số 214, đường Nguyễn Công Trứ, Phường Bắc Hà, Thành phố Hà Tĩnh, Tỉnh Hà Tĩnh, Việt Nam",(028) 54122094,18.346753,105.902464
PGD HỘI AN,PGD,"Số 523 Hai Bà Trưng, Phường Cẩm Phô, TP Hội An, Tỉnh Quảng Nam",(0251) 8889380,15.88325,108.325185
"PGD Sông Lam (PGD Cửa Đông cũ)",PGD,"Shophouse LK1-10, dự án đầu tư xây dựng Khu nhà ở thấp tầng Trường Thịnh Phát, Khối Yên Sơn, Phường Hà Huy Tập, Thành Phố Vinh, Tỉnh Nghệ An",(84-233) 3559 989,18.692662,105.689056
PGD Vĩnh Yên,PGD,"Tầng 1 và tầng 2 ngôi nhà số 245 -247  đường Hùng Vương, phường Tích Sơn, TP VĨnh Yên, tỉnh Vĩnh Phúc",(84-239) 368 6222,21.3077197,105.5850005
CN TP. HỒ CHÍ MINH,PGD,"165-167-169 đường Hàm Nghi, phường Nguyễn Thái Bình, quận 1, TP Hồ Chí Minh",(0274) 368 3979,10.770717,106.699662
"PGD Diễn Châu (Nguyễn Văn Cừ cũ)",PGD,"Số 43, Tổ 8, Khối 3, Thị Trấn Diễn Châu, Huyện Diễn Châu, Tỉnh Nghệ An, Việt Nam",(84-233) 3556 883,18.983484,105.601027
PGD Kim Tân,PGD,"Ngã 6, Phường Kim Tân, Tp Lào Cai, Tỉnh Lào Cai",02363835090,22.4815787,103.9743824
"PGD Bến Thành (Bình Thạnh cũ)",PGD,"Phòng GF02, GF05 - Tầng Trệt, Tòa nhà mPlaza Saigon, số 39 Lê Duẩn, Phường Bến Nghé, Quận 1, Thành phố Hồ Chí Minh, Việt Nam",(028) 39708251,10.8118131,106.7145741
"PGD Nam Từ Liêm (PGD Từ Liêm cũ)",PGD,"Từ tầng 1 đến tầng 5, Số 292 Hồ Tùng Mậu, tổ dân phố số 12, phường Phú Diễn, Quận Bắc Từ Liêm, Thành phố Hà Nội, Việt Nam",(84-24) 62873784/5,21.041635,105.762144
PGD Hoa Lư,PGD,"Số 925 đường Đại Cồ Việt, Thị trấn Thiên Tôn, Huyện Hoa Lư, Tỉnh Ninh Bình, Việt Nam",0236 3531 466,20.299194,105.952733
"PGD Hưng Vượng (PGD Tân Hưng cũ)",PGD,"Số 17 Bùi Bằng Đoàn, Khu phố Hưng Vượng 3(R16-2), Phường Tân Phong, Quận 7, Thành phố Hồ Chí Minh, Việt Nam",(84-28) 3991 0980,10.729826,106.708578
PGD Chợ Vinh,PGD,"Số 20, đường Cao Thắng, Phường Hồng Sơn, Thành phố Vinh, Tỉnh Nghệ An, Việt Nam",(84-232) 626 9269,18.6646085,105.674234
PGD Đông Ba,PGD,"179 Trần Hưng Đạo, phường Đông Ba, Tỉnh Thừa Thiên Huế, Việt Nam",(028) 6258 1376,16.4716229,107.5872375
CN GIA ĐỊNH,PGD,"Số 296 đường Phan Xích Long, phường 7, quận Phú Nhuận, thành phố Hồ Chí Minh",(028) 35921833,10.7984293,106.6884239
CN MÓNG CÁI,PGD,"Số 6 đường Hùng Vương, phường Trần Phú, thành phố Móng Cái, tỉnh Quảng Ninh, Việt Nam",(84-218) 3888 995,21.5279757,107.9701352
PGD Văn Giang,PGD,"Khu biệt thự Thủy Nguyên, MRA-185A, Xã Phụng Công, Huyện Văn Giang, Tỉnh Hưng Yên, Việt Nam",(84-228)352 8898,20.948631,105.934369
"CN SỞ GIAO DỊCH 2 (Bến Thành cũ)",PGD,"Tầng 1, Tầng 2, Tầng 3, Tầng 4, Tháp 3A1, số 3A-3B Tôn Đức Thắng, Phường Bến Nghé, Quận 1, Thành phố Hồ Chí Minh, Việt Nam",(84-28) 3948 5826,10.78142,106.7006
CN CẦN THƠ,PGD,"Số 50-52-54 Trần Văn Khéo, phường Cái Khế, quận Ninh Kiều, thành phố Cần Thơ",null,10.0448009,105.7847625
"CN TRUNG SƠN (Quận 7 cũ)",PGD,"Số 49-51 đường 9A Khu dân cư Trung Sơn, Xã Bình Hưng, huyện Bình Chánh, TP Hồ Chí Minh",(028) 38940690,10.7378351,106.6898202
PGD Điện Biên,PGD,"Số 260 Điện Biên và 01A Trưng Trắc, Phường Quang Trung, Thành phố Hưng Yên, Tỉnh Hưng Yên, Việt Nam",(84-228) 393 5961,20.646393,106.0571
PGD Cẩm Phả,PGD,"Số nhà 308, đường Trần Phú, phường Cẩm Thành, Thành phố Cẩm Phả,  tỉnh Quảng Ninh, Việt Nam",(84-222) 3761112,21.0095538,107.2739838
CN LẠNG SƠN,PGD,"Số 125-127 đường Lê Lợi, P VĨnh Trại, Tp Lạng Sơn, tỉnh Lạng Sơn",(84-229) 383 5666,21.8537434,106.7634828
CN BÌNH DƯƠNG,PGD,"Số 557 Đại lộ Bình Dương, phường Hiệp Thành, Thành phố Thủ Dầu Một, tỉnh Bình Dương.",(0256) 3810028,10.9881905,106.6644065
PGD Đò Quan,PGD,"Căn số 35+36 Lô QH số CL12, Khu đô thị dệt may Nam Định, Phường Trần Đăng Ninh, Thành Phố Nam Định, Việt Nam.",0236 3575 444,20.420841,106.168804
PGD Lý Tự Trọng,PGD,"Số 126 đường Lý Tự Trọng, P. An Cư, Q. Ninh Kiều, TP. Cần Thơ",null,10.036458,105.777671
PGD Lái Thiêu,PGD,"68 A đường Nguyễn Văn Tiết, tổ 7 Khu phố Đông Tư , phường Lái Thiêu, thị xã Thuận An, Tỉnh Bình Dương",(0256) 3647168,10.9908335,106.6545599
PGD Phú Quốc,PGD,"Số 133 Nguyễn Trung Trực, P. Dương Đông, TP. Phú Quốc (trước đây là TT Dương Đông, Huyện Phú Quốc), tỉnh Kiên Giang",null,10.2233378,103.964392
CN GÒ VẤP,PGD,"Số 2B đường Quang Trung, phường 3, quận Gò Vấp, TP Hồ Chí Minh",(0257)3888889,10.8269942,106.6781705
PGD Dĩ An,PGD,"Số 18 đường Dĩ An - Truông Tre, Khu phố Nhị Đồng 2, Phường Dĩ An, Thị Xã Dĩ An, Tỉnh Bình Dương",(0258) 356 1887,10.8970782,106.7646807
PGD Đức Trọng,PGD,"Số 1A và 3 Thống Nhất, KP2, Thị trấn Liên Nghĩa, Huyện Đức Trọng, Tỉnh Lâm Đồng",null,11.736322,108.374098
CN CỘNG HÒA,PGD,"Tầng trệt và tầng 1 tòa nhà Số 19C Cộng Hoà, phường 12, Q. Tân Bình, TPHỒ CHÍ MINH",(0254)3738585,10.801562,106.650261
CN SÀI GÒN,PGD,"Số 129 Nguyễn Chí Thanh, phường 09, quận 5, thành phố HỒ CHÍ MINH",(0252) 3835615,10.7595753,106.6682084
CN ĐẮK LẮK,PGD,"Số 35 – 37 Đường Ngô Quyền , Phường Tân Lợi, Thành phố Buôn Ma Thuột, tỉnh Đắk Lắk",null,12.6878632,108.0519607
PGD Chánh Hưng,PGD,"Số 357-359 Phạm Hùng, ấp 4, xã Bình Hưng, huyện Bình Chánh, TPHỒ CHÍ MINH",902203050,10.7339213,106.6732837
CN NGHỆ AN,PGD,"Nhà A, Khu Thương mại dịch vụ nhà ở C1, đường Quang Trung, Phường Quang Trung, Thành phố Vinh, Tỉnh Nghệ An, Việt Nam",(84-232) 625 7999,18.6707564,105.6742798
CN TIỀN GIANG,PGD,"PG1-08 và PG1-09 thuộc Dự án tổ hợp Trung tâm thương mại dịch vụ, kết hợp nhà ở thương mại , Số 01A đường Hùng Vương, Phường 1, Thành phố Mỹ Tho, tỉnh Tiền Giang",null,10.356711,106.363953
"PGD Tây Sài Gòn (PGD An lạc cũ)",PGD,"270 đường Vành Đai Trong, Phường Bình Trị Đông B, Quận Bình Tân, Thành phố Hồ Chí Minh, Việt Nam",(0272) 363 7696,10.7512509,106.6155623
CN CÀ MAU,PGD,"Số 134 Nguyễn Tất Thành, Phường 8, Thành phố Cà Mau, Tỉnh Cà Mau, Việt Nam",null,9.1679636,105.145412
PGD Đức Hòa,PGD,"Số D1 và D2, Dự án Imperia Grand Plaza Đức Hòa, Đường 3 Tháng 2 nối dài, Thị trấn Hậu Nghĩa, Huyện Đức Hòa, Tỉnh Long An, Việt Nam",null,null,null
CN BÌNH ĐỊNH,PGD,"Số 83 Mai Xuân Thưởng, phường Lý Thường Kiệt, TP Quy Nhơn, tỉnh Bình Định",null,13.7748134,109.2239132
CN TÂY NINH,PGD,"Nhà phố thương mại (Shophouse) số PG2-35 và PG2-36 thuộc Dự án Tổ hợp Trung tâm thương mại, Khách sạn tiêu chuẩn 5 sao và nhà phố Shophouse Tây Ninh tại đường 30/4, Phường 3, Thành phố Tây Ninh, Tỉnh Tây Ninh, Việt Nam",null,11.3351554,106.1098854
PGD Lagi,PGD,"Số 153A11-153A13, đường Lê Lợi, phường Phước Hội, thị xã Lagi, tỉnh Bình Thuận.",null,10.6596854,107.7752298
CN CỦ CHI,PGD,"Số 70 Tỉnh Lộ 8, Khu phố 2, Thị trấn Củ Chi, Huyện Củ Chi, Thành phố Hồ Chí Minh",null,10.969895,106.4891642
CN BẾN TRE,PGD,"Số 261B Đại lộ Đồng Khởi, Khu Phố 5, Phường Phú Khương, Thành Phố Bến Tre, Tỉnh Bến Tre",null,10.2445343,106.3750268
"PGD An Nhơn (PGD Nhơn Hội cũ)",PGD,"Số 46 Ngô Gia Tự, Phường Bình Định, Thị xã An Nhơn, Tỉnh Bình Định",null,13.888295,109.11869
CN HÓC MÔN,PGD,"Số 39/13 đường Lê Thị Hà, Khu phố 8, thị trấn Hóc Môn, Huyện Hóc Môn, TP Hồ Chí Minh",null,10.8860775,106.5983504
CN SÓC TRĂNG,PGD,"Số 38-40-40A Trần Hưng Đạo, Phường 2, TP Sóc Trăng, Tỉnh Sóc Trăng",null,9.595227,105.969894
CN QUẢNG NGÃI,PGD,"Số 444 – 446 Quang Trung, Phường Nguyễn Nghiêm, Thành phố Quảng Ngãi, Tỉnh Quảng Ngãi, Việt Nam",(0251)8822885,15.121785,108.80441
CN QUẬN 11,PGD,"Số 318-318A Lãnh Binh Thăng, Phường 11, Quận 11, Thành phố Hồ Chí Minh",(2773) 362 2822,10.764722,106.648022
CN NINH THUẬN,PGD,"360 Thống Nhất, Khu phố 4, Phường Phủ Hà, Thành phố Phan Rang - Tháp Chàm, Tỉnh Ninh Thuận",null,11.569604,108.991067
CN HẢI VÂN,PGD,"Số 523 đường Điện Biên Phủ, Phường Hòa Khê, Quận Thanh Khê, Thành phố Đà Nẵng, Việt Nam.",null,16.0653686,108.1856725
PGD Thủ Đức,PGD,"100C đường Đặng Văn Bi, khu phố 2, Phường Bình Thọ, Thành phố Thủ Đức, Thành phố Hồ Chí Minh",(0274) 3662401,10.843883,106.762408
"CN PHAN VĂN TRỊ (Đổi tên từ Bình Tân)",PGD,"Số 366A29 đường Phan Văn Trị, Khu dân cư CityLand, Phường 5, Quận Gò Vấp, Thành phố Hồ Chí Minh",(0275) 829898,10.824533,106.691197
PGD Châu Đốc,PGD,"62- 64 Nguyễn Văn Thoại, phường Châu Phú A, Thành phố Châu Đốc, tỉnh An Giang",null,10.7094021,105.1181455
PGD Hoàng Hoa Thám,PGD,"26 Hoàng Hoa Thám, P12, Q.Tân Bình, TPHỒ CHÍ MINH",(0276) 385 6666,10.7976633,106.6471859
"PGD Nam Sài Gòn (Huỳnh Tấn Phát cũ)",PGD,"Tầng trệt và lầu 1, 332 – 332A Huỳnh tấn Phát, khu phố 1, phường Bình thuận, Quận 7, TP.HỒ CHÍ MINH",(028) 62650170,10.749157,106.728536
PGD Nguyễn Thái Học,PGD,"Số 278 đường Nguyễn Thái Học, Phường Ngô Mây, Thành phố Quy Nhơn, Tỉnh Bình Định, Việt Nam",null,13.7689814,109.2172078
PGD Yên Khánh,PGD,"Thửa đất số 343+344, tờ bản đồ số 12, Phố 3, Thị trấn Yên Ninh, Huyện Yên Khánh, Tỉnh Ninh Bình, Việt Nam",0236 3614 607,null,null
PGD Phú Mỹ Hưng,PGD,"Tầng lửng và một phần tầng trệt, tòa nhà Phú Mã Dương, A4 (Lô C4-1), số 85 đường Hoàng Văn Thái, khu trung tâm thương mại Tài chánh Quốc tế Phú Mỹ Hưng, phường Tân Phú, Quận 7, thành phố HỒ CHÍ MINH",(028) 62650170/62650128,10.7291087,106.7202352
CN NHA TRANG,PGD,"Số 26 Yersin, phường Vạn Thắng, thành phố Nha Trang, tỉnh Khánh Hòa",null,12.2495601,109.1894298
PGD An Sương,PGD,"Số 24/44C Trường Chinh, P.Tân Thới Nhất, Quận 12, TP.HỒ CHÍ MINH",(0273) 386 8848,10.8311062,106.6223708
PGD Phú Xuân,PGD,"Số 101-101A Huỳnh Tấn Phát, khu phố 4,thị trấn Nhà Bè, huyện Nhà Bè, thành phố HỒ CHÍ MINH",(028) 3758 0686,10.7002657,106.7385798
"PGD Phước Hải (PGD Phước Tiến cũ)",PGD,"Số 91 và 93 Thích Quảng Đức, Khu đô thị VCN Phước Hải, Phường Phước Hải, Thành phố Nha Trang, Tỉnh Khánh Hòa",null,12.239752,109.178183
PGD Phạm Văn Hai,PGD,"Tầng trệt và lầu 1, Số 77 - 79 - 85/1B Phạm Văn Hai, Phường 3, Quận Tân Bình, Thành phố Hồ Chí Minh, Việt Nam",null,10.794346,106.662349
PGD Hàng Xanh,PGD,"Một phần tầng trệt và một phần tầng 1 Tòa nhà số 10A đường Nguyễn Thị Minh Khai, Phường Đa Kao, Quận 1, Thành phố Hồ Chí Minh, Việt Nam",(028) 3877 8056,10.7882161,106.7029187
CN BÌNH THUẬN,PGD,"132 Trần Hưng Đạo, phường Phú Thủy, thành phố Phan Thiết, tỉnh Bình Thuận",null,10.9343273,108.1038835
PGD Hòa Hưng,PGD,"611 Cách Mạng tháng Tám, P.15, Q.10, TPHỒ CHÍ MINH",(0292) 3898071,10.7849134,106.6680865
"PGD Long Hải (PGD Xuyên Mộc cũ)",PGD,"Số 265 Võ Thị Sáu, Thị trấn Long Hải, Huyện Long Điền, Tỉnh Bà Rịa - Vũng Tàu",null,10.414599,107.219296
PGD Quận 10,PGD,"Số 87 đường Ba Tháng Hai, Phường 11, Quận 10, Thành phố Hồ Chí Minh",(0292) 381 5766,10.773544,106.677529
"PGD Đông Sài Gòn (PGD Tân Định cũ)",PGD,"Nhà dịch vụ số P6-SH.10, tầng Trệt (Shophouse), thuộc nhà Chung cư Park 6, Khu phức hợp Tân Cảng Sài Gòn, số 720A đường  Điện Biên Phủ, Phường 22, Quận Bình Thạnh, Thành phố Hồ Chí Minh.",(028) 3755 5966,10.7921907,106.7190411
PGD Lê Lợi,PGD,"Số 208, đường Lê Lợi, phường Lê Lợi, Thành phố Bắc Giang, Tỉnh Bắc Giang, Việt Nam",0214.387.6666,21.2731924,106.1965179
"PGD Tô Hiến Thành (PGD Quận 8 cũ)",PGD,"Một phần tầng trệt, Tòa nhà số 407 Tô Hiến Thành, Phường 14, Quận 10, Thành phố Hồ Chí Minh",(0296) 356 9991,10.775504,106.662979
PGD Nơ Trang Long,PGD,"Số 151 Nơ Trang Long, Phường 12, Quận Bình Thạnh, thành phố HỒ CHÍ MINH",(028) 3869 1990,10.8132337,106.6966565
PGD Bến Lức,PGD,"Số 83 Nguyễn Hữu Thọ, Khu phố 3, Thị trấn Bến Lức, Huyện Bến Lức, Tỉnh Long An",null,10.6387396,106.4874154
PGD Bình Phú,PGD,"Số 56 Bình Phú, phường 11, quận 6, thành phố HỒ CHÍ MINH",(0296) 3855724,10.7465149,106.6313125
"CN TRẦN NÃO (CN QUẬN 2)",PGD,"278 Trần Não, Phường Bình An, Quận 2, Thành phố Hồ Chí Minh, Việt Nam",(028) 3997 0088,10.7876008,106.7296511
PGD BÀ RỊA,PGD,"Số 44 Bạch Đằng, Khu phố 2, Phường Phước Trung, Thành phố Bà Rịa, Tỉnh Bà Rịa - Vũng Tàu",null,10.493462,107.170214
PGD Phú Lâm,PGD,"Số 120-122, Đường Kinh Dương Vương, Phường 13, Q.6, TP Hồ Chí Minh","02773 876134, 02773  876771",10.7500747,106.6290527
PGD Trung Chánh,PGD,"Số 146 Nguyễn Ảnh Thủ, Ấp Đông, Xã Thới Tam Thôn, Huyện Hóc Môn, Thành phố Hồ Chí Minh",(028) 39735210,10.87494,106.6225
CN VŨNG TÀU,PGD,"Số 13, khu nhà dịch vụ 15 tầng Trung tâm thương mại, đường Nguyễn Thái Học, phường 7, thành phố Vũng Tàu",null,10.3635695,107.0822221
PGD Bàu Cát,PGD,"Một phần tầng trệt Block C dự án Harmona, số 33 đường Trương Công Định, phường 14, quận Tân Bình, TP Hồ Chí Minh",(0263) 361 5577,10.7963019,106.6412972
PGD Bình Chánh,PGD,"Số D6/5 Quốc Lộ 1A, Ấp 4, Xã Bình Chánh, Huyện Bình Chánh, Thành phố Hồ Chí Minh",(028) 62966502,10.66653,106.5721
CN GIA LAI,PGD,"Số 30 Trần Phú, phường Tây Sơn, thành phố Pleiku, tỉnh Gia Lai",null,13.9783857,108.0001154
PGD Sầm Sơn,PGD,"Số nhà 47, Đường Nguyễn Du, Phường Trường Sơn, Thành Phố Sầm Sơn, Tỉnh Thanh Hóa, Việt Nam",(84-234) 395 9666,19.7343386,105.8980136
CN HÒA BÌNH,PGD,"Một phần diện tích Tòa nhà số 681 đường Cù Chính Lan, Phường Phương Lâm, thành phố Hòa Bình, tỉnh Hòa Bình Việt Nam",0237 3827 025,20.8177241,105.3367967
PGD Lê Đức Thọ,PGD,"Tầng 1, tầng 2 nhà số 20 Lô A1 Đường Lê Đức Thọ, Phường Mỹ Đình 2, Quận Nam Từ Liêm, Thành phố Hà Nội, Việt Nam",(84-24) 33661330/1,21.0317952,105.7696375
PGD Hồng Hà,PGD,"SO 84+86 NGUYEN VAN CU, PHUONG HONG HAI, TP HA LONG, QUANG NINH",(84-218) 389 7068,20.955324,107.101163
CN SƠN TÂY,PGD,"Số 354 Phố Chùa Thông, Phường Sơn Lộc, Thị xã Sơn Tây, Thành Phố Hà Nội, Việt Nam",(84-225) 3642 624 /(84-225) 3642 625,21.126721,105.502857
CN TRẦN HƯNG ĐẠO,PGD,"Một phần diện tích tầng 1 và tầng 2 tại Tòa nhà Asahi - Hinode City, Số 201 Đường Minh Khai, Phường Minh Khai, Quận Hai Bà Trưng, thành phố Hà Nội",(84-24) 7301 5555,20.997586,105.861686
PGD Lê Thanh Nghị,PGD,"Số nhà 215 đường Lê Thanh Nghị, phường Lê Thanh Nghị, Thành phố Hải Dương, Tỉnh Hải Dương, Việt Nam",(84-221)385 6666,20.9320894,106.3287112
CN ĐÔNG ĐÔ,PGD,"Số 362 Phố Huế, Phường Phố Huế, Quận Hai Bà Trưng, Thành phố Hà Nội, Việt Nam",(84-24) 3974 4107/08,21.0094004,105.8513208
PGD Lương Sơn,PGD,"Số 629 đường Trần Phú, Tiểu khu 13, Thị trấn Lương Sơn, Huyện Lương Sơn, tỉnh Hòa Bình, Việt Nam",(84-237) 3721868,20.871952,105.531973
PGD SA ĐÉC,PGD,"Số 309 Đường Hùng Vương, Phường 1, Thành Phố Sa Đéc, Tỉnh Đồng Tháp.",null,10.2925522,105.7666698
PGD Hai Bà Trưng,PGD,"Số 182A đường Lò Đúc, Phường Đống Mác, Quận Hai Bà Trưng, Thành Phố Hà Nội",(84-24) 3972 1928/41/ 3972 6105,21.0094821,105.8609802
PGD Bố Trạch,PGD,"Số 366 Hùng Vương, Thị trấn Hoàn Lão, Huyện Bố Trạch, Tỉnh Quảng Bình, Việt Nam",(028) 3636.4316,17.5808359,106.5359465
PGD Hào Nam,PGD,"Số 102, phố Hào Nam, Phường Ô Chợ Dừa, Quận Đống Đa, Thành phố Hà Nội, Việt Nam",(84-24) 35134353,21.0244727,105.8272336
PGD Đồng Tâm,PGD,"Số 92 đường Trần Đại Nghĩa, Phường Đồng Tâm, Quận Hai Bà Trưng, Thành phố Hà Nội, Việt Nam",(84-24) 3628 8392/93/94/36284372,20.9982042,105.8458214
PGD Hùng Vương    ( Tiên Cát cũ),PGD,"Số 1274 đại lộ Hùng Vương, Phường Tiên Cát, Thành Phố Việt Trì, Tỉnh Phú Thọ",(84-238) 3588 235,21.30866,105.403227
PGD Hà Đông,PGD,"Tầng 1, Tòa nhà chung cư CT01 – Làng Việt Kiều Châu Âu, Khu đô thị Mỗ Lao, Phường Mộ Lao, Quận Hà Đông, Thành phố Hà Nội",(84-24) 3974 3861/62,20.9801569,105.7832027
PGD Phương Mai,PGD,"Tầng 1, số 75 Phương Mai, Phường Phương Mai, Quận Đống Đa, Thành phố Hà Nội, Việt Nam",(84-24) 35766371/ 35766114/35766092/93,21.003523,105.836647
PGD Phổ Yên,PGD,"Số 45 Trường Chinh, Phường Ba Hàng, Thành phố Phổ Yên, Tỉnh Thái Nguyên, Việt Nam",(84-238)3529555,20.948669,105.934481
"PGD Tây Hồ (PGD Xuân la cũ)",PGD,"LKC39, Dự án khu nhà ở thấp tầng A1TT1 Phường Xuân Tảo, Bắc Từ Liêm, Hà Nội, Việt Nam",(84-24) 37586495,21.06284,105.800354
CN ĐỒNG NAI,PGD,"Số K19, Võ Thị Sáu, KP 7, phường Thống Nhất, Tp. Biên Hòa, tỉnh Đồng Nai",028 39620848,10.9471159,106.830396
"PGD Lương Thế Vinh (PGD Bách Khoa cũ)",PGD,"Shophouse ML6-25 và ML6-26, khu chức năng chính là cây xanh, hồ điều hòa, một phần công trình công cộng kết hợp  nhà ở - Vinhomes Green Bay, Phường Mễ Trì, Quận Nam Từ Liêm, Hà Nội",(84-24) 3868 4843/ 36230624/ 38692828,20.9999154,105.785359
PGD Cửa Bắc,PGD,"Tầng 1 đến tầng 3, số 70 Cửa Bắc, phường Trúc Bạch, Quận Ba Đình, Thành phố Hà Nội, Việt Nam.",(84-24) 3734 7093/94,21.042878,105.842769
PGD Hố Nai,PGD,"Số 212 Xa lộ Hà Nội, khu phố 1, Phường Tân Biên, Thành phố Biên Hòa, Tỉnh Đồng Nai",(028) 39620848,10.9665311,106.8862217
CN KINH ĐÔ,PGD,"Số 292 đường Tây Sơn, Phường Trung Liệt, Quận Đống Đa, Thành phố Hà Nội, Việt Nam",(84-24) 3537 8701/02/03/04,21.0070477,105.8228378
"PGD Định Công (PGD Đại Kim cũ)",PGD,"B5, Nơ 11, khu đô thị mới Định Công, Phường Định Công, Quận Hoàng Mai, Thành phố Hà Nội, Việt Nam",(84-24) 3540 0525/26/27,20.9862594,105.8332166
"PGD Long Thành (Tam Hòa cũ)",PGD,"Số A1-3 và A1-4, khu dân cư Cầu Xéo, chợ Long Thành, Thị Trấn Long Thành, Huyện Long Thành, Tỉnh Đồng Nai, Việt Nam",(028) 3636 3400,10.7692743,106.953888
PGD Lê Trọng Tấn,PGD,"Số 56 Lê Trọng Tấn, Phường Khương Mai, Quận Thanh Xuân, Thành phố Hà Nội, Việt Nam",(84-24) 3 566 5338,20.9995614,105.8278542
