Name,Address,Type,WorkingHour,Latitude,Longitude
ATM Sư đoàn 371,"Xã Tiên Dược, huyện Sóc Sơn, thành phố Hà Nội",,<p>Hoạt động 247</p>,21.2802127,105.844455
ATM Công ty Z17,"Xã Đông Xuân, huyện Sóc Sơn, Hà nội",,<p>Hoạt động 247</p>,21.212211,105.8694633
ATM Công ty Z153,"Xã Uy Nỗ, Thị trấn Đông Anh, huyện Đông Anh, Hà nội",,<p>Hoạt động 247</p>,21.1539387,105.8537939
CRM CN Đông Anh,"Tầng 1 Tòa nhà TTTM Cổ Loa, Tổ 3, TT Đông Anh, H. Đông Anh, HN",,<p>Hoạt động 247</p>,21.1175267,105.8435047
ATM Nhà máy Z25,"Xã Phú minh, huyện Sóc Sơn, Hà nội",,<p>Hoạt động 247</p>,21.2005195,105.8215436
CRM PGD Sóc Sơn,"Khu 1, khu 2 thị trấn Sóc Sơn, huyện Sóc Sơn, TP Hà Nội",,<p>Hoạt động 247</p>,21.2811761,105.7609044
ATM/CRM PGD Văn Phú,"Tòa nhà CT9, KĐT Văn Phú, phường Phú La, quận Hà Đông, Hà Nội",,<p>Hoạt động 247</p>,20.9605077,105.7608839
CRM PGD Xuân Mai,"Số 51,tổ 6, khu Xuân Hà, thị trấn Xuân Mai, huyện Chương Mỹ, Hà Nội",,<p>Hoạt động 247</p>,20.8990759,105.5751201
ATM Phòng Khám Bệnh viện 103,Viện Quân Y 103 - Phùng Hưng - Hà Đông - Hà Nội,,<p>Hoạt động 247</p>,20.955835,105.7563658
ATM Viện Quân y 110,"Viện Quân Y 110, đường Trần Lựu, phường Thị Cầu, TP Bắc Ninh, tỉnh Bắc Ninh",,<p>Hoạt động 247</p>,21.1970561,106.0901201
ATM/CRM CN Bắc Ninh,"Số 24 Lý Thái Tổ, phường Đại Phúc, thành phố Bắc Ninh, tỉnh Bắc Ninh",,<p>Hoạt động 247</p>,21.1773759510103,106.068789156257
CRM PGD Mạo Khê ,"số 195 Hoàng Hoa Thám, thị trấn Mạo Khê, huyện Đông Triều, Quảng Ninh",,<p>Hoạt động 247</p>,21.05539,106.60213
ATM Xí nghiệp Thắng lợi,"Xí nghiệp Thắng Lợi, Phước Thành, Tuy Phước, Bình Định",,<p>Hoạt động 247</p>,13.781567,109.112104
ATM Bộ Chỉ huy Quân sự Tỉnh Bình Định,"37 Ngô Mây, thành phố Quy Nhơn, tỉnh Bình Định",,<p>Hoạt động 247</p>,13.762101,109.218813
ATM bệnh viện Quân y 13,"Đường An Dương Vương, thành phố Quy Nhơn, tỉnh Bình Định",,<p>Hoạt động 247</p>,13.750144,109.214883
ATM Nhà máy may Phù Mỹ,"Đường Quang Trung, TT Phù Mỹ, huyện Phù Mỹ, tỉnh Bình ĐỊnh",,<p>Hoạt động 247</p>,14.161578,109.047082
ATM Bộ chỉ huy bộ đội biên phòng tỉnh Bình Định,"Bộ chỉ huy bộ đội biên phòng tỉnh Bình Định, số 99 Lý thường Kiệt, thành phố Quy Nhơn, tỉnh Bình Định",,<p>Hoạt động 247</p>,13.775968,109.223721
ATM Trung Đoàn Phòng Không Không Quân 925,"Trung Đoàn Phòng Không Không Quân 925, huyện Phù Cát, tỉnh Bình Định",,<p>Hoạt động 247</p>,13.947007,109.060297
CRM PGD Diêu Trì,"Số 50-52 Lạc Long Quân, phường Trần Quang Diệu, thành phố Quy Nhơn, tỉnh Bình Định",,<p>Hoạt động 247</p>,13.796238,109.147490
ATM Phú Tài Building,"278 Nguyễn Thị Định, TP Quy Nhơn, tỉnh Bình Định",,,13.7574735,109.2140314
CRM CN Bình Định,"322 Nguyễn Thái Học, Thành phố Quy Nhơn, Tỉnh Bình Định (trụ sở CN Bình Định)",,<p>Hoạt động 247</p>,13.7666453,109.2158584
CRM PGD Eakar,"Số 148 Nguyễn Tất Thành, TDP 3B, thị trấn Eakar, tỉnh ĐăkLăk.",,<p>Hoạt động 247</p>,12.6859722,108.0514811
ATM BCH Bộ đội Biên phòng tỉnh Đắk Lắk,"Số 259 Phan Bội Châu, phường Thống Nhất, thành phố Buôn Ma Thuột, tỉnh Đắk Lắk",,<p>Hoạt động 247</p>,12.6824264,108.0302018
CRM CN Đắk Lắk,"Số 37 Hai Bà Trưng, phường Thắng Lợi, thành phố Buôn Ma Thuột, tỉnh Đắk Lắk",,<p>Hoạt động 247</p>,12.6814744,108.041842
ATM Ngân hàng Nhà nước tỉnh Đắk Lắk,"Số 148 Nguyễn Tất Thành, phường Tân Lập, thành phố Buôn Ma Thuột, tỉnh Đắk Lắk",,<p>Hoạt động 247</p>,12.6893446,108.0575846
ATM BCH Quân sự tỉnh Đắk Lắk,"Số 04 Mai Hắc Đế, phường Tân Thành, thành phố Buôn Ma Thuột, tỉnh Đắk Lắk",,<p>Hoạt động 247</p>,12.6697765,108.035003
ATM/CRM CN Đà Nẵng,"174 Lê Đình Lý,  Hòa Thuận Tây, Quận Hải Châu, Đà Nẵng",,<p>Hoạt động 247</p>,16.052205,108.2075651
ATM Nhà máy A32,"Số 02 Lê Trọng Tấn, An Khê, Quận Thanh Khê, Đà Nẵng",,<p>Hoạt động 247</p>,16.05589,108.191065
ATM BTL Quân khu 5,"458 Nguyễn Tri Phương, Hòa Thuận Tây, Quận Hải Châu, Đà Nẵng",,<p>Hoạt động 247</p>,16.03026568,108.12443304
ATM Trung đoàn 83,"Số 01 Yết Kiêu, Thọ Quang, Quận Sơn Trà, Đà Nẵng",,<p>Hoạt động 247</p>,16.1029582,108.2453047
ATM Trường Quân Sự Quân Khu 5,"Trường Sơn, Hòa Thọ Tây, Quận Cẩm Lệ, Đà Nẵng",,<p>Hoạt động 247</p>,16.0694244,108.2113061
CRM PGD Sơn Trà," 222-224 Ngũ Hành Sơn, Bắc Mỹ Phú, Quận Ngũ Hành Sơn, Đà Nẵng",,<p>Hoạt động 247</p>,16.0580292,108.2334822
CRM PGD Hòa Khánh,"563 Tôn Đức Thắng, Hòa Khánh Nam, Quận Liên Chiểu, Đà Nẵng",,<p>Hoạt động 247</p>,16.0681943,108.1505211
CRM PGD Hải Châu,"199 Đống Đa, Thạch Thang, Quận Hải Châu, Đà Nẵng",,<p>Hoạt động 247</p>,16.0762639,108.2137371
CRM PGD Lê Duẩn,"Số 04 Lê Duẩn,  Hải Châu 1, Quận Hải Châu, Đà Nẵng",,<p>Hoạt động 247</p>,16.0694244,108.2113061
ATM PGD Pleiku,"07 Nguyễn Tất thành, P Hoa Lư, Pleiku, Gia Lai",,<p>Hoạt động 247</p>,13.980906,108.0104872
CRM PGD Hương Thủy,"Số 1068 Nguyễn Tất Thành, thị trấn Phú Bài, Hương Thủy, Thừa Thiên Huế",,<p>Hoạt động 247</p>,16.410640,107.675338
ATM /CRM Chi nhánh Huế,"Số 07 Nguyễn Tri Phương, Phú Hội, Huế",,<p>Hoạt động 247</p>,16.466344,107.594007
CRM PGD Nam Vĩ Dạ,"Số 109 Phạm Văn Đồng, Vĩ Dạ, Huế,Thừa Thiên Huế.",,<p>Hoạt động 247</p>,16.477670,107.601558
ATM BCH Quân sự Huế ,"Đồn Mang Cá, Phường Thuận Lộc, Thành phố Huế, Tỉnh Thừa Thiên Huế.",,<p>Hoạt động 247</p>,16.4662955,107.5835599
ATM BCH Bộ đội Biên phòng tỉnh Thừa Thiên Huế,"Số 91 Bùi Thị Xuân, thành phố Huế, tỉnh Thừa Thiên Huế",,<p>Hoạt động 247</p>,16.4578292,107.574424
ATM CN Nam Đà nẵng,"Số 152 Đường 2/9, Hòa Thuận Đông, Quận Hải Châu, Đà Nẵng",,<p>Hoạt động 247</p>,16.0513076,108.2197973
CRM  PGD Cẩm Lệ,"Số 324 Nguyễn Hưu Thọ, Phường Khê Trung, Quận Cẩm Lệ, Thành phố Đà Nẵng",,<p>Hoạt động 247</p>,16.0296272,108.2088165
ATM/CRM PGD Hội An,"594 Hai Bà Trưng, Hội An, Quảng Nam",,<p>Hoạt động 247</p>,15.883042,108.3224599
ATM Bệnh viện đa khoa huyện Mộ Đức,"Bệnh Viện Đa Khoa huyện Mộ Đức, thị trấn Thi Phố,  huyện Mộ Đức, tỉnh Quảng Ngãi",,<p>Hoạt động 247</p>,14.9533729,108.8698125
CRM PGD Trà Khúc,"24 đường Quang Trung,thành phố Quảng Ngãi, tỉnh Quảng Ngãi",,<p>Hoạt động 247</p>,15.13211,108.80155
ATM Nhà máy Dung Quất Quảng Ngãi,"Lô 1, Phân khu công nghiệp Sài Gòn,Dung Quất thuộc xã Bình Thạnh, huyện Bình Sơn, Quảng Ngãi",,<p>Hoạt động 247</p>,15.3785211,108.7331134
ATM Sư đoàn 307,"Quốc lộ 24, xã Phổ Phong ,huyện Đức Phổ ,tỉnh Quảng Ngãi",,<p>Hoạt động 247</p>,14.8848182,108.354512
CRM PGD Bình Sơn,"Số 448 Phạm Văn Đồng, tổ dân phố 4, thị trấn Châu Ổ, huyện Bình Sơn, Quảng Ngãi",,<p>Hoạt động 247</p>,15.29585,108.76140
ATM BCH Biên Phòng Quảng Ngãi,"Số 65 Đinh Tiên Hoàng, TP Quảng Ngãi, Tỉnh Quảng Ngãi",,<p>Hoạt động 247</p>,20.9626642,105.856397
CRM CN Quảng Ngãi,"168 Hùng Vương, thành phố Quảng Ngãi, tỉnh Quảng Ngãi (Trụ sở chi nhánh)",,<p>Hoạt động 247</p>,15.1215805,108.790521
ATM Nhà máy may Vinatex,"Thị trấn Đức Phổ, huyện Đức Phổ, tỉnh Quảng Ngãi (ATM đặt tại Nhà máy may Vinatex Đức Phổ)",,<p>Hoạt động 247</p>,20.9626642,105.856397
ATM/CRM CN Quảng Trị,"134 Quốc lộ 9, TP Đông hà, Tỉnh Quảng Trị",,<p>Hoạt động 247</p>,16.8165464,107.0850894
ATM Sư đoàn 7 - Quân đoàn 4,"Đường DT 743, phường Phú Hoà, Tp Thủ Dầu Một, Bình Dương",,<p>Hoạt động 247</p>,10.9929842,106.6557073
CRM PGD Thuận An,"Số 09 Nguyễn Văn Tiết, Lái Thiêu, Thuận An Bình Dương",,<p>Hoạt động 247</p>,10.9152924,106.7076337
CRM CN Bình Dương,"306 Đại Lộ Bình Dương, phường Phú Hòa, TP Thủ Dầu Một, Bình Dương",,<p>Hoạt động 247</p>,10.58468624,106.40049584
CRM PGD Tân Uyên,"63/2 ấp Bình Hòa 1, phường Tân Phước Khánh, thị xã Tân Uyên, Bình Dương",,<p>Hoạt động 247</p>,10.9929842,106.6557073
CRM CN Tây Ninh,"Số 360 - 362 đường 30/04, khu phố 1, phường 3,Tây Ninh",,<p>Hoạt động 247</p>,11.31619,106.09786
ATM Sunworld Bà Đen,"Sunworld Bà Đen, Núi Bà Đen, khu phố Ninh Phú, phường Ninh Sơn, thành phố Tây Ninh, tỉnh Tây Ninh",,<p>Hoạt động 247</p>,11.3866418,106.1542366
CRM PGD Xa Mát,"68-70 Đường Phạm Hùng (QL22B), Khu phố 2, Thị Trấn Tân Biên, huyện Tân Biên, Tỉnh Tây Ninh",,<p>Hoạt động 247</p>,11.5440447,106.0023213
ATM PGD Nam Kỳ Khởi Nghĩa,"153-155 đường Nam Kỳ Khởi Nghĩa, phường Thắng Tam, thành phố Vũng Tàu, tỉnh Bà Rịa Vũng Tàu",,<p>Hoạt động 247</p>,10.3491531,107.0855879
CRM PGD Rạch Dừa,"Số 478 đường 30/04, phường Rạch Dùa, thành phố Vũng Tàu, tỉnh Bà Rịa Vũng Tàu",,<p>Hoạt động 247</p>,10.3988224,107.114421
ATM Lữ đoàn 171,"Số 1124 đường 30/04, phường 11, thành phố Vũng Tàu, tỉnh Bà Rịa Vũng Tàu",,<p>Hoạt động 247</p>,10.4073007,107.1301806
ATM BCH Quân sự Quảng Ngãi,"Số 142 Lê Trung Đình, thành phố Quảng Ngãi, tỉnh Quảng Ngãi",,<p>Hoạt động 247</p>,15.1249165,108.8075686
CRM PGD Nam Trường Tiền,"Số 11 Lý Thường Kiệt, thành phố Huế, tỉnh Thừa Thiên Huế",,<p>Hoạt động 247</p>,16.4617108,107.5892031
ATM Lữ đoàn 434,"Số 1 đường DT 743, khu phố Bình Đáng, phường Bình Hòa, thị xã Thuân An, tỉnh Bình Dương",,<p>Hoạt động 247</p>,10.55071256,106.43495696
CRM PGD Gò Dầu,"Số 195 đường Xuyên Á, khu phố Nội Ô B, thị trấn Gò Dầu, huyện Gò Dầu, tỉnh Tây Ninh",,<p>Hoạt động 247</p>,11.0818015,106.265064
ATM Công Ty Gỗ Đại Thành,"Quốc lộ 1A, tổ 1, khu vực 8, phường Bùi Thị Xuân, thành phố Quy Nhơn, tỉnh Bình Định",,<p>Hoạt động 247</p>,13.736037,109.153504
CRM UBND phường Trần Hưng Đạo,"283 Trần Hưng Đạo,  thành phố Quy Nhơn, tỉnh Bình Định",,<p>Hoạt động 247</p>,13.775769,109.230896
ATM Trường Quân Sự Quân Đoàn 3,"Trường quân sự quân đoàn 3, Thôn Hòa Hội,  xã cát Hanh, Huyện Phù Cát, tỉnh Bình Định",,,14.0470755,109.0317036
ATM Nhà Máy Chế Biến Gỗ Phù Cát,"CCN Cát Nhơn, huyện Phù Cát, tỉnh Bình Định",,<p>Hoạt động 247</p>,13.963985,109.159285
ATM Lữ Đoàn PK 573,"QL19, Nhơn Hòa, Anh Nhơn, Bình Định",,<p>Hoạt động 247</p>,13.852410,109.091431
Smartbank CN Mỹ Đình,"Tòa nhà HH4 Sông Đà Twin Tower, đường Phạm Hùng, phường Mỹ Đình 1, quận Nam Từ Liêm, thành phố Hà Nội.",,<p>Hoạt động 247</p>,21.0176406,105.778807
ATM/CRM KĐT Làng Quốc Tế Thăng Long,"Tòa nhà A5 - Làng Quốc Tế Thăng Long, Cầu Giấy,Hà Nội",,<p>Hoạt động 247</p>,21.0390476,105.7907469
ATM/CRM CN Sở Giao Dịch 1,"Số 18 Lê Văn Lương,Cầu Giấy, Hà Nội",,<p>Hoạt động 247</p>,21.0074993,105.8074412
ATM Lữ đoàn 7 - Quân đoàn 3,"Lữ 7, Thôn 1 , Xã Hà Tam, Huyện Đăk Pơ, Tỉnh Gia Lai",,<p>Hoạt động 247</p>,13.9907961,108.4544134
ATM LỮ ĐOÀN 273,"Thôn Hà Lòng, xã Kdang, Huyện Đăk Đoa, Tỉnh Gia Lai",,<p>Hoạt động 247</p>,14.0184518,108.159963
CRM PGD Chư Sê,"Số 868 đường Hùng Vương, huyện Chư Sê, tỉnh Gia Lai",,<p>Hoạt động 247</p>,13.75382,108.07923
ATM Công ty Crucialtec Vina,"KCN Yên Phong, xã Long Châu, Huyện Yên Phong,  Tỉnh Bắc Ninh",,<p>Hoạt động 247</p>,21.2029044,106.0061139
ATM Trung tâm Huấn luyên,"Đường 2, xã Phù lỗ, huyện Sóc sơn, Hà Nội",,<p>Hoạt động 247</p>,21.1047685,105.6699129
ATM TCT Thiết bị điện Đông Anh,"Số 189 Lâm Tiên, Thị trấn Đông Anh, Huyện Đông Anh, TP HN",,<p>Hoạt động 247</p>,21.1615475,105.8531887
ATM Công ty Dệt may Huế,"Số 122 Dương Thiệu Tước, phường Thủy Dương, thị xã Hương Thuỷ, tỉnh Thừa Thiên Huế",,<p>Hoạt động 247</p>,16.4400404,107.6184299
ATM Công ty Scavi Huế,"Khu Công nghiệp Phong Điền, Thị trấn Phong Điền, Huyện Phong Điền, Thừa Thiên Huế",,<p>Hoạt động 247</p>,16.577661,107.3772691
ATM Đại học Kinh tế Huế,"99 Hồ Đắc Di, An Cựu, thành phố Huế, tỉnh Thừa Thiên Huế",,<p>Hoạt động 247</p>,16.26368556,107.36144036
ATM Bộ đội Biên phòng tỉnh Bà Rịa Vũng Tàu,"Số 9 đường Lê Lợi, Phường 4, Vũng Tàu",,<p>Hoạt động 247</p>,10.67036,107.00236
ATM/CRM Chi nhánh Vũng Tàu,"Số 81 Nguyễn Thái Học, phường 7, thành phố Vũng Tàu",,<p>Hoạt động 247</p>,10.363613,107.081880
ATM Trung Đoàn 261,"104/1 Nguyễn Thiện Thuật, Phường Thắng Nhất, thành phố Vũng Tàu, tỉnh Bà Rịa Vũng Tàu",,<p>Hoạt động 247</p>,10.382010,107.098481
CRM PGD Long Điền,"Số 48, tổ 6, ấp Lò Vôi, xã Phước Hưng, Long Điền, Bà Rịa Vũng Tàu",,<p>Hoạt động 247</p>,10.74864,107.20012
ATM Bộ tư lệnh Cảnh sát biển 3,"Số 879, đường 30/4, phường 11, thành phố Vũng Tàu, tỉnh Bà Rịa Vũng Tàu",,<p>Hoạt động 247</p>,10.399044,107.122001
ATM PGD Phước Long,"Thửa đất số 16, tờ bản đồ số 3, KP5, phường Long Phước, thị xã Phước Long, tỉnh Bình Phước",,<p>Hoạt động 247</p>,11.6368732,106.8991577
ATM Nông Trường Cao Su Bổ Túc,"Ấp Đông Lợi,  xã Tân Đông, huyện Tân Châu, tỉnh Tây Ninh",,<p>Hoạt động 247</p>,11.6803409,106.2377384
CRM PGD Tân Châu 1,"Số 95 Trần Văn Trà, khu phố 2, thị trấn Tân Châu, huyện Tân Châu, tỉnh Tây Ninh",,<p>Hoạt động 247</p>,11.5550752,106.1598663
CRM PGD Buôn Hồ,"Số 563 Hùng Vương, TDP7, phường An Lạc, tỉnh Đắk Lắk",,<p>Hoạt động 247</p>,12.912388,108.2642223
CRM PGD Cư M'gar ,"Số 66 Hùng Vương, thị trấn Quảng Phú, tỉnh Đắk Lắk",,<p>Hoạt động 247</p>,12.8148943,108.073186
ATM Kho K856 Quảng Trị,"Kho K856 và Kho KC84, Cục Quân Khí , xã Hướng Hiệp, huyện ĐắKrông, Quảng Trị",,<p>Hoạt động 247</p>,16.7635515,106.728356
ATM Hải Đội 202,"Thị trấn Cửa Việt, huyện Gio Linh, tỉnh Quảng Trị",,<p>Hoạt động 247</p>,16.9146496,107.1702359
ATM Trường THPT Lê Thế Hiếu,"Thôn Đốc Kỉnh, xã Cam Chính, huyện Cam Lộ, tỉnh Quảng Trị",,<p>Hoạt động 247</p>,16.7438202,106.9622651
ATM Sen Bụt Khe Sanh,"Xã Hướng Phùng, huyện Hướng Hóa, tỉnh Quảng Trị",,<p>Hoạt động 247</p>,16.7259432,106.5343786
ATM/CRM Bệnh viện Quân y 103,"Bệnh viện quân y 103, Phùng Hưng, phường Phúc La, Hà Đông, Hà Nội.",,<p>Hoạt động 247</p>,20.9675243,105.7878055
ATM Công ty TNHH Sun House,"Cụm Công nghiệp Ngọc Liệp, xã Ngọc Liệp, huyện Quốc Oai, Hà Nội",,<p>Hoạt động 247</p>,20.9916783,105.588156
ATM Trường Cao đẳng Phòng không - Không quân ,"Xã Yên Bài, thị trấn Thanh Mai, huyện Thanh Oai, Hà Nội",,<p>Hoạt động 247</p>,20.8694956,105.7432231
ATM Aeon Mall Hà Đông,"Lô số A3, tại tầng 1 Khu thương mại AEON MALL Hà Đông, Dương Nội, Hà Đông, Hà Nội",,<p>Hoạt động 247</p>,20.9968026,105.7437635
CRM PGD Hà Đông,"Toà tháp Thiên Niên Kỷ Hà Đông, số 4 Quang Trung, phường Yết Kiêu, quận Hà Đông, Hà Nội.",,<p>Hoạt động 247</p>,20.97416,105.77920
CRM PGD Hòa Lạc,"Tầng 1, tòa nhà CT TNHH MTV Phát triển Khu CNC Hòa Lạc, khu CNC Hòa Lạc, xã Thạch Hòa, huyệnThạch Thất, Hà Nội",,<p>Hoạt động 247</p>,21.0068631,105.5317593
ATM Lữ đoàn 134,"Xã Hòa Sơn, Lương Sơn, Hòa Bình",,<p>Hoạt động 247</p>,20.9062032,105.5379444
ATM Công ty CP Hoàn Cầu Hòa Bình,"Xã Thành Lập, huyện Lương Sơn, tỉnh Hòa Bình",,<p>Hoạt động 247</p>,20.8527056,105.5205289
ATM Trung tâm huấn luyện Miếu Môn,"Xã Đông Tâm, huyện Mỹ Đức, Hà Nội",,<p>Hoạt động 247</p>,20.8071262,105.6563836
CRM CN Hòa Đức,"Lô A38-NV 16 ô số 11 và ô số 12, khu đô thị mới hai bên đường Lê Trọng Tấn,  xã An Khánh, huyện Hoài Đức, Hà Nội.",,<p>Hoạt động 274</p>,21.00527,105.73277
ATM/CRM PGD Di Linh,"Số 725 Hùng Vương, thị xã Di LInh, huyện Di Linh, Lâm Đồng",,<p>Hoạt động 247</p>,11.57817,108.07521
ATM Công ty TNHH Tiến Triển,"Thửa đất số 150,159,160, tờ bản đồ số 18, khu phố Ông Đông, phường Tân Hiệp, thị xã Tân Uyên, tỉnh Bình Dương",,<p>Hoạt động 247</p>,11.0834784,106.6288737
ATM Khách sạn Hillton,"Số 50 Bạch Đằng, Hải Châu 1, Quận Hải Châu, Đà Nẵng",,<p>Hoạt động 247</p>,16.0727587,108.2220484
ATM Shilla Monogram Resort,"01 Lạc Long Quân, Thị xã Điện Bàn, Tỉnh Quảng Nam ",,<p>Hoạt động 247</p>,15.9629617,108.2868112
CRM CN Phú Yên,"99A-101 Hùng Vương, phường 6, thành phố Tuy Hòa, tỉnh Phú Yên",,<p>Hoạt động 247</p>,13.0891752,109.3121113
ATM Khách sạn Hoa Sen,"330 Cửa Đại, phường Cẩm Châu, thành phố Hội An, tỉnh Quảng Nam",,<p>Hoạt động 247</p>,15.8825994,108.3437651
ATM Ủy ban mặt trận Tổ Quốc Hội An,"01 Hoàng Diệu, phường Sơn Phong, thành phố Hội An, tỉnh Quảng Nam",,<p>Hoạt động 247</p>,15.8789343,108.3303138
ATM BCH Quân sự thành phố Hội An,"278 Cửa Đại, phường Cẩm Châu, thành phố Hội An, tỉnh Quảng Nam",,<p>Hoạt động 247</p>,15.531644,108.210747
ATM An Bàng,"Khối An Tân, phường Cẩm An, thành phố Hội An, tỉnh Quảng Nam",,<p>Hoạt động 247</p>,15.897476,108.3210539
ATM Trung đoàn Bộ binh 888,"Đường Võ Thị Sáu, phường Phú Đông, thành phố Tuy Hòa, Phú Yên",,<p>Hoạt động 247</p>,13.0603955,109.3254621
ATM Quảng trường sông Hoài,"Bãi đỗ xe Quảng Trường, 02 Đào Duy Từ, Cẩm Phô, Hội An, Quảng Nam",,<p>Hoạt động 247</p>,15.8769857,108.32227044
ATM Kho KV4 Cục Quân Khí,"Kho Kv4, xã Tràng An, thị xã Đông Triều, tỉnh Quảng Ninh",,<p>Hoạt động 247</p>,21.10985,106.54478
ATM Lữ đoàn 147,"Khu 7, phường Quảng Yên, thị xã Quảng Yên, tỉnh Quảng Ninh",,<p>Hoạt động 247</p>,20.93857,106.80628
ATM Lữ đoàn 405,"Xã Bình Khê, thị xã Đông Triều, tỉnh Quảng Ninh",,<p>Hoạt động 247</p>,21.11085,106.56544
CRM CN Uông Bí,"Số 277 đường Quang Trung, phường Quang Trung, thành phố Uông Bí, tỉnh Quảng Ninh",,<p>Hoạt động 247</p>,21.03379,106.77677
ATM Sư đoàn 395,"Khu chùa Bằng, phường Quảng Yên, thị xã Quảng Yên, tỉnh Quảng Ninh",,<p>Hoạt động 247</p>,20.94081,106.81045
ATM Xưởng may mũi giày Quảng Yên,"Xưởng may mũi giày Quảng Yên, đường Trần Nhân Tông, thị xã Quảng Yên, tỉnh Quảng Ninh",,<p>Hoạt động 247</p>,20.93918,106.78824
ATM Công ty Sao vàng Uông Bí,"Khu Phú Thanh Tây, phường Yên Thanh, thành phố Uống Bí, tỉnh Quảng Ninh",,<p>Hoạt động 247</p>,21.03494,106.7452
ATM UBND xã Thượng Yên Công,UBND xã ,,<p>Hoạt động 247</p>,21.10448,106.73047
ATM Trường tiểu học Nghĩa Phú,"Thôn Cổ Lũy Bắc, xã Nghĩa Phú, thành phố Quảng Ngãi, tỉnh Quảng Ngãi",,<p>Hoạt động 247</p>,15.1281042,108.8842211
ATM UBND huyện Ba Tơ,"Thị trấn Ba tơ, huyện Ba Tơ, tỉnh Quảng Ngãi",,<p>Hoạt động 247</p>,14.714697,108.5895291
ATM Bệnh viện Phúc Hưng,"số 6 Cao Bá Quát, thành phố Quảng Ngãi, tỉnh Quảng Ngãi",,<p>Hoạt động 247</p>,15.1108624,108.8129758
CRM PGD Mộ Đức,"Thôn Thạch Trụ Tây, xã Đức Lân, huyện Mộ Đức, tỉnh Quảng Ngãi",,<p>Hoạt động 247</p>,14.8901492,108.9055395
ATM Kho bạc huyện Sơn Tịnh,"Xã Tịnh Hà, huyện Sơn Tịnh, tỉnh Quảng Ngãi",,<p>Hoạt động 247</p>,15.1215805,108.790521
ATM Nhà máy thép Hòa Phát Dung Quất,"Xã Bình Đông, huyện Bình Sơn, tỉnh Quảng Ngãi",,<p>Hoạt động 247</p>,15.3664865,108.7886022
CRM CN Móng Cái,"Số 02 đường Hùng Vương, phường Hòa Lạc, thành phố Móng Cái, tỉnh Quảng Ninh",,<p>Hoạt động 247</p>,2152953,107.96888
ATM Đồn Biên Phòng Móng Cái,"Đường Hữu Nghị, phường Trần Phú, thành phố Móng Cái, tỉnh Quảng Ninh",,<p>Hoạt động 247</p>,107.9677857,21.5348566
ATM Học viện Mật Mã,"Học viện Mật Mã, đường Chiến Thắng, Tân Triều, Thanh Xuân, Hà Nội",,<p>Hoạt động 247</p>,20.9808114,105.7940398
ATM Công ty SI FLEX,"Khu Công nghiệp Quang Châu, xã Quang Châu, huyện Việt Yên, tỉnh Bắc Giang",,<p>Hoạt động 247</p>,21.2123441,106.0880904
ATM Công ty Dệt 10/10,"Công ty Dệt 10/10, xã Cổ Bi, huyện Gia Lâm, Hà Nội",,<p>Hoạt động 247</p>,20.9969446,105.8609918
CRM CN Thanh Xuân,"Tầng 1 tòa nhà Gold Tower, số 275 Nguyễn Trãi, phường Thanh Xuân Trung, quận Thanh Xuân, Hà Nội",,<p>Hoạt động 247</p>,20.9886853,105.907181
ATM Viện Y học Phóng xạ U bướu Quân Đội,"Số 18 Định Công Thượng, Định Công, Hoàng Mai, Hà Nội",,<p>Hoạt động 247</p>,20.9804968,106.163881
ATM Viện Y học Cổ truyền Quân Đội,"422 Kim Giang, Đại Kim, Hoàng Mai, Hà Nội",,<p>Hoạt động 247</p>,20.9738029,109.2220455
ATM Ký túc xá Mễ Trì,"Số 182 Lương Thế Vinh, Thanh Xuân Bắc, quận Thanh Xuân, Hà Nội",,<p>Hoạt động 247</p>,20.9909124,105.5379444
CRM Đại học Quốc gia Hà Nội,"Tòa E5 Đại học Quốc gia Hà Nội, số 144 Xuân Thủy, Dịch Vong, Cầu GIấy, Hà Nội",,<p>Hoạt động 247</p>,21.0376763,105.7794414
CRM CN Tây Hồ,"Tầng 1 tòa nhà số 28 Xuân La, Tây Hồ, Hà Nội",,<p>Hoạt động 247</p>,21.0625596,105.8128864
CRM CN Trần Duy Hưng,"Tầng 1 tòa nhà 17T2, Hoàng Đạo Thúy, Trung Hòa, Cầu Giấy, Hà Nội",,<p>Hoạt động 247</p>,21.0092314,107.5835599
ATM Lữ đoàn 205,"Lữ đoàn 205, số 22 Trần Duy Hưng, Cầu Giấy, Hà Nội",,<p>Hoạt động 247</p>,20.9931595,105.8198813
ATM Tòa nhà Thái Bình,"Tòa nhà Thái Bình, ngõ 19 Duy Tân, Cầu Giấy, Hà Nội",,<p>Hoạt động 247</p>,21.0302824,105.6563836
CRM PGD Tràng An,"Vincom Center 54 Nguyễn Chí Thanh, quận Đống Đa, Hà Nội",,<p>Hoạt động 247</p>,21.02304972,105.8085504
CRM CN Xuân Thủy,"Tầng 1 tòa nhà Bảo Anh, số 83-85 Trần Thái Tông, Dịch Vọng, Cầu Giấy, Hà Nội",,<p>Hoạt động 247</p>,21.0289532,105.8424348
CRM CN Võ Chí Công,"Tầng 1 tòa nhà N01-T04, khu đô thi Ngoại Giao Đoàn, Xuân Tảo, Bắc Từ Liêm, Hà Nội",,<p>Hoạt động 247</p>,21.0638227,105.1599141
CRM CN Hồng Hà,"Học viện Quân y, số 160 đường Phùng Hưng, Phúc La, Hà Đông, Hà Nội",,<p>Hoạt động 247</p>,20.967790195588,105.7877905
CRM PGD Từ Liêm,"Số 01 Lê Đức Thọ, Mai Dịch, Cầu Giấy, Hà Nội",,<p>Hoạt động 247</p>,21.0377903,106.6764518
CRM PGD Lạc Long Quân,"Lô đất số 06 ôD9B, khu BT Vườn Đào, Lạc Long Quân, Tây Hồ, Hà Nội",,<p>Hoạt động 247</p>,21.0652304,106.1542366
CRM CN Linh Đàm,"BT4,Ô4, Bắc Linh Đàm, Đại Kim, Hoàng Mai, Hà Nội",,<p>Hoạt động 247</p>,20.9712376,108.4867876
CRM PGD Nam Trung Yên,"Số 158 Vũ Phạm Hàm, Yên Hòa, Cầu Giấy, Hà Nội",,<p>Hoạt động 247</p>,21.0148956,105.4010976
CRM PGD Yên Phong,"Tầng 1 tòa nhà đường 286, thôn Ngân Cầu, thị trấn Chờ, Yên Phong, Bắc Ninh",,<p>Hoạt động 247</p>,21.11579264,105.57217224
ATM PGD Xuân Diệu,"Tầng 1 tòa nhà số 114 Xuân Diệu, Tứ Liên, Tây Hồ, Hà Nội",,<p>Hoạt động 247</p>,21.062946,106.6994943
ATM PGD Vĩnh Phúc,"Tòa nhà K2, khu 7.2 HA Vĩnh Phúc, Ba Đình, Hà Nội",,<p>Hoạt động 247</p>,21.0405256,10276.54316
CRM CN Gia Lâm,"Số 132 - 134 Ngô Xuân Quảng, thị trấn Trâu Quỳ, huyện Gia Lâm, Hà Nội",,<p>Hoạt động 247</p>,21.0149371,109.0879495
ATM Bưu cục cấp 3 Đa Tốn,"Bưu cục cấp 3 Đa Tốn, xã Đa Tốn, Gia Lâm, Hà Nội",,<p>Hoạt động 247</p>,20.9437342,105.2134973
ATM Đại học Công nghiệp Dệt may Hà Nội,"Xã Lệ Chi, Gia Lâm, Hà Nội",,<p>Hoạt động 247</p>,21.0375278,105.564285
ATM Công ty Gaet,"Số 21 Linh Lang, Kim Mã Thượng; Cống Vị, Ba Đình, Hà Nội",,<p>Hoạt động 247</p>,21.037004,106.6675235
CRM CN Điện Biên Phủ,"Số 28 A Điện Biên Phủ, Điện Biên, Ba Đình, Hà Nội",,<p>Hoạt động 247</p>,21.0323227,106.414178
ATM Lữ đoàn 26,"Lữ đoàn 26, Trường Chinh, Thanh Xuân, Hà Nội",,<p>Hoạt động 247</p>,21.000917,108.3537125
CRM CN Lý Nam Đế,"Số 14C Lý Nam Đế, Hoàn Kiếm, Hà Nội",,<p>Hoạt động 247</p>,21.0375324,105.7763479
ATM Bệnh viện Tâm Anh,"Số 108 Hoàng Như Tiếp, Bồ Đề, Long Biên, Hà Nội",,<p>Hoạt động 247</p>,21.0407355,106.3169251
ATM Văn phòng Chủ tịch Nước,"Số 1A, ngõ 1B Hoàng Hoa Thám, Ngọc Hà, Ba Đình, Hà Nội",,<p>Hoạt động 247</p>,21.0416525,106.1436834
ATM Quân khu Thủ Đô,"Số 04 Phạm Hùng, Cầu Giấy, Hà Nội",,<p>Hoạt động 247</p>,20.9971857,108.2075651
ATM Phòng không Không quân,"Số 171 Trường Chinh, Thanh Xuân Hà Nội",,<p>Hoạt động 247</p>,21.0431952,107.1086482
CRM CN Long Biên,"Số 137C Nguyễn Văn Cừ,Ngọc Lâm, Long Biên, Hà Nội",,<p>Hoạt động 247</p>,21.0431952,107.1086482
ATM Công ty X26,"Ngọc Thụy, Long Biên, Hà Nội",,<p>Hoạt động 247</p>,21.0617422,106.0023213
ATM Công ty Tissue Sông Đuống,"Số 672 Ngô Gia Tự, Long Biên, Hà Nội",,<p>Hoạt động 247</p>,"21.0755204,",105.9062108
ATM Công ty X20,"Phúc Đồng, Long Biên, Hà Nội",,<p>Hoạt động 247</p>,21.0355359,105.836471
CRM CN Thăng Long,"Số 34 Láng Hạ, Đống Đa, Hà Nội",,<p>Hoạt động 247</p>,21.0147446,108.6390534
CRM PGD Minh Khai,"Số 409 Kim Ngưu, Vĩnh Tuy, Hoàng Mai, Hà Nội",,<p>Hoạt động 247</p>,21.0077535,105.858487
ATM/CRM CN Hoàng Quốc Việt,"Số 126 Hoàng Quốc Việt, Cầu Giấy, Hà Nội",,<p>Hoạt động 247</p>,21.0465107,105.5062851
ATM Công ty TCMS,"KCN Gián Khẩu, Gia Viễn, Ninh Bình",,<p>Hoạt động 247</p>,20.3298401,106.3297714
ATM Bệnh viện 108,"Số 3 Trần Hưng Đạo, Bạch Đằng, Hà Bà Trưng, Hà Nội",,<p>Hoạt động 247</p>,21.0181342,105.8425906
ATM Phạm Ngũ Lão ,"Số 33 Phạm Ngũ Lão, Phan Chu Trinh, Hoàn Kiếm, Hà Nội",,<p>Hoạt động 247</p>,21.0221105,106.6532996
CRM  CN Hoàn Kiếm,"Số 79 Lý Thường Kiệt, Hoàn Kiếm, Hà Nội",,<p>Hoạt động 247</p>,21.0249818,103.9702476
CRM CN Thành Công,"Số 165 Thái Hà, Láng Hạ, Đống Đa, Hà Nội",,<p>Hoạt động 247</p>,21.0145151,105.8463993
CRM Học viện Ngân Hàng,"Số 12 Chùa Bộc, Quang Trung, Đống Đa, Hà Nội",,<p>Hoạt động 247</p>,21.0079998,105.2535325
CRM CN Giảng Võ,"TTTM Chợ Mơ, số 459 Bạch Mai, Trương Định, Hai Bà Trưng, Hà Nội",,<p>Hoạt động 247</p>,20.9965402,105.907181
ATM Giang Văn Minh,"Số 1 Giang Văn Minh, Kim Mã, Ba Đình, Hà Nội",,<p>Hoạt động 247</p>,21.0297678,107.2406966
CRM CN Giải Phóng,"Số 360 Giải Phóng, Phương Liệt, Thanh Xuân, Hà Nội",,<p>Hoạt động 247</p>,20.9910202,106.6825086
CRM CN Nam Hà Nội,"Số 8 Phạm Ngọc Thạch, Kim Liên, Đống Đa, Hà Nội",,<p>Hoạt động 247</p>,21.00395244,105.50118752
ATM Đại học Kinh tế Quốc Dân,"Cổng ĐH Kinh tế Quốc Dân, Trần Đại Nghĩa, Hai Bà Trưng, Hà Nội",,<p>Hoạt động 247</p>,20.9999301,105.5804155
CRM Đại học Ngoại Thương,"Khu B Đại học Ngoại Thương, Số 91 Chùa Láng, Láng Thượng, Đống Đa, Hà Nội",,<p>Hoạt động 247</p>,21.023038,105.8059038
CRM Đại học kinh tế Quốc Dân,"Tòa A2  Đại học Kinh tế Quốc dân, số 207 Giải Phóng, Hai Bà Trưng,Hà Nội",,<p>Hoạt động 247</p>,21.0001078,105.8408771
CRM CN Ngô Gia Tự,"Sô 32 Ngô Gia Tự, Đức Giang, Long Biên,Hà Nội",,<p>Hoạt động 247</p>,21.0564215,105.8877401
ATM/CRM CN Lê Trọng Tấn,"Số 164 Lê Trọng Tấn, Khương Mai, Thanh Xuân, Hà Nội",,<p>Hoạt động 247</p>,20.9952724,105.7058254
CRM PGD Thụy Khuê,"Tòa Sun Grand, số 69B Thụy Khuê, Tây Hồ, Hà Nội",,<p>Hoạt động 247</p>,21.0415995,105.8255589
CRM CN Hà Thành,"Số 47 Phan Đình Phùng, Ba Đình, Hà Nội",,<p>Hoạt động 247</p>,21.02250584,105.50356236
CRM PGD Nhân Chính,"Số 98A Ngụy Như Kon Tum, Nhân Chính, Thanh Xuân, Hà Nội",,<p>Hoạt động 247</p>,21.0002578,106.049447
CRM PGD Tây Sơn,"Số 539 Vũ Tông Phan, Khương Đình, Thanh Xuân, Hà Nội",,<p>Hoạt động 247</p>,21.0022493,105.7025266
CRM PGD Bà Triệu,"Số 18 Ngô Quyền, Tràng Tiền, Hoàn Kiếm, Hà Nội",,<p>Hoạt động 247</p>,21.0245006,106.7364969
CRM PGD Tân Mai,"Số 641, nhà H5, TT Tân Mai, Hoàng Mai, Hà Nội",,<p>Hoạt động 247</p>,20.983451,105.8490796
ATM PGD Lý Thái Tổ,"Số 17 Tông Đản, Tràng Tiền, Hoàn Kiếm, Hà Nội",,<p>Hoạt động 247</p>,21.0266687,105.6925902
ATM Bệnh viện 354,"Bệnh viện 354 số 120 Đốc Ngữ, Ba Đình, Hà Nội",,<p>Hoạt động 247</p>,21.0399587,106.9379768
ATM Chợ Bưởi ,"Đường Lạc Long Quân, Bưởi, Tây Hồ, Hà Nội",,<p>Hoạt động 247</p>,21.0479839,106.7535571
CRM CN Ba Đình,"Số 3 Liễu Giai, Cống Vị, Ba Đình, Hà Nội",,<p>Hoạt động 247</p>,21.035467,106.6809875
ATM Hoàng Sâm,"Số 17 Hoàng Sâm, Nghĩa Đô, Cầu Giấy, Hà Nội",,<p>Hoạt động 247</p>,21.043386,106.690802
ATM Công ty Newtatco,"Số 125 Hoàng Văn Thái, Khương Trung, Thanh Xuân, Hà Nội",,<p>Hoạt động 247</p>,20.9964748,105.7862018
ATM Công ty Xi măng La Hiên,"Công ty Xi măng La Hiên, huyện Võ Nhai, tỉnh Thái Nguyên",,<p>Hoạt động 247</p>,21.6995256,106.8810315
ATM Nhà máy Z131,"Cổng 2, nhà máy Z131, xã Đồng Tiến, huyện Phổ Yên, tỉnh Thái Nguyên",,<p>Hoạt động 247</p>,21.4229445,106.718145
ATM Công ty X79,"Công ty X79, phường Tân Thịnh, thành phố Thái Nguyên",,<p>Hoạt động 247</p>,21.5816641,107.966439
ATM Lữ đoàn thông tin 601,"Lữ đoàn thông tin 601, xã Hóa Thượng, huyện Đồng Hỷ, tỉnh Thái Nguyên",,<p>Hoạt động 247</p>,21.6492899,106.8991577
ATM Lữ đoàn 382,"Lữ đoàn 382, xã Thịnh Đức, thành phố Thái Nguyên",,<p>Hoạt động 247</p>,21.5292897,105.8763731
CRM CN Thái Nguyên,"Tòa nhà số 679 Lương Ngọc Quyến, phường Phan Đình Phùng, thành phố Thái Nguyên",,<p>Hoạt động 247</p>,21.5815901,107.9902503
ATM Kho KV3,"Xã Phục Linh, huyện Đại Từ, tỉnh Thái Nguyên",,<p>Hoạt động 247</p>,21.670035,105.7801685
ATM Lữ đoàn Không quân 210,"Tích Lương, thành phố Thái Nguyên",,<p>Hoạt động 247</p>,21.5377393,105.7038426
ATM Công ty Shints Thái Nguyên,"Thị trấn Đu, huyện Phú Lương, tỉnh Thái Nguyên",,<p>Hoạt động 247</p>,21.745771,105.8293947
ATM Trung đoàn 209,"Phường Thắng Lợi, huyện Sông Công, tỉnh Thái Nguyên",,<p>Hoạt động 247</p>,21.454095,105.3499725
ATM Trung đoàn 651,"Xã Hóa Thượng, huyện Đồng Hỷ, tỉnh Thái Nguyên",,<p>Hoạt động 247</p>,21.6397446,106.5870361
ATM Nhà máy Z127,"Nhà máy Z127, tổ 14, phường Quan Triều, thành phố Thái Nguyên",,<p>Hoạt động 247</p>,21.6091383,106.7658948
ATM Nhà máy Z115,"Phường Quyết Thắng, thành phố Thái Nguyên",,<p>Hoạt động 247</p>,21.6092874,108.7710499
ATM Bộ tham mưu Quân khu 1,"Xã Hóa Thượng, huyện Đồng Hỷ, tỉnh Thái Nguyên",,<p>Hoạt động 247</p>,21.6492899,105.8128864
CRM PGD Trưng Vương,"Tầng 1, Công trình Chợ Thái, Trưng Vương, thành phố Thái Nguyên",,<p>Hoạt động 247</p>,21.5993007,107.1844488
CRM PGD Hoàng Văn Thụ,"Số 65 Hoàng Văn Thụ, Phan Đình Phùng, thành phố Thái Nguyên",,<p>Hoạt động 247</p>,21.5923049,108.0763983
CRM PGD Phổ Yên,"Tổ dân phố 2, phường Ba Hàng, thị xã Phổ Yên, tỉnh Thái Nguyên",,<p>Hoạt động 247</p>,21.4146587,106.265064
ATM Bộ chỉ huy Quân sự tỉnh Gia Lai,"Tổ 7, phường Đống Đa, thành phố Pleiku, tỉnh Gia Lai",,<p>Hoạt động 247</p>,14.0162063,105.7703847
ATM Trường trung cấp nghề 15 - Binh đoàn 15,"Số 252 Trường Sơn, thành phố Pleiku, tỉnh Gia Lai",,<p>Hoạt động 247</p>,14.0373828,105.7225509
ATM Lữ đoàn 234,"Xã La Băng, huyện Đăk Đoa, tỉnh Gia Lai",,<p>Hoạt động 247</p>,13.8770174,108.0296856
ATM Sư đoàn 320,"Ngô Quyền, xã Biển Hồ, thành phố Pleiku, tỉnh Gia Lai",,<p>Hoạt động 247</p>,14.0358604,108.0135451
CRM PGD Tân Hương,"Số 229 Tân Hương, Tân Quý, Tân Phú, thành phố Hồ Chí Minh",,<p>Hoạt động 247</p>,10.7898863,105.1874337
CRM CN Hồ Chí Minh,"Số 18B Cộng Hòa, phường 4, Tân Bình, Hồ Chí Minh",,<p>Hoạt động 247</p>,10.8010025,104.0115343
ATM Bệnh viện An Sinh,"Số 10 Trần Huy Liệu, Phú Nhuận, Hồ Chí Minh",,<p>Hoạt động 247</p>,10.8009524,105.588156
ATM Sư đoàn 370,"Số 18D Cộng Hòa, phường 4, Tân Bình, Hồ Chí Minh",,<p>Hoạt động 247</p>,10.8019632,108.2642223
ATM Quân khu 7,"Cổng 18 Hồ Văn Huê, phường 9, Phú Nhuận, Hồ Chí Minh",,<p>Hoạt động 247</p>,10.7999274,106.6581516
CRM PGD Hàm Nghi,"Số 55 Nam Kỳ Khởi Nghĩa, phường Nguyễn Thái Bình, quận 1, Hồ Chí Minh",,<p>Hoạt động 247</p>,10.7706873,106.728356
CRM CN Sở Giao Dịch 2,"Số 259 Trần Hưng Đạo, Cô Giang, quận 1, Hồ Chí Minh",,<p>Hoạt động 247</p>,10.7753796,106.1756093
ATM Công ty cổ phẩn Tư vấn xây dựng điện 2,"Số 45 đường số 2, Trường Thọ, Thủ Đức, thành phố Hồ Chí Minh",,<p>Hoạt động 247</p>,10.8331153,106.6702939
ATM Sân gofl Long Thành,"Sô 99A Phước Tân, Long Hưng, khu phố Hương Phước, Phước Tân, thành phố Biên Hòa",,<p>Hoạt động 247</p>,10.8626682,106.8862582
CRM PGD Tân Cảng,"Số 150 - 150A Nguyễn Gia Trí, phường 25, Bình Thạnh, Hồ Chí Minh",,<p>Hoạt động 247</p>,10.8039059,105.7465373
ATM PGD Trường Chinh,"Số 318 Trường Chinh, khu phố 6, Tân Hưng Thuận, quận 12, Hồ Chí Minh",,<p>Hoạt động 247</p>,10.833095,106.61942
ATM Lữ đoàn 596,"Số 718B Kinh Dương Vương, phường 13, quận 6, Hồ Chí Minh",,<p>Hoạt động 247</p>,10.7494963,105.8323274
ATM Trường cao đẳng nghề số 7,"Số 51/2 Thành Thái, phường 14, quận 10, Hồ Chí Minh",,<p>Hoạt động 247</p>,10.772717,105.830693
CRM PGD Quận 6,"Số 10 -12 Hậu Giang, phường 2, quận 6, Hồ Chí Minh",,<p>Hoạt động 247</p>,10.7460303,105.7708809
CRM PGD Đinh Tiên Hoàng,"Số 86 - 88 Đinh Tiên Hoàng, phường 1, quận Bình Thạnh, Hồ Chí Minh",,<p>Hoạt động 247</p>,10.7960003,105.3913598
ATM PGD Tân Sơn Nhất,"Tòa nhà Garden Gate, số 8 Hoàng Minh Giám, phường 9, Phú Nhuận, Hồ Chí Minh ",,<p>Hoạt động 247</p>,10.8095915,108.4544134
CRM CN Sài Gòn,"Số 172 Hai Bà Trưng, Đa Kao, quận 1, Hồ Chí Minh",,<p>Hoạt động 247</p>,10.7856398,105.7016494
ATM/CRM PGD Nguyễn Tri Phương,"Số 431 - 433 Nguyễn Tri Phương, phường 8, quận 10, Hồ Chí Minh",,<p>Hoạt động 247</p>,10.767096,108.4664783
CRM PGD 3 tháng 2,"Tòa nhà 198A đường 3/2, phường 12, quận 10, Hồ Chí Minh",,<p>Hoạt động 247</p>,10.77471052959111,106.67869999247927
CRM PGD Thống Nhất,"Số 102 - 104 - 106 Bàu Cát, phường 14, Tân Bình, Hồ Chí Minh",,<p>Hoạt động 247</p>,10.7922705,109.192627
CRM PGD Tân Định,"Số 192 Trần Quang Khải, Tân Định, quận 1, Hồ Chí Minh",,<p>Hoạt động 247</p>,10.7916079,106.7182613
ATM Công ty Dệt may 7,"Số 109 Trần Văn Dư, phường 13, Tân Bình, Hồ Chí Minh",,<p>Hoạt động 247</p>,10.8086011,105.8090686
ATM Tòa nhà Viettel,"Số 158A/2 Hoàng Hoa Thám, phường 12, Tân Bình, Hồ Chí Minh",,<p>Hoạt động 247</p>,10.7585643,105.6300533
CRM PGD Khánh Hội,"Số 192 - 194 Khánh Hội, phường 6, quận 4, Hồ Chí Minh",,<p>Hoạt động 247</p>,10.7585643,106.6117195
CRM PGD Kỳ Đồng,"Số 161 - 163 Trần Quốc Thảo, phường 9, quận 3, Hồ Chí Minh",,<p>Hoạt động 247</p>,10.7846242,105.8673814
CRM CN Nam Bình Dương,"Số 7/20 đường DT743, khu phố Bình Đáng, Bình Hòa, Thuận An, Bình Dương",,<p>Hoạt động 247</p>,10.9763787,107.0165856
ATM Bộ chỉ huy Quân sự tỉnh Bình Dương,"Đường DT743, Phú Hòa, thành phố Thủ Dầu 1, Bình Dương",,<p>Hoạt động 247</p>,10.9864236,105.9019213
ATM Công ty Xuất nhập khẩu Hoàng Anh,"Lô 9, đường D4, khu công nghiệp Phú Gia, ấp Phú Nghi, Hòa Lợi, Bến Cát, Bình Dương",,<p>Hoạt động 247</p>,14.7869134,105.8471229
ATM UBND xã Tân Vĩnh Hiệp,"Đường DT746, Tân Vĩnh Hiệp, Tân Uyên, Bình Dương",,<p>Hoạt động 247</p>,11.0288387,106.6602743
ATM Bệnh viện đa khoa Medic,"Số 14A Nguyễn An Ninh, Phú Cường, thành phố Thủ Dầu 1, Bình Dương",,<p>Hoạt động 247</p>,10.9763787,105.8232296
ATM Công ty nội thất Owen,"Lô A - 3B - CN đường D3, khu công nghiệp Bàu Bàng, Lai Uyên, Bàu Bàng, Bình Dương",,<p>Hoạt động 247</p>,11.2583381,109.0317036
ATM Công ty Nam Việt ,"Số 994/1C Nguyễn Thị Minh Khai, khu phố Tân Thắng, Tân Bình, Dĩ An, Bình Dương",,<p>Hoạt động 247</p>,10.940185,105.7940398
ATM Công ty Cổ phần Ánh Sao Dương,"Quốc lộ 3 - Nk13, Thới Hòa, Bến Cát, Bình Dương",,<p>Hoạt động 247</p>,11.2113786,108.2442945
CRM PGD Bến Cát,"Số 432 đường 30/04, khu phố 2, Mỹ Phước, Bến Cát, Bình Dương",,<p>Hoạt động 247</p>,11.1455306,106.5870361
CRM PGD Uyên Hưng,"Thửa đất 53 tờ bản đồ 10, đường DT747, Uyên Hưng, Tân Uyên, Bình Dương",,<p>Hoạt động 247</p>,11.0394948,105.8465996
ATM PGD Bến Thành,"Số 414C - 414D Nguyễn Thị Minh Khai, phường 5, quận 3, Hồ Chí Minh",,<p>Hoạt động 247</p>,10.7700739,106.7225294
ATM Công ty Tân Cảng Phú Hữu,"Cổng cảng Phú Hữu, khu phố 4, Phú Hữu, Thủ Đức, Hồ Chí Minh",,<p>Hoạt động 247</p>,10.7771289,107.5917395
ATM Bệnh viện Quân dân Y Miền Đông,"Số 50 Lê Văn Việt, Thủ Đức, Hồ Chí Minh",,<p>Hoạt động 247</p>,10.845963,105.7725315
CRM CN An Phú,"Chung cư An Phú, Nguyễn Quý Đức, An Phú, Thủ Đức, Hồ Chí Minh",,<p>Hoạt động 247</p>,10.800056,105.843576
ATM Cảng Cát Lái,"Cổng B đường Lê Phụng Hiểu, Cảng Cát Lái, Thủ Đức, Hồ Chí Minh",,<p>Hoạt động 247</p>,10.7673359,105.8206343
CRM PGD Quận 9,"Số 25B Lê Văn Việt, Hiệp Phú, Thủ Đức, Hồ Chí MInh",,<p>Hoạt động 247</p>,10.8453757,105.7392282
CRM PGD Thủ Đức,"Số 282 Võ Văn Ngân, Bình Thọ, Thủ Đức, Hồ Chí Minh",,<p>Hoạt động 247</p>,10.8495847,108.6490762
ATM PGD Thảo Điền,"Số 65 Xuân Thủy, Thảo Điền, Thủ Đức, Hồ Chí Minh",,<p>Hoạt động 247</p>,10.8038033,105.8253978
ATM CN Nam Sài Gòn,"Số 09 đường 08 khu A, đô thị mới Nam Thành Phố, Tân Phú, Quận 7, Hồ Chí Minh",,<p>Hoạt động 247</p>,10.7883501,106.7774085
CRM CN Thanh Trì,"Tòa nhà An & Huy, khu công nghiệp Ngọc Hồi, Thanh Trì, Hà Nội",,<p>Hoạt động 247</p>,20.9164242,107.0798542
ATM Công ty TNHH MTV Cơ khí Z179,"Km12, quốc lộ 1A, Tứ Hiệp, Thanh Trì, Hà Nội",,<p>Hoạt động 247</p>,20.9396533,105.8694633
ATM Ban chỉ huy Quân sự huyện Thường Tín,"Thị trấn Thường Tín, Thường Tín, Hà Nội",,<p>Hoạt động 247</p>,20.8715336,105.858196
ATM Lữ đoàn 239,"Thôn Xâm Xuyên, xã Hồng Vân, Thường Tín, Hà Nội",,<p>Hoạt động 247</p>,20.8697257,105.7614722
CRM Bệnh viện Nông Nghiệp,"Km13+500, quốc lộ 1A, Ngọc Hồi, Thanh Trì, Hà Nội",,<p>Hoạt động 247</p>,20.9408833,105.1734464
ATM Công ty Legamex,"Số 15 Trường Sơn, phường 15, quận 10, Hồ Chí Minh",,<p>Hoạt động 247</p>,10.7853698,105.3445571
ATM Đại học Trần Đại Nghĩa,"Số 189 Nguyễn Oanh, phường 10, Gò Vấp, Hồ Chí Minh",,<p>Hoạt động 247</p>,10.8287051,109.1891591
ATM Lữ đoàn 77,"Số 152 Nguyễn Oanh, phường 17, Gò Vấp, Hồ Chí Minh",,<p>Hoạt động 247</p>,10.8496523,106.6201281
ATM/CRM Bệnh viện 175,"Số 1 Nguyễn Thái Sơn, phường 3, Gò Vấp, Hồ Chí Minh",,<p>Hoạt động 247</p>,10.7169546,106.7264271
ATM Công ty Gilimex,"Số 334 Phan Văn Trị, phường 11, Bình Thạnh, Hồ Chí Minh",,<p>Hoạt động 247</p>,10.8228654,106.7797215
ATM Công ty 28,"Số 169 Quang Trung, phường 10, Gò Vấp, Hồ Chí Minh",,<p>Hoạt động 247</p>,10.8290113,106.6644105
ATM Công ty Giditexco,"Số 86 Lũy Bán Tích, Tân Thới Hòa, Tân Phú, Hồ Chí Minh",,<p>Hoạt động 247</p>,10.7658782,106.6300386
ATM Công ty Bình Phú,"Số 22 đường 19, Hiệp Bình Chánh, Thủ Đức, Hồ Chí Minh",,<p>Hoạt động 247</p>,15.7583475,101.4148597
CRM PGD Quang Trung,"Số 170 Quang Trung, phường 10, Gò Vấp, Hồ Chí Minh",,<p>Hoạt động 247</p>,10.8287424,105.4824651
CRM PGD Sóng Thần,"Số 20 Nguyễn An Ninh, khu phố Nhị Đồng 2, Dĩ An, Bình Dương",,<p>Hoạt động 247</p>,10.9035675,105.8057328
ATM Trường Quân sự Quân đoàn 4,"Đường DT743, Bình Hòa, Thuận An, Bình Dương",,<p>Hoạt động 247</p>,10.9134202,105.5966541
ATM Bệnh viện Quân đoàn 4,"Đường DT743, Dĩ An, Bình Dương",,<p>Hoạt động 247</p>,10.913806,105.9333524
ATM UBND Quận 10,"Số 474 đường 3/2, phường 14, quận 10, Hồ Chi Minh",,<p>Hoạt động 247</p>,10.7679249,106.0526517
CRM PGD Quận 12,"Số 312 Nguyễn Ảnh Thủ, khu phố 3, Hiệp Thành, quận 12, Hồ Chí Minh",,<p>Hoạt động 247</p>,10.8790697,109.1619308
ATM Trường Quân sự Quân khu 7,"Số 479 Tô Ký, Trung Mỹ Tây, Quận 12, Hồ Chí Minh",,<p>Hoạt động 247</p>,10.8559038,105.6075708
CRM PGD BA ĐIỂM,"Số 10/2A Nguyễn Ảnh Thủ, ấp Hưng Lân, xã Bà Điểm, Hóc Môn, Hồ Chí Minh",,<p>Hoạt động 247</p>,10.8638235,108.2427687
CRM CN Gia Định,"Số 3 Hoàng Hoa Thám, phường 6, Bình Thạnh, Hồ Chí Minh",,<p>Hoạt động 247</p>,10.8038559,105.782493
ATM PGD Bình Thạnh,"Số 310 Lê Quang Định, phường 11, Bình Thạnh, Hồ Chí Minh",,<p>Hoạt động 247</p>,10.8094223,105.4284492
ATM PGD Lê Văn Sỹ,"Số 67 Lê Văn Sỹ, phường 13, Phú Nhuận, Hồ Chí Minh",,<p>Hoạt động 247</p>,10.7908524,106.2377384
CRM CN Phú Nhuận,"Tòa Prince Residence, số 19 - 21 Nguyễn Văn Trỗi, phường 11, Phú Nhuận, Hồ Chí Minh",,<p>Hoạt động 247</p>,10.47478644,106.40244668
ATM Viện Quân y 5,"số 120 Trương Hán Siêu, Phúc Thành, Ninh Bình",,<p>Hoạt động 247</p>,20.2512714,105.4913446
CRM CN Ninh Binh,"Số 1112 Trần Hưng Đạo, Phúc Thành, Ninh Bình",,<p>Hoạt động 247</p>,20.2519097,105.8108341
ATM Công ty Xi măng Xuân Thành,"Thôn Bồng Lạng, xã Thanh Nghị, huyện Thanh Liêm, tỉnh Hà Nam",,<p>Hoạt động 247</p>,20.4192307,105.5994738
ATM Công ty Công nghiệp Hạ Long - DFG,"Khu công nghiệp Khánh Cư, xã Khánh Cư, huyện Yên khánh, Ninh Bình",,<p>Hoạt động 247</p>,20.2150816,105.7747256
ATM Trường cao đẳng nghề số 13,"Phường Nam Sơn, Tam Điệp, Ninh Bình",,<p>Hoạt động 247</p>,20.1449313,105.8345299
ATM Lữ đoàn tăng thiết giáp 202,"Phố Rịa, huyện Nho Quan,Ninh Bình",,<p>Hoạt động 247</p>,20.2446858,106.646618
CRM PGD Tam Điệp,"Tòa khách sạn Xanh, Bắc Sơn, Tam Điệp, Ninh Bình",,<p>Hoạt động 247</p>,20.1551581,106.7869253
ATM Lữ đoàn phòng không 241,"Xuân Que, Nho Quan, Ninh Bình",,<p>Hoạt động 247</p>,20.239054,106.6825428
ATM Sở kế hoạch đầu tư Ninh Bình,"Số 15 Lê Hồng Phong, Vân Giang, Ninh Bình",,<p>Hoạt động 247</p>,20.257381,105.8547718
ATM Bộ chỉ huy Quân sự tỉnh Ninh Bình,"Đường 1B, phường Nam Thành, Nình Binh",,<p>Hoạt động 247</p>,20.1877591,108.566807
ATM Công ty TNHH Sanico Việt Nam,"Thôn Phú Long, xã Gia Vân, huyện Gia Viễn, Ninh Bình",,<p>Hoạt động 247</p>,20.3463303,105.7370668
ATM PGD Gia Viễn,"Thửa đất số 2621 - 2623, tờ bản đồ số 381E, Gia Trấn, Gia Viễn, Ninh Bình",,<p>Hoạt động 247</p>,20.0915824,108.4660226
ATM Công ty TNHH MTV Master Vina,"Khu công nghiệp Đồng Hướng, xã Đồng Hướng, huyện Kim Sơn, Ninh Bình",,<p>Hoạt động 247</p>,20.05445848,10606066384
CRM CN Tân Tạo ,"Số B3/16 - B3/17, quốc lộ 1A, ấp 2 xã Tân Kiên, huyện Bình Chánh, Hồ Chí Minh",,<p>Hoạt động 247</p>,10.7194728,109.1942102
ATM Công ty đóng tàu Hồng Hà," Km 17+300, quốc lộ 5, Lê Thiện, An Dương, Hải Phòng",,<p>Hoạt động 247</p>,20.05445848,106.06066384
ATM Bệnh viện quốc tế Green,"Số 738 Nguyễn Văn Linh, Niệm Nghĩa, Lê Chân, Hải Phòng",,<p>Hoạt động 247</p>,20.50316824,106.39448668
CRM CN Hải Phòng,"Tòa nhà MB, thửa đất số 06, lô 30A, khu đô thị mới ngã 5 sân bay Cát Bi, Lê Hồng Phong, Lạc Viên, Ngô Quyền, Hải Phòng",,<p>Hoạt động 247</p>,20.8224325,105.8235459
ATM Kho bạc nhà nước An Dương,"Số 9 đường Thị Trấn, huyện An Dương, Hải Phòng",,<p>Hoạt động 247</p>,20.8648444,107.1087223
ATM Lư đoàn thông tin 602,"Đường Lê Hồng Phong, Hải An, Hải Phòng",,<p>Hoạt động 247</p>,20.8423241,106.6681469
CRM PGD Lê Chân,"Số 146 Tôn Đức Thắng, Lam Sơn, Lê Chân, Hải Phòng.",,<p>Hoạt động 247</p>,20.8483747,105.5344718
ATM Sư đoàn Phòng không 363,"Đường Trần Nhân Tông, Kiến An, Hải Phòng",,<p>Hoạt động 247</p>,"20.8090975,",106.6369033
ATM Lữ đoàn 603,"Đường Trần ất Văn, Tràng Minh, Kiến An, Hải Phòng",,<p>Hoạt động 247</p>,20.7922164,106.5855109
CRM CN Nam Hải Phòng,"Số 268 Trần Nguyên Hãn, Niệm Nghĩa, Lê Chân, Hải Phòng",,<p>Hoạt động 247</p>,20.844319,109.1116748
CRM PGD Lạch Tray,"Số 2B Lạch Tray, Ngô Quyền, Hải Phòng",,<p>Hoạt động 247</p>,20.851528,105.5688391
CRM PGD Thủy Nguyên," TTTM Bắc Mật, Ngã Tư TT Núi Đèo, huyện Thuỷ Nguyên, Hải Phòng.",,<p>Hoạt động 247</p>,20.851528,105.5688391
CRM PGD Hải An,"Số 206 - 216 Văn Cao, Đằng Giang, Ngô Quyền, Hải Phòng",,<p>Hoạt động 247</p>,20.8346238,106.3216549
CRM PGD Kiến An,"Số 01+02/NO 05 Khu đô thị và nhà ở Cựu Viên, Bắc Sơn, Kiến An, Hải Phòng",,<p>Hoạt động 247</p>,20.8201609,106.7012753
CRM PGD Thượng Lý,"Khu đô thị Vinhome Imperia, Bạch Đằng, Thượng Lý, Hồng Bàng, Hải Phòng.",,<p>Hoạt động 247</p>,20.8638189,106.668773
CRM PGD Quán Toan,"Số 212 Hùng Vương, Quán Toan, Hồng Bàng, Hải Phòng",,<p>Hoạt động 247</p>,20.8908646,105.856397
CRM PGD Vạn Mỹ,"Số 341 Đà Nẵng, Vạn Mỹ, Ngô Quyền, Hải Phòng",,<p>Hoạt động 247</p>,20.8441676,105.7782775
ATM Khu công nghiệp Nam Cầu Kiền,"Xã Kiền Bái, huyện Thủy Nguyên, Hải Phòng",,<p>Hoạt động 247</p>,20.54546156,106.38024324
ATM Khu Công nghiệp An Dương,"Xã Hồng Phong, Bắc Sơn, An Dương, Hải Phòng",,<p>Hoạt động 247</p>,20.9323964,106.7090562
ATM Nhà máy giày Liên Dinh,"Km9 đường Phạm Văn Đồng, Hải Thành, Dương Kinh, Hải Phòng",,<p>Hoạt động 247</p>,20.8260185,105.8034387
CRM CN Bắc Hải Phòng,"Số 5 Trần Hưng Đạo, Hoàng Văn Thụ, Hồng Bàng, Hải Phòng",,<p>Hoạt động 247</p>,20.8582761,105.239342
ATM Công ty Sao Vàng,"Ngã Ba An Tràng, Trường Sơn, An Lão, Hải Phòng",,<p>Hoạt động 247</p>,"20.816,",106.582065
ATM PGD Lê Hồng Phong,"Tòa nhà Diamond số A1 - 7, Lô 8A, Lê Hồng Phong, Đằng Giang, Ngô Quyền, Hải Phòng",,<p>Hoạt động 247</p>,20.8412424,109.3383372
CRM CN Bình Chánh,"Số 207-209 đường 9A, khu dân cư Trung Sơn, Bình Hưng, Bình Chánh, Hồ Chí Minh",,<p>Hoạt động 247</p>,10.7336245,108.3210539
ATM/CRM PGD Nam Bình Chánh,"Số A23/30, quốc lộ 50, âp 1, Bình Hưng, Bình Chánh, Hồ Chí Minh",,<p>Hoạt động 247</p>,10.7134153,106.7463832
ATM Bộ chi huy Quân sự tỉnh Hải Dương,"Đường Tôn Đức Thắng, Trần Phú, Hải Dương",,<p>Hoạt động 247</p>,20.9366892,106.6663191
ATM Viện Quân y 7,"Số 12 Tuệ Tĩnh, Nguyễn Trãi, Hải Dương",,<p>Hoạt động 247</p>,20.9415148,108.961155
ATM PGD Lê Thanh Nghị,"Số 481 - 483 Lê Thanh Nghị, Hải Dương",,<p>Hoạt động 247</p>,20.5535472,106.19336972
ATM Trường Quân sự Quân khu 3,"Số 214 Nguyễn Trãi 2, Chí Linh, Hải Dương",,<p>Hoạt động 247</p>,20.5535472,106.19336972
ATM Công ty Môi trường xanh An Phát,"Khu công nghiệp  An Đồng, Nam Sách, Hải Dương",,<p>Hoạt động 247</p>,20.9995914,105.7952237
ATM Lữ đoàn 513,"Khu 3, thị trấn Ninh Giang, huyện Ninh Giang, Hải Dương",,<p>Hoạt động 247</p>,20.7063329,106.681621
ATM Khu công nghiệp Đại An,"Km 51 quốc lộ 5B, Tứ Minh, Hải Dương",,<p>Hoạt động 247</p>,20.9270199,105.2126453
CRM CN Hải Dương,"Số 248 Nguyễn Lương Bằng, Thanh Bình, Hải Dương.",,<p>Hoạt động 247</p>,20.56144276,106.18523944
ATM Khu công nghiệp Phú Thái,"Thị trấn Phú Thái, Kim Lương, Kim Thành, Hải Dương",,<p>Hoạt động 247</p>,20.9629521,105.9681936
CRM PGD Chí Linh,"Số 10 - 12 Thái Học 2, Sao Đỏ, Chí Linh, Hải Dương",,<p>Hoạt động 247</p>,21.146257334366513,106.37433218911987
ATM PGD Kinh Môn,"Thửa đất 226, tờ bản đồ 05, An Lưu, Kinh Môn, Hải Dương",,<p>Hoạt động 247</p>,20.994816696683646,106.54959422982492
ATM Khu công nghiệp Nhị Xuân,"Nguyễn Văn Bứa, Xuân Thới Sơn, Hóc Môn, Hồ Chí Minh",,<p>Hoạt động 247</p>,10.8728225,107.1033096
ATM CN Tây Sài Gòn,"Số 246 Tô Ký, Thới Tam Thôn, Hóc Môn, Hồ Chí Minh",,<p>Hoạt động 247</p>,10.511881,106.37302844
CRM PGD Nguyễn Ảnh Thủ,"Số 27/2B Lý Thường Kiệt, thị trấn Hóc Môn, huyện Hóc Môn, Hồ Chí Minh",,<p>Hoạt động 247</p>,10.53162744,106.35333996
CRM CN Đông Sài Gòn,"Số 538 đường CTM 8, phường 11, quận 3, Hồ Chí Minh",,<p>Hoạt động 247</p>,10.7857926,105.8225076
CRM PGD Tân Thuận,"Số 300 - 300A - 300B Huỳnh Tân Phát, Tân Thuận Tây, quận 7, Hồ Chí Minh",,<p>Hoạt động 247</p>,10.4505508,106.4342258
CRM PGD Nguyễn Đình Chiểu,"Số 569 Nguyễn Đình Chiểu, phường 2, quận 3, Hồ Chí Minh",,<p>Hoạt động 247</p>,10.46044256,106.4048954
ATM Công ty Cổ phần Gia Định,"Số 566 quốc lộ 13, Hiệp Bình Phước, Thủ Đức, Hồ Chí Minh",,<p>Hoạt động 247</p>,10.8488652,106.3672995
CRM CN Nhà Bè,"Số 59 Khu dân cư Phú Long, đường Nguyễn Hữu Thọ, ấp 5, Phước Kiển, Nhà Bè, Hồ Chí Minh",,<p>Hoạt động 247</p>,10.43101892,106.42074484
ATM Tổng công ty cổ phần Dệt may Hòa Thọ,"ố 36 Ông Ích Đường., Khuê Trung, Cẩm Lệ, Đà Nẵng",,<p>Hoạt động 247</p>,16.01169796,108.12095508
ATM Bệnh viện Quân y 17,"Số 2 Nguyễn Hữu Thọ, Thanh Khê, Đà Nẵng",,<p>Hoạt động 247</p>,16.03148752,108.12306852
ATM Bộ tư lệnh Biên Phòng,"Số 8 Lý Thường Kiêt, Hải Châu, Đà Nẵng",,<p>Hoạt động 247</p>,16.080464,108.7862283
ATM Công ty Sông Thu,"Số 96 Yết Kiêu, Sơn Trà, Đà Nẵng",,<p>Hoạt động 247</p>,16.06284256,108.1443098
ATM Tiểu đoàn 353,"Đường Yết Kiêu, Thọ Quang, Sơn Trà, Đà Nẵng",,<p>Hoạt động 247</p>,16.06513216,108.14242196
ATM PGD Sông Hàn,"Tòa nhà lô 14 -15 Nguyễn Văn Linh, Phước Ninh, Hải Châu, Đà Nẵng",,<p>Hoạt động 247</p>,16.03389268,108.12576468
ATM Trung đoàn 354,"Số 77 Lê Văn Hiến, Ngũ Hành Sơn, Đà Nẵng",,<p>Hoạt động 247</p>,16.01550056,108.14480336
CRM PGD Hồng Lĩnh,"Số 135, đường Trần Phú, phường Nam Hồng, thị xã Hồng Lĩnh, Hà Tĩnh",,<p>Hoạt động 247</p>,18.5297488,105.6994381
ATM Cửa Đại ,"Số 382 Cửa Đại, Cẩm Châu, Hội An, Quảng Nam",,<p>Hoạt động 247</p>,15.5257504,108.20451212
ATM Bộ chi huy Quân sự tỉnh Quảng Nam,"Số 60 Hùng Vương, Hòa Thuận, Tam Kỳ, Quảng Nam.",,<p>Hoạt động 247</p>,15.5257504,108.20451212
ATM Lữ đoàn 270,"Xã Tam Ngọc, Tam Kỳ, Quảng Nam",,<p>Hoạt động 247</p>,15.5308346,105.7245202
ATM Bộ chị huy Bộ đội Biên Phòng tỉnh Quảng Nam,"Số 02 Hùng Vương, Tân Thạnh, Tam Kỳ, Quảng Nam",,<p>Hoạt động 247</p>,15.5811236,107.1374045
ATM Bộ tư lệnh Cảnh sát biển vùng 2,"Xã Tam Quang, Núi Thành, Quảng Nam",,<p>Hoạt động 247</p>,15.4828062,106.6762441
ATM Sư đoàn Bộ binh 315,"Xã Tam Nghĩa, Núi Thành, Quảng Nam",,<p>Hoạt động 247</p>,15.24088632,108.42025236
ATM Lữ đoàn 574,"Xã Quế Cường, Quế Sơn, Quảng Nam",,<p>Hoạt động 247</p>,15.7523112,106.6382735
ATM Nhà máy may Phú Ninh,"Xã Tam Thái, Phú Ninh, Quảng Nam",,<p>Hoạt động 247</p>,15.24088632,108.42025236
ATM Trường trung cấp Cảnh sát Giao thông ," Xã Bình Phục, Thăng Bình, Quảng Nam",,<p>Hoạt động 247</p>,15.43406992,108.2309834
ATM Công ty may Huy Hoàng,"Xã Duy Vinh, Duy Xuyên, Quảng Nam",,<p>Hoạt động 247</p>,15.83808,108.32546
ATM Công ty may Hiệp Đức,"Khu công nghiệp Nam An Sơn, Quế Thọ, Hiệp Đức, Quảng Nam",,<p>Hoạt động 247</p>,15.60337,108.16734
ATM/CRM CN Quảng Nam,"Số 284 Phan Chu Trinh, An Xuân, Tam Kỳ, Quảng Nam",,<p>Hoạt động 247</p>,15.3407158,108.29203136
ATM UBND huyện Núi Thành,"Khối 3, Núi Thành, Quảng Nam",,<p>Hoạt động 247</p>,15.43308,108.66038
CRM PGD Núi Thành,"Số 204 Phạm Văn Đồng, khối phố 2, Núi Thành, Quảng Nam",,<p>Hoạt động 247</p>,15.26101256,108.38353976
CRM PGD Duy Xuyên,"Khu đô thị phố chợ Nam Phước, khối phố Long Xuyên 2, thị trấn Nam Phước, Duy Xuyên, Quảng Nam",,<p>Hoạt động 247</p>,15.84533,108.28157
ATM Khu công nghiệp Thụy Vân ,"Phường Thụy Vân, Việt Trì, Phú Thọ",,<p>Hoạt động 247</p>,21.20209616,105.20230712
ATM Xí nghiệp 2 - Nhà máy Z121,"xã Trung Giáp, huyện Phù Ninh, tỉnh Phú Thọ",,<p>Hoạt động 247</p>,21.4396514,105.9716396
ATM Xí nghiệp 4 - Nhà máy Z121,"Xã Khải Xuân, huyện Thanh Ba, tỉnh Phú Thọ",,<p>Hoạt động 247</p>,21.2114197,106.755204
ATM Nhà máy Z121,"Xã Phú Hộ, thị xã Phú Thọ, tỉnh Phú Thọ",,<p>Hoạt động 247</p>,21.4396514,106.7452356
ATM Quân khu 2,"Cổng B Quân Khu 2, Vân Phú,Việt Trì, Phú Thọ",,<p>Hoạt động 247</p>,21.3653927,106.3608473
ATM Công ty Kee Un,"Lô 6, KCN Thụy Vân, xã Thụy Vân, Việt Trì, Phú Thọ,",,<p>Hoạt động 247</p>,21.33706,105.35225
ATM UBND huyện Lâm Thao,"Thị trấn Lâm Thao, huyện Lâm Thao, Phú Thọ",,<p>Hoạt động 247</p>,21.31964,105.28548
CRM CN Việt Trì,"Số 1596 Hùng Vương, Gia Cẩm, Việt Trì, Phú Thọ",,<p>Hoạt động 247</p>,21.32168,105.38699
ATM Bộ chỉ huy Quân sự tỉnh Phú Thọ,"Phường Nông Trang, Việt Trì, Phú Thọ.",,<p>Hoạt động 247</p>,21.35118,105.38734
CRM PGD Phú Hộ,"Số 63, khu 12, xã Phú Hộ, Phú Thọ,Phú Thọ.",,<p>Hoạt động 247</p>,21.44009,105.25510
CRM PGD Nam Việt Trì,"Số 779 đại Lộ Hùng Vương, Bến Gót, Việt Trì, Phú Thọ.",,<p>Hoạt động 247</p>,21.30519,109.42258
ATM Công ty TNHH MTV 95,"Xã Hợp Châu,Tam Đảo, Vĩnh Phúc",,<p>Hoạt động 247</p>,21.40547,105.62066
ATM Trường Quân sự Quân Khu 2,"Đường Phan Bội Châu, Liên Bảo. Vĩnh Yên, Vĩnh Phúc",,<p>Hoạt động 247</p>,21.32074,105.61090
ATM Trường trung cấp Kỹ thuật Quân Khí,"Thị trấn Gia Khánh, huyện Bình Xuyên, Vĩnh Phúc",,<p>Hoạt động 247</p>,21.35552,105.63342
ATM Bộ chi huy Quân sự tỉnh Vĩnh Phúc,"Lam Sơn, Tích Sơn, Vĩnh Yên, Vĩnh Phúc",,<p>Hoạt động 247</p>,21.30295,105.58118
ATM Bệnh viện Quân y 109,"Tô Hiến Thành, phường Đồng Tâm, Vĩnh Yên, Vĩnh Phúc",,<p>Hoạt động 247</p>,21.30156,105.57914
ATM Xưởng sửa chữa xa tăng X32,"Xã Kim Long, huyện Tam Dương, tỉnh Vĩnh Phúc.",,<p>Hoạt động 247</p>,21.3726587,105.5804155
CRM CN Vĩnh Phúc,"Tòa nhà Viettel, KĐT Chùa Hà Tiên, phường Liên Bảo, Vĩnh Yên, Vĩnh Phúc",,<p>Hoạt động 247</p>,21.32308,105.59906
ATM Sân golf Đầm Vạc,"Đinh Tiên Hoàng, Khai Quang, Vĩnh Yên, Vĩnh Phúc",,<p>Hoạt động 247</p>,21.29496,105.41469
CRM PGD Phúc Yên,"Số 65 đường Trần Hưng Đạo, phường Hùng Vương, Phúc Yên, Vĩnh Phúc",,<p>Hoạt động 247</p>,21.23608,105.70512
ATM Xí nghiệp Quang Điện 23,"Phường Xuân Hoà, Phúc Yên, Vĩnh Phúc",,<p>Hoạt động 247</p>,21.29555,105.71462
ATM Sư đoàn 304,"Xã Trung Mỹ, Bình Xuyên, Vĩnh Phúc",,<p>Hoạt động 247</p>,21.300603,105.5927492
ATM Trường cao đẳng Điện lực Miền Bắc,"Xã Tân Dân, Sóc Sơn, Hà Nội",,<p>Hoạt động 247</p>,21.24873,105.76541
CRM PGD Yên Lạc,"Số 194 Dương Tĩnh, tổ dân phố 3 Đoài, thị trấn Yên Lạc, Yên Lạc, Vĩnh Phúc",,<p>Hoạt động 247</p>,21.23411,105.57390
ATM Tiểu đoàn 11,"Đường Lê Hồng Phong, phường Trà An, Bình Thuỷ, Cần Thơ",,<p>Hoạt động 247</p>,10.097888,106.1262348
ATM Nhà máy X55 Hải Quân,"Số 36 Lê Hồng Phong, Bình Thủy, Cần Thơ",,<p>Hoạt động 247</p>,10.08451,105.73792
ATM Cục hậu cần Quân khu 9,"Số 91B đường CMT8, quận Bình Thủy, Cần Thơ",,<p>Hoạt động 247</p>,10.0673455,105.8005893
ATM Bộ chỉ huy Quân sự thành phố Cần Thơ,"Khu vực 2, phường Hưng Thạnh, quận Cái Răng, Cần Thơ",,<p>Hoạt động 247</p>,10.0029512,106.7330306
CRM CN Cần Thơ,"Số 77 - 77B Võ Văn Tần,Tân An, Ninh Kiều, Cần Thơ",,<p>Hoạt động 247</p>,10.03265,105.78467
ATM Công ty Hải sản 404,"Số 404 Lê Hồng Phong, Bình Thuỷ, Bình Thủy, Cần Thơ",,<p>Hoạt động 247</p>,10.07893,105.74609
ATM Bệnh viện Quân y 121,"Số 01 đường 30 Tháng 4, An Lạc, Ninh Kiều, Cần Thơ",,<p>Hoạt động 247</p>,10.03024,105.78231
ATM Nhà khách 330,"Số 11B đường CMT8, Bình Thủy, Cần Thơ",,<p>Hoạt động 247</p>,10.05758,105.76811
CRM CN Tây Đô,"Số 49 đường CMT8, An Thới, Bình Thủy, Cần Thơ.",,<p>Hoạt động 247</p>,8.74316,103.00206
CRM PGD Ninh Kiều,"Số 122 đường 3/2, phường Hưng Lợi, Ninh Kiều, Cần Thơ",,<p>Hoạt động 247</p>,10.34542,105.79259
CRM PGD Thốt Nốt,"Số 553, QL91, KV Phụng Thạnh 1, Thốt Nốt, Thốt Nốt, Cần Thơ",,<p>Hoạt động 247</p>,10.62648,105.42530
CRM PGD Ô Môn,"Số 1177 Tôn Đức Thắng, khu vực 11, Châu Văn Liêm, Ô Môn, Cần Thơ",,<p>Hoạt động 247</p>,10.41026,105.52892
ATM Báo An Giang,"Số 398 Hà Hoàng Hổ, Mỹ Xuyên, Long Xuyên, An Giang",,<p>Hoạt động 247</p>,10.378166,105.437970
ATM Công ty CP Cảng An Giang,"Quốc lộ 91, Tổ 15, Khóm Đông Thịnh B, Mỹ Thạnh, Long Xuyên, An Giang",,<p>Hoạt động 247</p>,10.335665,105.476867
ATM Bộ chỉ huy Quân sự tỉnh An Giang,"Số 08 Lê Hồng Phong, Mỹ Bình, Long Xuyên, An Giang",,<p>Hoạt động 247</p>,10.389271,105.433052
ATM Sư đoàn 330,"Khóm 3, tỉnh lộ 948, Chi Lăng,Tịnh Biên, An Giang",,<p>Hoạt động 247</p>,10.530185,105.027330
ATM Trung đoàn 1 - Sư đoàn 330,"Khóm 1, thị trấn Chi Lăng, Tịnh Biên, An Giang",,<p>Hoạt động 247</p>,10.533811,105.026018
ATM Lữ đoàn 962,"Số 01 Nguyễn Du, Mỹ Bình, Long Xuyên, An Giang",,<p>Hoạt động 247</p>,10.389396,105.438644
ATM Lữ đoàn Pháo binh 6 ,"Khóm Bình Đức 3, Bình Đức, Long Xuyên, An Giang",,<p>Hoạt động 247</p>,10.411116,105.416544
ATM UBND thành phố Long Xuyên,"Số 99 Nguyễn Thái Học, Mỹ Hòa, Long Xuyên, An Giang",,<p>Hoạt động 247</p>,10.382345,105.426107
CRM CN An Giang,"Số 82 – 84 đường Nguyễn Trãi, Mỹ Long, Long Xuyên, An Giang. ",,<p>Hoạt động 247</p>,10.379609,105.441057
CRM PGD Châu Phú,"Số 534A Quốc lộ 91, thị trấn Cái Dầu, huyện Châu Phú, tỉnh An Giang",,<p>Hoạt động 247</p>,10.577110,105.235493
CRM PGD Tân Châu 2,"Số 166 Tôn Đức Thắng, khóm Long Thị D, Long Thạnh, Tân Châu, An Giang",,<p>Hoạt động 247</p>,10.799125,105.245239
CRM PGD Chợ Mới,"Tỉnh lộ 942, ấp Thị, thị trấn Chợ Mới, huyện Chợ Mới,  An Giang",,<p>Hoạt động 247</p>,10.547880,105.402900
ATM Bộ chỉ huy Quân sự tỉnh Quảng Trị,"Khu phố Tân Vĩnh, Đông Lương, Đông Hà, Quảng Trị",,<p>Hoạt động 247</p>,16.8015932,106.6947628
ATM Trung đoàn 19,"Đường quốc Lộ 9, huyện Cam Lộ, tỉnh Quảng Trị",,<p>Hoạt động 247</p>,16.8111606,108.159963
CRM PGD Khe Sanh,"Số 144 Lê Duẩn, thị trấn Khe Sanh,Hướng Hóa, Quảng Trị",,<p>Hoạt động 247</p>,16.62747,107.73872
ATM Tòa nhà Viettel Quảng Bình,"Số 29 Trần Quảng Khải,  Đồng Phú, Đồng Hởi, Quảng Bình",,<p>Hoạt động 247</p>,17.47776,106.61767
ATM Trường Quân sự tỉnh Quảng Bình,"Phường Bắc Nghĩa, Đức Ninh, Đồng Hới, tỉnh Quảng Bình",,<p>Hoạt động 247</p>,17.27246,106.35406
CRM CN Quảng Bình,"Số 58 đường Quang Trung, Đồng Hải, Đồng Hới, Quảng Bình",,<p>Hoạt động 247</p>,17.46683,106.62345
ATM Bộ chỉ huy Quân sự tỉnh Lạng Sơn,"Số 2 đường Nguyễn Thái Học, Chi Lăng, Lạng Sơn",,<p>Hoạt động 247</p>,21.84449,106.75289
ATM Bộ chỉ huy Bộ đội Biên phòng tỉnh Lạng Sơn,"Số 2 đường Quang Trung, Chi Lăng, Lạng Sơn",,<p>Hoạt động 247</p>,21.84611,106.75721
ATM Kho KV1 - Cục Quân khí,"Xã Thanh Sơn, huyện Hữu Lũng, tỉnh Lạng Sơn;",,<p>Hoạt động 247</p>,21.53652,106.23204
ATM Trung đoàn 338,"Xã Tú Đoạn , huyện Lộc Bình, tỉnh Lạng Sơn",,<p>Hoạt động 247</p>,21.79533,106.96086
ATM Công ty TNHH Xuân Cường,"Cửa khẩu Quốc tế Hữu Nghị, thị trấn Đồng Đăng, Cao Lộc, tỉnh Lạng Sơn",,<p>Hoạt động 247</p>,21.86176,106.75540
CRM CN Lạng Sơn,"Số 88 đường Trần Đăng Ninh, Hoàng Văn Thụ, Lạng Sơn",,<p>Hoạt động 247</p>,21.85566,106.75680
ATM Bộ chỉ huy Quân sự tỉnh Tuyên Quang,"Xóm 17, xã Trung Môn, huyện Yên Sơn, Tuyên Quang",,<p>Hoạt động 247</p>,21.8205342,106.0495329
ATM Kho KV2,"Xã Hoàng Khai, huyện Yên Sơn,Tuyên Quang",,<p>Hoạt động 247</p>,21.7571324,105.4827012
ATM Sư đoàn 316 - Quân khu 2,"Quốc lộ 2, Chí Đám, huyện Đoan Hùng, tỉnh Phú Thọ",,<p>Hoạt động 247</p>,21.8136803,105.859415
CRM CN Tuyên Quang," Số 155 đường Bình Thuận, tổ 19, phường Tân Quang,Tuyên Quang ",,<p>Hoạt động 247</p>,21.484842,105.12432396
CRM CN Yên Bái,"Số 736 đường Điện Biên, tổ 44, phường Minh Tân, Yên Bái",,<p>Hoạt động 247</p>,21.71568,104.90266
ATM Trung đoàn 174,"Xã Thịnh Hưng, huyện Yên Bình, tỉnh Yên Bái",,<p>Hoạt động 247</p>,21.70280,105.00185
CRM PGD Phú Mỹ,"Tầng 1 block A, lô N3, nhà ở xã hội chung cư 18 tầng, phường Phú Mỹ, thị xã Phú Mỹ, Bà Rịa- Vũng Tàu.",,<p>Hoạt động 247</p>,10.95411,107.02310
ATM Trường trung cấp Biên Phòng 2,"Số 110A Nguyễn Thị Định, Phước Nguyên, thành phố Bà Rịa, Bà Rịa – Vũng Tàu",,<p>Hoạt động 247</p>,10.49726,107.18864
ATM Công ty may Thạnh Mỹ,"Cụm Công nghiệp - Tiểu thủ công nghiệp Hắc Dịch, ấp Trảng Cát, xã Hắc Dịch, huyện Tân Thành, Bà Rịa - Vũng Tàu",,<p>Hoạt động 247</p>,10.64349,107.08830
ATM Lữ đoàn 167,"Xã Long Sơn, thành phố Vũng Tàu, tỉnh Bà Rịa - Vũng Tàu",,<p>Hoạt động 247</p>,10.45612,107.06498
CRM CN Bà Rịa,"Số 86 - 88 đường Bạch Đằng, phường Phước Trung, thành phố Bà Rịa, Bà Rịa – Vũng Tàu",,<p>Hoạt động 247</p>,10.49594,107.17197
ATM Nhà máy X48,"Số 502 Đặng Châu Tuệ, Quan Hanh, Cẩm Phả, Quảng Ninh",,<p>Hoạt động 247</p>,20.98753,107.19842
CRM CN Quảng Ninh,"Số 156 đường Lê Thánh Tông, phường Bạch Đằng, thành phố Hạ Long, Quảng Ninh",,<p>Hoạt động 247</p>,20.95131,107.08209
ATM Xí nghiệp Than Hoành Bồ,"Xã Tân Dân, huyện Hoành Bồ, Tỉnh Quảng Ninh",,<p>Hoạt động 247</p>,21.14827,106.87749
ATM Xí nghiệp Than Thăng Long,"Số 151 Bà Triệu, Cẩm Đông, Cẩm Phả, Quảng Ninh",,<p>Hoạt động 247</p>,21.00737,107.29276
CRM PGD Cẩm Phả,"Số 352 đường Trần Phú, tổ 7B, phường Cẩm Trung, thành phố Cẩm Phả, Quảng Ninh.",,<p>Hoạt động 247</p>,21.01011,107.27466
CRM PGD Bãi Cháy,"Số nhà 489 đường Hạ Long, tổ 8, khu 9A, phường Bãi Cháy, thành phố Hạ Long, Quảng Ninh",,<p>Hoạt động 247</p>,20.95756,107.02300
ATM PGD Vân Đồn,"Số 404-406, Tổ 1, khu 7, thị trấn Cái Rồng, huyện Vân Đồn, Quảng Ninh",,<p>Hoạt động 247</p>,21.06872,107.42222
ATM Binh đoàn 16,"Ấp 4, xã Đồng Tiến, huyện Đồng Phú, Bình Phước",,<p>Hoạt động 247</p>,11.93319,107.02476
ATM Bộ chỉ huy Quân sự tỉnh Bình Phước,"Số 1438 QL14, Tiến Thành, thị xã Đồng Xoài, Bình Phước",,<p>Hoạt động 247</p>,11.52502,106.84861
CRM CN Bình Phước,"Thửa đất số 225; 226, tờ bản đồ số 45, đường Phú Riềng Đỏ, phường Tân Thiện, Đồng Xoài, Bình Phước",,<p>Hoạt động 247</p>,11.53469,106.90036
CRM Công ty Becamex Bình Phước,"Quốc lộ 14, Minh thành, Chơn Thành, Bình Phước",,<p>Hoạt động 247</p>,11.44253,106.65850
ATM Trường Quân sự Quân khu 9,"Trần Hưng Đạo, phường 2, Sóc Trăng",,<p>Hoạt động 247</p>,9.58322,105.95984
CRM CN Sóc Trăng,"Số 26 đường Lê Duẩn, khóm 7, phường 3, Sóc Trăng",,<p>Hoạt động 247</p>,9.59494,105.97114
ATM Bộ chỉ huy Quân sự tỉnh Sóc Trăng,"ố 567, đường Lê Hồng Phong, Khóm 5, Phường 3, Sóc Trăng",,<p>Hoạt động 247</p>,9.58625,105.97652
ATM Công ty Tân Cảng Hiệp Phước,"Lô A9, Khu A, KCN Hiệp Phước, đường số 1, Long Thới, Nhà Bè, Hồ Chí Minh",,<p>Hoạt động 247</p>,10.64799,106.74179
CRM CN Quận 5,"số 353 – 355 đường An Dương Vương, phường 3, quận 5, Hồ Chí Minh.",,<p>Hoạt động 247</p>,10.75973,106.67885
CRM PGD Quận 8,"Số 829 - 829A đường Tạ Quang Bửu, phường 5, quận 8, Hồ Chí Minh",,<p>Hoạt động 247</p>,10.73591,106.66856
ATM Trung tâm thương mại Satra,"Trung tâm thương mại Satra, số C6/27 đường Phạm Hùng, Bình Chánh, Hồ Chí Minh",,<p>Hoạt động 247</p>,10.73377,106.67449
CRM PGD Lê Đại Hành,"Số 357A - 357C đường Lê Đại Hành, phường 11, quận 11, Hồ Chí Minh.",,<p>Hoạt động 247</p>,10.76687,106.65375
CRM PGD Bình Tân," Số 435 - 441 đường số 7, phường Bình Trị Đông B, quận Bình Tân, Hồ Chí Minh.  ",,<p>Hoạt động 247</p>,10.75192,106.60750
CRM CN Đồng Tháp,"Số 204-206 đường Nguyễn Huệ, phường 2, Cao Lãnh, Đồng Tháp",,<p>Hoạt động 247</p>,10.45861,105.63890
ATM Bộ chỉ huy Quân sự tỉnh Đồng Tháp,"Số 755 đường Phạm Hữu Lầu, phường 6, Cao Lãnh, Đồng Tháp",,<p>Hoạt động 247</p>,10.42634,105.63821
ATM Trung đoàn 9,"Quốc lộ 30, phường 11, Cao Lãnh, Đồng Tháp",,<p>Hoạt động 247</p>,10.49026,105.57359
ATM Công ty Bê tông Hà Thành,"Ấp K12, xã Phú Hiệp, huyện Tam Nông, tỉnh Đồng Tháp",,<p>Hoạt động 247</p>,10.79005,10548990
ATM Trung đoàn 320,"Quốc lộ 30, Phường 11, Cao Lãnh, Đồng Tháp,",,<p>Hoạt động 247</p>,10.49030,105.573.40
CRM PGD Hồng Ngự,"Số 66 - 68 đường Võ Văn Kiệt, phường An Thạnh, Hồng NgựĐồng Tháp",,<p>Hoạt động 247</p>,10.80968,105.34733
ATM/CRM CN Long An,"Số 122 - 124 đường Hùng Vương, phường 6, Tân An, Long An",,<p>Hoạt động 247</p>,10.53837,106.40544
ATM Bộ chị huy Quân sự tỉnh Long An,"Quốc lộ 62 , phường 6 ,Tân An, Long An",,<p>Hoạt động 247</p>,10.82073,106.05912
CRM PGD Đức Hòa,"Số 789E, tổ 5, ấp 5, xã Đức Hòa Đông, huyện Đức Hòa, Long An",,<p>Hoạt động 247</p>,10.51471384,106.34162048
ATM Đội điều trị 78 - Bộ tư lệnh Vùng 5 Hải Quân,"Số 206 đường Nguyễn Văn Cừ, Phường An Thới, Phú Quốc, Kiên Giang",,<p>Hoạt động 247</p>,10.02363,104.01793
CRM PGD An Thới,"Số 54 - 58 đường Nguyễn Văn Cừ, khu phố 3, An Thới, Phú Quốc,Kiên Giang ",,<p>Hoạt động 247</p>,10.40222,103.96492
ATM Tiểu đoàn 565,"Đường Nguyễn Văn Cừ, khu phố 6, An Thới, Phú Quốc, Kiên  Giang",,<p>Hoạt động 247</p>,10.02096,104.010402
CRM CN Kiên Giang,"Số 24 - 28 đường Trần Phú, Vĩnh Thanh,Rạch Giá, Kiên Giang",,<p>Hoạt động 247</p>,10.01689,105.08081
ATM Bộ chỉ huy Biên phòng Kiên Giang,"Số 264 Lâm Quang Ky, Vĩnh Lạc, Rạch Giá, Kiên Giang",,<p>Hoạt động 247</p>,9.99831,105.08793
CRM PGD Tân Hiệp,"Số 103, ấp Đông Hưng, thị trấn Tân Hiệp,Tân Hiêp, Kiên Giang",,<p>Hoạt động 247</p>,10.03110,105.26125
ATM Bộ chỉ huy Quân sự tỉnh Kiên Giang,"Số 382 Lạc Hồng, Vĩnh Lạc, Rạch Giá, Kiên Giang",,<p>Hoạt động 247</p>,9.99328,105.08568
ATM Lữ đoàn Pháo binh 75,"Đường Đồng Khởi,Tân Phong, Biên Hòa, Đồng Nai",,<p>Hoạt động 247</p>,10.97584,106.85055
CRM PGD Tam Hiệp,"Số 76/8 đường Phạm Văn Thuận, phường Tam Hiệp, Biên Hòa, Đồng Nai.",,<p>Hoạt động 247</p>,10.94811,106.94811
CRM PGD Tân Hòa,"Số 78/16, khu phố 8, phường Tân Hòa, Biên Hòa, Đồng Nai. ",,<p>Hoạt động 247</p>,10.96932,106.91105
ATM Lữ đoàn 972 - Cục vận tải Hậu cần,"Khu phố 3, phường Long Bình Tân, Biên Hòa, Đồng Nai",,<p>Hoạt động 247</p>,10.90914,10688322
ATM Trường Sĩ quan Lục Quân 2,"Ấp Long Đức 1, Tam Phước, Long Thành, Đồng Nai",,<p>Hoạt động 247</p>,10.87759,106.95772
ATM Sư đoàn 309,"Phường Long Bình Tân, Biên Hòa, Đồng Nai.",,<p>Hoạt động 247</p>,10.90027,106.85970
ATM Lữ đoàn tăng thiết giáp 22,"Phường Long Bình, Biên Hoà, Đồng Nai",,<p>Hoạt động 247</p>,10.958715,107.5994209
ATM Trung tâm T263,"Khu phố 3,phường Long Bình Tân, Biên Hòa, Đồng Na",,<p>Hoạt động 247</p>,10.90017,106.85352
CRM CN Đồng Nai,"Số K23 đường Võ Thị Sáu, phường Thống Nhất, Biên Hòa, Đồng Nai.",,<p>Hoạt động 247</p>,10.94849,106.83251
ATM Công ty Cơ khí Hóa chất 14,"Tổ 1, Khu phố 7, phường Long Bình, Biên Hoà, Đồng Nai",,<p>Hoạt động 247</p>,10.91680,106.88910
ATM Bệnh viện Âu Cơ,"Số 47/19A Điểu Xiển, khu phố 5B, Tân Biên, Biên Hòa, Đồng Nai",,<p>Hoạt động 247</p>,10.96399,106.88693
CRM CN Long Thành,"Số 301, Lê Duẩn, khu Phước Hải, thị trấn Long Thành, Long Thành, Đồng Nai",,<p>Hoạt động 247</p>,10.78251,106.95121
ATM Trường Hạ Sĩ Quan Xe Tăng 1,"Khu 5 ấp 8, An Phước, Long Thành, Đồng Nai",,<p>Hoạt động 247</p>,10.86425,106.96669
ATM Sư đoàn 302,"Ấp Suối Râm, xã Long Giao, Cẩm Mỹ, Đồng Nai ạ",,<p>Hoạt động 247</p>,10.82229,107.23187
ATM Trung đoàn 88,"Ấp Suối Rậm, xã Long Giao, Cẩm Mỹ, Đồng Nai",,<p>Hoạt động 247</p>,10.87256,107.12277
CRM CN Long Khánh ,"Số N6-N7 đường Hùng Vương, phường Xuân Bình, Long Khánh, Đồng Nai",,<p>Hoạt động 247</p>,10.92979,107.24295
CRM PGD Trảng Bom,"Số 8/3A ấp Thanh Hóa, xã Hố Nai 3,Trảng Bom, Đồng Nai ",,<p>Hoạt động 247</p>,10.96342,106.94239
CRM PGD Xuân Lộc,"Số 132 đường Hùng Vương, khu phố 5, thị trấn Gia Ray, Xuân Lộc, Đồng Nai",,<p>Hoạt động 247</p>,10.92023,107.40084
CRM CN Phú Quốc,"Số 249-251 Nguyễn Trung Trực, khu phố 5, phường Dương Đông, Phú Quốc, Kiên Giang",,<p>Hoạt động 247</p>,10.22459,103.6975
ATM Bộ Tư lệnh vùng Cảnh sát Biển 4,"An Thới, Phú Quốc, Kiên Giang",,<p>Hoạt động 247</p>,10.0742461,104.0185808
ATM Nhà khách T90,"Số 76 Trần Hưng Đạo, khu phố 7, Dương Đông, Phú Quốc, Kiên Giang",,<p>Hoạt động 247</p>,10.20735,103.96305
ATM Bưu điện thành phố Phú Quốc,"Số 10 đường 30/4, khu phố 2, phường Dương Đông, Phú Quốc, Kiên Giang",,<p>Hoạt động 247</p>,10.12578,103.57347
ATM Ấp Ông Lang,"Đường Dương Đông, Cửa Cạn, ấp Ông Lang, Phú Quốc, Kiên Giang",,<p>Hoạt động 247</p>,10.15505,103.56363
ATM Xã Gành Dầu,"Tổ 4, ấp Gành Dầu, xã Gành Dầu, Phú Quốc, Kiên Giang",,<p>Hoạt động 247</p>,10.22227,103.50437
ATM Xã Cửa Cạn,"Ấp Lê Bát, xã Cửa Cạn, Phú Quốc, Kiên Giang",,<p>Hoạt động 247</p>,10.31267,103.92840
ATM Nhà hàng Sóc Nâu,"350 Nguyễn Trung Trực ,khu phố 5, Dương Đông ,Phú Quốc, Kiên Giang",,<p>Hoạt động 247</p>,10.23013,103.98128
ATM Lữ đoàn 950,"Âp Xớm Mới, xã Bãi Thơm, Phú Quốc, Kiên Giang",,<p>Hoạt động 247</p>,10.19510,103.57426
ATM UBND xã Bãi Thơm,"Tổ 4, ấp Đá Chồng, xã Bãi Thơm, Phú Quốc, Kiên Giang",,<p>Hoạt động 247</p>,10.41308,104.03045
ATM Hàm Ninh,"Tổ 1, ấp Rạch Hàm, xã Hàm Ninh, Phú Quốc, Kiên Giang",,<p>Hoạt động 247</p>,10.10303,104.0103
ATM Siêu thị Starmart,"Ngã 3 Suối Mây, ấp Suối Mây, xã Dương Tơ, Phú Quốc, Kiên Giang",,<p>Hoạt động 247</p>,10.17889,10397138
ATM  Ban chỉ huy Quân sự thành phố Lào Cai,"Số 398, đường Hoàng Liên, phường Kim Tân, Lào Cai.",,<p>Hoạt động 247</p>,22.47856,103.97215
ATM Ấp Đường Bào,"Tổ 2, ấp Đường Bào, xã Dương Tơ, Phú Quốc, Kiên Giang",,<p>Hoạt động 247</p>,10.149878,103.979814
ATM Sở tài chính tỉnh Lào Cai,"Tòa nhà Trụ sở Khối 10, Nam Cường, đường Trần Hưng Đạo,Lào Cai",,<p>Hoạt động 247</p>,22.45698,103.99504
CRM CN Lào Cai,"Số 119 đường Hoàng Liên, phường Cốc Lếu,Lào Cai",,<p>Hoạt động 247</p>,22.49657,103.96864
ATM PGD Phố Mới,"Số 74 đường Phan Đình Phùng, tổ 16, phường Lào Cai, Lào Cai",,<p>Hoạt động 247</p>,22.49244,103.97652
CRM PGD Sapa,"Số 196 đường Thạch Sơn, tổ 2, phường SaPa, thị xã SaPa, Lào Cai",,<p>Hoạt động 247</p>,22.33803,103.85043
CRM CN Hưng Yên,"Tòa nhà Viettel Hưng Yên, số 537 đường Nguyễn Văn Linh, phường Hiến Nam, Hưng Yên",,<p>Hoạt động 247</p>,20.65587,106.05857
ATM Công ty may Trường Phúc,"Thôn Phú Cốc, xã Quang Vinh, huyện Ân Thi, Hưng Yên",,<p>Hoạt động 247</p>,20.83723,106.08463
ATM Ban chỉ huy Quân sự tỉnh Hưng Yên,"Số 03 Bạch Đằng, phường Minh Khai, Hưng Yên",,<p>Hoạt động 247</p>,20.64650,106.05185
CRM PGD Châu Giang,"Thửa đất số 123, tờ bản đồ số 06, thị trấn Khoái Châu, huyện Khoái Châu, Hưng Yên",,<p>Hoạt động 247</p>,20.84038,105.98529
ATM Khu công nghiệp Dệt may Phố Nối B,"Xã Dị Sử, huyện Mỹ Hào, Hưng Yên",,<p>Hoạt động 247</p>,20.92669,106.06519
CRM PGD Phố Nối,"Thửa đất số 107, tờ bản đồ số 27, đường Nguyễn Văn Linh, phường Bần Yên Nhân, thị xã Mỹ Hào, Hưng Yên",,<p>Hoạt động 247</p>,20.93440,106.05525
CRM PGD Văn Lâm,"Thửa đất số 291, tờ bản đồ 26, phố Như Quỳnh, thị trấn Như Quỳnh, huyện Văn Lâm, Hưng Yên ",,<p>Hoạt động 247</p>,20.98372,105.97973
ATM Học viện Lục Quân,"Số 2B đường Lữ Gia, phường 9, Đà Lạt, Lâm Đồng",,<p>Hoạt động 247</p>,11.95578,108.46563
CRM CN Lâm Đồng,"Số 26 Phan Đình Phùng, phường 1, Đà Lạt, Lâm Đồng",,<p>Hoạt động 247</p>,11.94282,08.43367
CRM PGD Đức Trọng,"Số 691, quốc lộ 20, khu phố 1, thị trấn Liên Nghĩa, huyện Đức Trọng, Lâm Đồng",,<p>Hoạt động 247</p>,11.73016,108.37219
ATM/CRM CN Bảo Lộc,"Số 33 - 35 Lê Thị Pha, phường 1, Bảo Lộc, Lâm Đồng",,<p>Hoạt động 247</p>,11.54572,107.81026
ATM PGD Mỹ Tho,"Tòa nhà Viettel Tiền Giang, số 66 khu phố 5, đường Đinh Bộ Lĩnh, phường 9, Mỹ Tho, Tiền Giang",,<p>Hoạt động 247</p>,10.35165,106.38595
ATM Bệnh viện Quân y 120,"Số 518 Nguyễn Thị Thập, phường 6, Mỹ Tho,Tiền Giang ",,<p>Hoạt động 274</p>,10.35577,106.34002
ATM Ban chỉ huy Quân sự tỉnh Tiền Giang,"Số 01 Hùng Vương, phường 1, Mỹ Tho, Tiền Giang",,<p>Hoạt động 247</p>,10.35559,106.36307
ATM Khu công nghiệp Long Giang,"Xã Tân Lập 1, huyện Tân Phước, Tiền Giang ",,<p>Hoạt động 247</p>,10.47609,106.30493
CRM CN Tiền Giang,"Số 116 đường Nam Kỳ Khởi Nghĩa, phường 1, Mỹ Tho, Tiền Giang",,<p>Hoạt động 247</p>,10.36174,106.36207
ATM Công ty Hồng Ân,"Ấp Cầu Dừa, xã Mỹ Phước Tây, thị xã Cai Lậy, Tiền Giang",,<p>Hoạt động 247</p>,10.45516,106.11180
ATM Trại rắn Đồng Tâm,"Xã Bình Đức, huyện Châu Thành, Tiền Giang",,<p>Hoạt động 247</p>,10.35281,106.29697
ATM PGD Cai Lậy,"Tòa nhà công ty Cổ phần Dược phẩm CALAPHARCO, Quốc lộ 1, phường 4, thị xã Cai Lậy, Tiền Giang",,<p>Hoạt động 247</p>,10.40496,106.12851
CRM PGD Lâm Hà,"Số 750 Hùng Vương, thị trấn Đinh Văn, huyện Lâm Hà, Lâm Đồng",,<p>Hoạt động 247</p>,11.78863,108.24363
ATM Bộ chỉ huy Quân sự tỉnh Cà Mau,"Số 500 đường Trần Văn Thời, khóm 4, phường 6, Cà Mau",,<p>Hoạt động 247</p>,9.51971,105.18680
ATM Bộ chi huy Bộ đội Biên phòng Cà Mau,"Số 379 Ngô Quyền, khóm 1, phường Tân Xuyên, Cà Mau.",,<p>Hoạt động 247</p>,9.20492,105.12837
ATM/CRM CN Cà Mau,"Số 44-46 đường Hùng Vương, phường 5, Cà Mau",,<p>Hoạt động 247</p>,9.17955,105.15346
ATM/CRM CN Thái Bình,"Tòa nhà  Viettel Thái Bình, số 431 phố Trần Hưng Đạo, phường Trần Hưng Đạo, Thái Bình",,<p>Hoạt động 247</p>,20.44286,106.33213
ATM Bộ chỉ huy Quân sự tỉnh Thái Bình,"Số 2 đường Lý Bôn, Tiền Phong, Thái Bình",,<p>Hoạt động 247</p>,20.46600,106.32535
ATM Công ty Sao Vàng Thái Bình,"Khu công nghiệp Quỳnh Côi, xã Quỳnh Mỹ, huyện Quỳnh Phụ, Thái Bình",,<p>Hoạt động 247</p>,20.64604,106.32519
CRM PGD Hưng Hà,"Đường 39A, khu Nhân Cầu 1, thị trấn Hưng Hà, huyện Hưng Hà, Thái Bình",,<p>Hoạt động 247</p>,20.58860,106.22749
CRM PGD Thái Thụy,"Tổ dân phố số 6, thị trấn Diêm Điền, huyện Thái Thụy, Thái Bình",,<p>Hoạt động 247</p>,20.56458,106.56556
CRM CN Hà Tĩnh,"Số 80 Phan Đình Phùng, phường Nam Hà, Hà Tĩnh",,<p>Hoạt động 247</p>,18.3399887,105.9041100
ATM Bộ chỉ huy Bộ đội Biên phòng tỉnh Hà Tĩnh,"Số 275 đường Vũ Quang,phường Thạch Linh, Hà Tĩnh",,<p>Hoạt động 247</p>,18.3389010,105.8761367
ATM PGD Trần Phú,"Số 207, đường Trần Phú, phường Trần Phú, thành phố Hà Tĩnh",,<p>Hoạt động 247</p>,18.3450937,105.8891449
ATM Bộ chỉ huy Quân sự tỉnh Bắc Giang,"Xã Tân Mỹ, Bắc Giang",,<p>Hoạt động 247</p>,21.26868,106.16342
ATM Công ty TTB ,"Xã Bích Sơn, huyện Việt Yên, Bắc Giang",,<p>Hoạt động 247</p>,21.36381,106.10159
ATM Công ty Tín Phát,"Khu công nghiệp Đại Lâm, xã Đại Lâm, huyện Lạng Giang, Bắc Giang",,<p>Hoạt động 247</p>,21.31393,106.28637
ATM Lữ đoàn Tăng thiết giáp 203,"Xã Đông Hưng, huyện Lục Nam, Bắc Giang",,<p>Hoạt động 247</p>,21.3849552,106.8581093
CRM CN Bắc Giang,"Tòa nhà Viettel Bắc Giang lô A4, làn 2, đường Nguyễn Thị Minh Khai, phường Hoàng Văn Thụ, Bắc Giang",,<p>Hoạt động 247</p>,21.28210,106.20868
ATM Công ty Gu Vina,"Khu công nghiệp Việt Tiến, huyện Việt Yên, Bắc Giang",,<p>Hoạt động 247</p>,21.30729,106.05095
ATM Sư đoàn 365,"Xã Tân Hưng, huyện Lạng Giang, Bắc Giang",,<p>Hoạt động 247</p>,21.37729,106.29055
CRM  PGD Lục Nam,"Số 375 phố Bình Minh, thị trấn Đồi Ngô, huyện Lục Nam, Bắc Giang",,<p>Hoạt động 247</p>,21.33101,106.38619
CRM CN Bình Thuận,"Tòa nhà Viettel Bình Thuận, khu dân cư Hùng Vương, đường Tôn Đức Thắng, phường Phú Thủy, Phan Thiết, Bình Thuận",,<p>Hoạt động 247</p>,10.93958,108.11199
ATM Bộ chỉ huy Quân sự tỉnh Bình Thuận,"Số 02 Thủ Khoa Huân, phường Bình Hưng, Phan Thiết, Bình Thuận.",,<p>Hoạt động 247</p>,10.93138,1085.10116
CRM PGD Bắc Bình,"Số 433 đường Nguyễn Tất Thành, khu phố Xuân Hội, thị trấn Chợ Lầu, huyện Bắc Bình,Bình Thuận",,<p>Hoạt động 247</p>,11.22180,108.49995
ATM Bộ chỉ huy Quân sự tỉnh Hà Nam,"Số 57 Lý Thường Kiệt, Lê Hồng Phong, Phủ Lý, Hà Nam",,<p>Hoạt động 247</p>,20.54035,105.90853
ATM Khu công nghiệp Đồng Văn I,"Đường quốc lộ 1A, Thị trấn Đồng Văn, huyện Duy Tiên,Hà Nam.",,<p>Hoạt động 247</p>,20.66146,105.92674
CRM CN Hà Nam,"Tòa nhà Viettel Hà Nam, quốc lộ 1A đường Lê Hoàn, phường Hai Bà Trưng, Phú Lý, Hà Nam",,<p>Hoạt động 247</p>,20.54071,105.91238
ATM Công ty Xây dựng Minh Anh,"Khu công nghiệp Kiện Khê I, thị trấn Kiện Khê, huyện Thanh Liêm, Hà Nam",,<p>Hoạt động 247</p>,20.49789,105.90160
ATM Khu công nghiệp Đồng Văn IV,"Xã Đại Cương, huyện Kim Bảng, Hà Nam.",,<p>Hoạt động 247</p>,20.64059,105.88926
CRM PGD Duy Tiên,"Thửa đất số 02 tờ bản đồ PL số 07, khu tập thể xí nghiệp Giống cây trồng Trung Ương, phường Đồng Văn, thị xã Duy Tiên, Hà Nam",,<p>Hoạt động 247</p>,20.64664,105.92483
ATM Thị trấn Cát Thành,"Thị trần Cát Thành, Trực Ninh, Nam Định",,<p>Hoạt động 247</p>,20.25795,106.26909
ATM Công ty X20 Nam Định,"Lô 1 khu công nghiệp Hòa Xá, phường Mỹ Xá, Nam Định",,<p>Hoạt động 247</p>,20.42316,10613858
ATM Công ty CP Lâm sản Nam Định,"Xã Thành Lợi, huyện Vụ Bản, Nam Định",,<p>Hoạt động 247</p>,20.43267,106.14795
CRM CN Nam Định,"Tòa nhà đa năng số 625 đường Trần Hưng Đạo, phường Lộc Vượng, Nam Định,",,<p>Hoạt động 247</p>,20.43428,106.16594
ATM Công ty Nam Hà,"Lô 4 Cụm công nghiệp Nghĩa Sơn, xã Nghĩa Sơn, huyện Nghĩa Hưng, Nam Định",,<p>Hoạt động 247</p>,20.19603,106.17978
CRM PGD Hải Hậu,"Xóm 17 xã Hải Hưng, huyện Hải Hậu, Nam Định",,<p>Hoạt động 247</p>,20.20716,106.30087
CRM PGD Ý Yên,"Cụm CN Làng Nghề TMDV Phía nam TT Lâm, huyện Ý Yên, Nam Định.",,<p>Hoạt động 247</p>,20.31871,106.02374
CRM PGD Thành Nam,"Số 69 phố Lê Hồng Phong, phường Nguyễn Du, Nam Định",,<p>Hoạt động 247</p>,20.42774,106.17853
ATM Lữ đoàn 139,"Xã Long Sơn, huyện Lương Sơn, Hòa Bình",,<p>Hoạt động 247</p>,20.68077,105.63027
ATM Bộ chỉ huy Quân sự tỉnh Hòa Bình,"Đường Lý Thường Kiệt, phường Chăm Mát, Hòa Bình",,<p>Hoạt động 247</p>,20.81302,105.34659
ATM Kho K850 ,"Xã Quy Hậu, huyện Tân Lạc, Hòa Bình",,<p>Hoạt động 247</p>,20.61754,105.25899
CRM CN Hòa Bình,"Tòa nhà Viettel, tổ 8, phường Quỳnh Lâm, Hòa Bình ",,<p>Hoạt động 247</p>,20.81874,105.34631
ATM Bệnh viện Hòa Bình,"Tổ 10, phường Đồng Tiến, Hòa Bình.",,<p>Hoạt động 247</p>,20.85098,105.35083
CRM CN Sơn La,"Tòa nhà Viettel, số 1 Chu Văn Thịnh, phường Tô hiệu, Sơn La",,<p>Hoạt động 247</p>,21.32810,103.91386
CRM PGD Mộc Châu,"Số 4 đường Lê Thanh Nghị, thị trấn Nông Trường Mộc Châu, huyện Mộc Châu, Sơn La.",,<p>Hoạt động 247</p>,20.83751,104.68103
ATM Trung tâm Hành chính huyện Vân Hồ,"Xã Vân Hồ, huyện Vân Hồ, Sơn La",,<p>Hoạt động 247</p>,20.81023,104.78250
ATM Đoàn an dưỡng 20,"Số 9 Hoàng Diệu, Vĩnh Nguyên, Nha Trang, Khánh Hòa",,<p>Hoạt động 247</p>,12.22119,109.20243
ATM Bệnh viên Quân y 87,"Số 8 Tuệ Tĩnh, Lộc Thọ, Nha Trang, Khánh Hòa",,<p>Hoạt động 247</p>,12.23156,109.19489
ATM/CRM CN Khánh Hòa,"Số 09 đường Lê Thánh Tôn, phường Lộc Thọ, Nha Trang, Khánh Hòa.",,<p>Hoạt động 247</p>,12.24598,109.19109
ATM Đại học Khánh Hòa,"Số 01 Nguyễn Chánh, phường Lộc Thọ, Nha Trang, Khánh Hòa.",,<p>Hoạt động 247</p>,12.65391,109.22053
ATM Nhà hàng Bia tươi Louisiane," Lô 29 Trần Phú, Lộc Thọ, Nha Trang, Khánh Hòa",,<p>Hoạt động 247</p>,12.23171,10919880
ATM Khách sạn Mường Thanh Viễn Triều,"Đường Phạm Văn Đồng, phường Vĩnh Phước, Nha Trang, Khánh Hòa",,<p>Hoạt động 247</p>,12.27515,109.20127
CRM PGD Nha Trang,"Lô số 199, khu dân cư Nam và Bắc đường Phong Châu, phường Phước Hải, Nha Trang, Khánh Hòa",,<p>Hoạt động 247</p>,12.23600,109.17583
CRM PGD Hoàng Diệu,"Số 27/21 đường 7B, phường Phước Long, Nha Trang, Khánh Hòa",,<p>Hoạt động 247</p>,12.21838,109.19613
ATM Bệnh viện Nhiệt Đới,"Đường 23/10, thôn Phú Ân Nam 1, xã Diên An, huyện Diên Khánh, Khánh Hòa.",,<p>Hoạt động 247</p>,12.25858,109.10893
ATM Học viện Hải Quân,"Số 30 Trần Phú, Vĩnh Nguyên, Nha Trang, Khánh Hòa",,<p>Hoạt động 247</p>,12.21734,109.20672
CRM PGD Vĩnh Hải,"Số 554 đường 2 tháng 4, phường Vĩnh Phước, Nha Trang, Khánh Hòa",,<p>Hoạt động 247</p>,12.27629,109.197.30
ATM Trung đoàn 274,"Đường Nguyễn Công Trứ, phường Cam Nghĩa, Cam Ranh, Khánh Hòa",,<p>Hoạt động 247</p>,11.59175,109.10009
ATM Lữ đoàn 101,"Xã Cam Thành Bắc, huyện Cam Lâm, Khánh Hòa",,<p>Hoạt động 247</p>,12.02416,109.18841
ATM Sư đoàn 377,"Phường Cam Phúc Bắc, Cam Ranh, Khánh Hòa",,<p>Hoạt động 247</p>,11.96118,109.18227
CRM CN Cam Ranh,"Số 151 đường Nguyễn Chí Thanh, phường Cam Nghĩa, Cam Ranh, Khánh Hòa",,<p>Hoạt động 247</p>,11.98186,109.19336
ATM Đài Truyền hình - Truyền Thanh Cam Lâm,"Đường Đinh Tiên Hoàng, Cam Hải Tây, Cam Lâm, Khánh Hòa",,<p>Hoạt động 247</p>,12.07347,109.15739
CRM PGD Hùng Vương,"Số 2136-2138 đại lộ Hùng Vương, phường Cam Lộc, Cam Ranh, Khánh Hòa",,<p>Hoạt động 247</p>,11.91715,109.14479
CRM Bệnh viên đa khoa tỉnh Ninh Thuận,"Đường Nguyễn văn Cừ, phường Văn Hải, Phan Rang – Tháp Chàm, Ninh Thuận",,<p>Hoạt động 247</p>,11.58071,109.00442
ATM Siêu thị Co.opmart Cam Ranh,"Số 2 Hùng Vương, Cam Lộc, Cam Ranh, Khánh Hòa",,<p>Hoạt động 247</p>,11.91860,109.14545
ATM Bộ chỉ huy Quân sự tỉnh Nghệ An,"Số 49 đường Lê Hồng Phong, phường Hưng Bình, Vinh, Nghệ An",,<p>Hoạt động 247</p>,18.67744,105.68305
ATM Trường Quân sự Quân khu 4,"Xã Nam Anh, huyện Nam Đàn, Nghệ An,",,<p>Hoạt động 247</p>,18.74560,105.53645
ATM Lữ đoàn xe tăng 125,"xã Quỳnh Châu, huyện Quỳnh Lưu, Nghệ An",,<p>Hoạt động 247</p>,19.21188,105.53441
ATM Kho K866,"Xóm 20, xã Nghĩa Thuận, thị xã Thái Hòa, Nghệ An",,<p>Hoạt động 247</p>,19.25097,105.52136
ATM Khu Công nghiệp Bắc Vinh ,"Đường Đặng Mai, Vinh, Nghệ An",,<p>Hoạt động 247</p>,18.70869,105.65382
CRM CN Nghệ AN,"Số 2 đường Nguyễn Thị Minh Khai, phường Hưng Bình, Vinh, Nghệ An",,<p>Hoạt động 247</p>,18.75720,105.68501
ATM PGD Diễn Châu,"Khối 4, Thị Trấn Diễn Châu, huyện Diễn Châu, Nghệ An ",,<p>Hoạt động 247</p>,19.07167,105.61430
ATM Bệnh viện Quân y 4,"Đường Lê Viết Thuật, Xã Hưng Lộc, Vinh, Nghệ An",,<p>Hoạt động 247</p>,18.69584,105.70507
CRM PGD Hà Huy Tập ," Tòa nhà Viettel, đường Lê Nin, phường Hà Huy Tập, Vinh, Nghệ An",,<p>Hoạt động 247</p>,18.80265,105.66374
CRM PGD Trung Đô,"Số 191 đường Lê Duẩn, khối 7, phường Trung Đô, Vinh, Nghệ An.",,<p>Hoạt động 247</p>,18.65986,105.69450
ATM Khu công nghiệp Phú Nghĩa,"Đầu đường Thanh Niên, khu công Nghiệp Phú Nghĩa,  xã Phú Nghĩa, huyện Chương Mỹ, Hà Nội",,<p>Hoạt động 247</p>,20.93465,105.65746
ATM Tòa nhà Sparks,"khu đô thị Dương Nội, quận Hà Đông; Hà Nội",,<p>Hoạt động 247</p>,20.96281,105.74647
ATM Kho 708 - Cục Quân y,"Xã Liên Ninh, huyện Thanh Trì, Hà Nội",,<p>Hoạt động 247</p>,20.90584,105.85108
ATM Nhà máy in Bộ Quốc Phòng,"Đường Lưu Phái, Ngũ Hiệp, huyệnThanh Trì, Hà Nội",,<p>Hoạt động 247</p>,20.93032,105.85283
CRM PGD Lê Lợi,"Tòa nhà số 6 Trưng Vương, phường Lê Lợi, thị xã Sơn Tây, Hà Nội",,<p>Hoạt động 247</p>,21.14018,105.50688
CRM PGD Ba Vì,"Thửa đất số 253, tờ bản đồ số 04, thôn Vĩnh Phệ, xã Chu Minh, huyện Ba Vì, Hà Nội.",,<p>Hoạt động 247</p>,21.21236,105.42846
ATM Trường trung cấp 24 Biên phòng,"Khu B, xã Cẩm Linh, huyện Ba Vì, Hà Nội",,<p>Hoạt động 247</p>,21.16817,105.37779
ATM Trường trung cấp kỹ thuật Công Binh,"Xã Phú Sơn, Huyện Ba Vì, Hà Nội",,<p>Hoạt động 247</p>,21.25166,105.34771
ATM Kho 332 - Cục Kỹ thuật Quân chủng Phòng không Không quân,"Thôn Ngọc Nhị, Xã Cẩm Lĩnh, huyện Ba Vì, Hà Nộ",,<p>Hoạt động 247</p>,21.19476,105.34744
ATM/CRM Bệnh viện Quân y 105,"Số 2 Chùa Thông,phường Sơn Lộc, Sơn Tây, Hà Nội",,<p>Hoạt động 247</p>,21.11706,105.49624
ATM Đại học Công nghiệp Việt-Hung,"Số 16 Hữu Nghị, Xuân Khanh, Sơn Tây, Hà Nội",,<p>Hoạt động 247</p>,21.11154,105.44506
ATM Công ty Z175,"Số 75 Xuân Sơn, thị xã Sơn Tây, Hà Nội",,<p>Hoạt động 247</p>,21.14260,105.45271
ATM Công ty Thông Tin M3,"Mỹ Chung, phường Xuân Khanh, thị xã Sơn Tây, Hà Nội",,<p>Hoạt động 247</p>,21.12174,105.44264
ATM Trường cao đẳng Quân y 1,"Phường Sơn Lộc, thị xã Sơn Tây, Hà Nội.",,<p>Hoạt động 247</p>,21.12099,105.50099
ATM Nhà máy Z151,"Phường Xuân Khanh, thị Xã Sơn Tây, Hà Nội",,<p>Hoạt động 247</p>,21.11263,105.46574
ATM Trường cao đẳng Kỹ thuật Thông tin,"Thôn Ké Mới , xã Tản Lĩnh ,huyện Ba Vì, Hà Nội",,<p>Hoạt động 247</p>,21.10012,105.10560
ATM Công ty TNHH MTV 43,"Thôn Liên Minh, xã Thụy An, huyện Ba Vì, Hà Nội",,<p>Hoạt động 247</p>,21.15697,105.40820
ATM Nhà máy X61,"Sơn Đông, thị Xã Sơn Tây, Hà Nội",,<p>Hoạt động 247</p>,21.08826,105.49909
ATM Trung tâm huấn luyện 334,"Xã Bình Yên, huyện Thạch Thất, Hà Nội",,<p>Hoạt động 247</p>,21.03023,105.51939
CRM CN Sơn Tây,"Số 279 - 281 Chùa Thông, phường Sơn Lộc, thị xã Sơn Tây, Hà Nội",,<p>Hoạt động 247</p>,21.12475,105.50118
ATM Trường sỹ quan Lục quân 1,"Xã Cổ Đông, Thị Xã Sơn Tây, Hà Nội",,<p>Hoạt động 247</p>,21.05549,105.51255
ATM Trường Sĩ quan Pháo binh,"Xã Thanh Mỹ, thị xã Sơn Tây, Hà Nội",,<p>Hoạt động 247</p>,21.11423,105.48483
ATM Học viện Phòng không - Không quân,"Xã Trung Sơn Trầm, thị xã Sơn Tây, Hà Nội",,<p>Hoạt động 247</p>,21.10082,105.48480
ATM Lữ đoàn 28,"Xuân Phương, Nam Từ Liêm, Hà Nội",,<p>Hoạt động 247</p>,21.05037,105.73661
ATM Lữ đoàn 21," Km 11 Quốc Lộ 32, Phú Diễn, Bắc Từ Liêm, Hà Nội",,<p>Hoạt động 247</p>,21.04532,105.75481
ATM Bệnh viện đa khoa huyện Đan Phượng,"Thị trấn Phùng, Đan Phượng, Hà Nội",,<p>Hoạt động 247</p>,21.08756,105.67108
CRM PGD Đan Phượng,"Km 21 Quốc Lộ 32, thị trấn Phùng, huyện Đan Phượng, Hà Nội.",,<p>Hoạt động 247</p>,21.58060,104.65359
CRM PGD Trung Văn,"Tầng 1, tòa nhà HH2 Bắc Hà, số 15 phố Tố Hữu, phường Nhân Chính, quận Thanh Xuân, Hà Nội.",,<p>Hoạt động 247</p>,20.99905,105.79509
ATM Tòa nhà Viettel Thanh Hóa,"Đại lộ Lê Lợi, phường Đông Hương, Thanh Hoá",,<p>Hoạt động 247</p>,19.83713,105.80053
ATM Đoàn an điều dưỡng 296 ,"Số 52 Đường Nguyễn Du, phường Bắc Sơn, thị xã Sầm Sơn, Thanh Hoá",,<p>Hoạt động 247</p>,19.77904,105.91186
ATM Lữ đoàn 368,"Khu phố 6 phường Ngọc Trạo, Bỉm Sơn, Thanh Hóa",,<p>Hoạt động 247</p>,20.09692,105.85974
ATM Sư đoàn 390,"Khu phố 13, phường Ngọc Trạo, thị xã Bỉm Sơn, Thanh Hóa",,<p>Hoạt động 247</p>,20.07839,105.82523
ATM Bộ chỉ huy Bộ đội Biên phòng tỉnh Thanh Hóa,"Số 31 Cột Cờ, phường Tân Sơn, Thanh Hoá",,<p>Hoạt động 247</p>,19.80771,105.77206
ATM Sư đoàn 341,"Đông Tân, Đông Sơn, Thanh Hoá",,<p>Hoạt động 247</p>,19.80778,105.74107
ATM Công ty TCE JEANS,"Thôn 1 Lê Lợi, xã Hoằng Đồng, huyện Hoằng Hoá, Thanh Hoá",,<p>Hoạt động 247</p>,19.83588,105.85071
CRM CN Thanh Hóa,"Số 54-56-60 Trần Phú, phường Điện Biên, Thanh Hóa",,<p>Hoạt động 247</p>,19.80988,105.77694
ATM Nhà máy Z111,"Số 284 đường Bà Triệu, phường Đông Thọ, Thanh Hoá",,<p>Hoạt động 247</p>,19.82864,105.77262
ATM Công ty khoáng sản Đại Dương,"Xã Trường Lâm,huyện Tĩnh Gia,Thanh Hóa",,<p>Hoạt động 247</p>,19.31588,105.81664
CRM PGD Nghi Sơn,"Số nhà 96-98 đường Đào Duy Từ, tiểu khu 5, phường Hải Hòa, thị xã Nghi Sơn, Thanh Hóa",,<p>Hoạt động 247</p>,19.44600,105.77843
ATM Công ty TNHH InovGreen Thanh Hóa,"Khu công nghiệp số 1, khu kinh tế Nghi Sơn, phường Mai Lâm, thị xã Nghi Sơn, Thanh Hoá",,<p>Hoạt động 247</p>,19.40016,105.75294
ATM Trung đoàn 923,"Sao Vàng, Thọ Xuân, Thanh Hóa",,<p>Hoạt động 247</p>,19.88807,10546241
CRM PGD Lam Sơn,"Tiểu khu 6, Thị trấn Lam Sơn, huyện Thọ Xuân, Thanh Hóa",,<p>Hoạt động 247</p>,19.89934,105.40695
ATM Công ty cổ phần An Hưng,"Khu công nghiệp Hòa Hiệp, xã Hòa Hiệp Nam, Đông Hòa, Phú Yên",,<p>Hoạt động 247</p>,13.01427,109.36217
ATM Trung đoàn Không quân 910,"Thôn Phước Lâm, xã Hòa Hiệp Bắc, huyện Đông Hòa, Phú Yên",,<p>Hoạt động 247</p>,13.03183,109.33888
CRM Bưu điện tỉnh Phú Yên,"Đại lộ Hùng Vương, xã Bình Kiến, Tuy Hòa, Phú Yên",,<p>Hoạt động 247</p>,13.08771,109.30712
ATM Bộ chỉ huy Quân sự tỉnh Bến Tre,"Ấp 3, xã Sơn Đông, thành phố Bến Tre, Bến Tre",,<p>Hoạt động 247</p>,10.26314,106.33751
CRM CN Bến Tre,"Thửa đất số 266, tờ bản đồ số 38, phường Phú Khương, thành phố Bến Tre, Bến Tre",,<p>Hoạt động 247</p>,10.24960,106.37328
ATM Công ty TNHH Tỷ Bách ," Lô D khu công nghiệp Bình Minh, ấp Mỹ Hưng 2, xã Mỹ Hòa, thị xã Bình Minh, Vĩnh Long",,<p>Hoạt động 247</p>,10.03820,105.82392
CRM CN Vĩnh Long,"Số 1D - 1E đường Hoàng Thái Hiếu, phường 1, thành phố Vĩnh Long, Vĩnh Long.",,<p>Hoạt động 247</p>,10.25516,105.97311
ATM Công ty TNHH Thiết Lập ,"Lô A3 khu công nghiệp Hòa Phú, huyện Long Hồ, Vĩnh Long",,<p>Hoạt động 247</p>,10.17898,105.93483
ATM Bộ chỉ huy Quân sự tỉnh Vĩnh Long,"Số 16A/7 Phan Văn Đáng, ấp Tân An, xã Tân Hạnh, huyện Long Hồ, Vĩnh Long",,<p>Hoạt động 247</p>,10.51566,106.03431
ATM Đại học Lâm Nghiệp,"Thị trấn Xuân Mai, huyện Chương Mỹ, Hà Nội",,<p>Hoạt động 247</p>,20.91197,105.57692
ATM Trung đoàn 102,"Xã Phú Mãn, huyện Quốc Oai, Hà Nội",,<p>Hoạt động 247</p>,20.95963,105.53430
ATM Điện lực Chương Mỹ,"Số 38 Yên Sơn, Thuỵ Hương, Chương Mỹ, Hà Nội",,<p>Hoạt động 247</p>,20.91559,105.70137
ATM Kho J106,"Xã Thủy Xuân Tiên, huyện Chương Mỹ, Hà Nội",,<p>Hoạt động 247</p>,20.88891,105.58350
ATM Công ty Eland Việt Nam,"Số 76/28 đường Nguyễn Thị Nê, ấp Phú Mỹ, xã Phú Hòa Đông, huyện Củ Chi, Hồ Chí Minh",,<p>Hoạt động 247</p>,11.02031,106.55466
ATM Công ty Impulse Fashion Việt Nam,"Số 1482 tỉnh Lộ 8, xã Tân Thạnh Đông, huyện Củ Chi, Hồ Chí Minh",,<p>Hoạt động 247</p>,10.98288,106.59045
CRM CN Củ Chi ,"Thửa đất số 71 và 72, tờ bản đồ số 19, thị trấn Củ Chi, huyện Củ Chi, Hồ Chí Minh",,<p>Hoạt động 247</p>,10.97177,106.48405
ATM Bộ chỉ huy Quân sự tỉnh Trà Vinh,"Đường Nguyễn Thị Minh Khai, phường 7, Trà Vinh",,<p>Hoạt động 247</p>,9.92684,106.32877
CRM CN Trà Vinh,"Số TRV-PG2-05, TRV-PG2-05A, TRV-PG2-06, khóm 3, phường 2, Trà Vinh",,<p>Hoạt động 247</p>,9.93554,106.33758
ATM/CRM CN Sở Giao Dịch 3,"Tòa nhà MB, số 21 Cát Linh, Đống Đa, Hà Nội",,<p>Hoạt động 247</p>,21.02868,105.83089
ATM PGD Nhơn Trạch ,"Lô B-1, B-2, B-3, khu dân cư Thăng Long Home Hiệp Phước, đường TL25B, ấp 3, xã Hiệp Phước, huyện Nhơn Trạch, Đồng Nai",,<p>Hoạt động 247</p>,10.73917,106.95343
ATM Công ty TNHH Đức Toàn,"KTT Nhơn Hội, thành phố Quy Nhơn, tỉnh Bình Định",,<p>Hoạt động 247</p>,13.831289,109.269507
CRM PGD Hoàng Mai,"Khu chung cư @Homes, ô đất C11-ODK4, phường Yên Sở, quận Hoàng Mai, Hà Nội ",,<p>Hoạt động 247</p>,20.97353,105.87210
CRM PGD Yên Viên,"Số 467 đường Hà Huy Tập, thị trấn Yên Viên, huyện Gia Lâm, Hà Nội",,<p>Hoạt động 247</p>,21.09556,105.92298
CRM PGD Trần Hưng Đạo ,"Tòa nhà số 03 phố Lương Yên ""Sun Grand City Ancora Residence"", phường Bạch Đằng, quận Hai Bà Trưng, Hà Nội ",,<p>Hoạt động 247</p>,21.01148,105.86341
ATM Bộ tư lệnh Bảo vệ Lăng Chủ tịch Hồ Chí Minh,"Số 18A Lê Hồng Phong, Điện Biên, Ba Đình, Hà Nội",,<p>Hoạt động 247</p>,21.03466,105.83365
CRM CN Gia Lai,"Số 08 Lê Lai, phường Tây Sơn, Pleiku, Gia Lai.",,<p>Hoạt động 247</p>,13.97937,107.99890
ATM Bênh viện Tâm Anh - Hồ Chí Minh,"Số 2B đường Phổ Quang, phường 2, quận Tân Bình, Hồ Chí Minh",,<p>Hoạt động247</p>,10.80358,106.66628
ATM Than Khánh Hòa - Thái Nguyên,"Xã Sơn Cẩm, huyện Phú Lương, Thái Nguyên",,<p>Hoạt động 247</p>,21.64713,105.78469
CRM PGD Tân Phú,"Số 835 – 837 đường Lũy Bán Bích, phường Tân Thành, quận Tân Phú, Hồ Chí Minh",,<p>Hoạt động 247</p>,10.78901,106.63691
CRM PGD Phú Xuân,"Số 2049 Huỳnh Tấn Phát, khu phố 6, thị trấn Nhà Bè, huyện Nhà Bè, Hồ Chí Minh",,<p>Hoạt động 247</p>,11.06877,106.71550
ATM Ban chỉ huy Quân sự huyện Thanh Trì,"Số 67 đường Cổ Điển, Văn Điển, Thanh Trì, Hà Nội",,<p>Hoạt động 247</p>,20.94215,105.84635
CRM PGD Quận 10,"Số 327-329 Tô Hiến Thành, phường 13, quận 10, Hồ Chí Minh.",,<p>Hoạt động 247</p>,10.77934,106.66505
CRM PGD Nguyễn Công Chứ,"Số 307 - 309 - 311 đường Nguyễn Công Trứ, phường Bích Đào, Ninh Bình",,<p>Hoạt động 247</p>,20.24718,105.98624
ATM Sư đoàn 9,"Xã Phước Vĩnh An, huyện Củ Chi, Hồ Chí Minh",,<p>Hoạt động 247</p>,10.99797,106.51120
CRM PGD Võ Nguyên Giáp,"Khu dự án đô thị Ven sông Lạch Tray, phường Vĩnh Niệm, quận Lê Chân, Hải Phòng.",,<p>Hoạt động 247</p>,20.82482,106.69268
ATM Trường Cao đẳng Công nghiệp Quốc phòng,"Phường Thanh Vinh, thị xã Phú Thọ, Phú Thọ",,<p>Hoạt động 247</p>,21.42154,105.18932
CRM PGD Đền Hùng,"Trạm khách T44, quân Khu II, khu 1, phường Vân Phú, thành phố Việt Trì, Phú Thọ",,<p>Hoạt động 247</p>,21.36311,105.34968
ATM UBND Xã Mỹ An,"Tỉnh lộ 944, ấp Mỹ Trung, xã Mỹ An, huyện Chợ Mới, An Giang",,<p>Hoạt động 247</p>,10.449784,105.532111
ATM Công ty may Tuyên Quang LGG,"Km 13, tổ 11, phường Đội Cấn, Tuyên Quang",,<p>Hoạt động 247</p>,21.71719,105.22843
ATM Nhà máy Z183,"Xã Minh Quán, huyện Trấn Yên, Yên Bái",,<p>Hoạt động 247</p>,21.77266,104.84675
CRM PGD Hạ Long,"Số 328, tổ 1B, khu 6A, phường Hồng Hải, Hạ Long, Quảng Ninh",,<p>Hoạt động 247</p>,20.95179,107.10550
ATM Bưu điện huyện Đồng Phú,"Khu phố Tân An, thị trấn Tân Phú, huyện Đồng Phú, Bình Phước",,<p>Hoạt động 247</p>,11.45048,106.87151
CRM PGD Bình Long,"Thửa đất số 204, Tờ bản đồ 35, khu phố Phú Trung, phường An Lộc, thị xã Bình Long, Bình Phước",,<p>Hoạt động 247</p>,11.65106,106.60798
ATM Công ty Thiết bị Điện ,"Khu công nghiệp Long Đức, xã Long Đức, huyện Long Thành, Đồng Nai",,<p>Hoạt động 247</p>,10.84326,106.97775
ATM Bưu điện thành phố Đà Lạt,"Số 2A Lê Đại Hành, phường 1, Đà Lạt, Lâm Đồng",,<p>Hoạt động 247</p>,11.94102,108.43698
CRM PGD Phan Chu Trinh,"Số 15 khu nhà ở TM, đường Phan Chu Trinh, phường Điện Biên, Thanh Hóa",,<p>Hoạt động 247</p>,19.81194,105.77476
CRM PGD AN Nhơn,"Số 86-88 Nguyễn Gia Tự, phường Bình Định, thị xã An Nhơn, tỉnh Bình Định",,<p>Hoạt động 247</p>,13.888665,109.117665
