Name,Address,Phone,Latitude,Longitude
Techcombank Đường 3 tháng 2,"Số 574 Đường 3 tháng 2, phường 14, quận 10, TP. Hồ Chí Minh",028 3866 9430,10.76608,106.66380
Techcombank Ba Đình,"Số 168 Ngọc Khánh, phường Giảng Võ, quận Ba Đình, TP. Hà Nội",024 3724 5959,21.0252400,105.8186500
Techcombank Láng Hạ,"Số 101 Láng Hạ, phường Láng Hạ, quận Đống Đa, TP. Hà Nội",02437301988/ 02437301968,21.0139800,105.8135400
Techcombank Lạng Sơn,"Số 42, đường Lý Thái Tổ, phường Đông Kinh, thành phố Lạng Sơn, tỉnh Lạng Sơn",(0205) 371.3968,21.8456944,106.76225
Techcombank Lãnh Binh Thăng,"Số 308 Đường Lãnh Binh Thăng, Phường 11, quận 11, TP. Hồ Chí Minh",028 3965 1370,10.76467,106.64795
Techcombank Lào Cai,"Số 002 đường Hoàng Liên, thành phố Lào Cai, tỉnh Lào Cai",2143822595,22.5013500,103.9661500
Techcombank Lê Đức Thọ,"Số 631 Lê Đức Thọ, phường 16, quận Gò Vấp, TP. Hồ Chí Minh",028 5446 7555,10.84763,106.66842
Techcombank Lê Hồng Phong,"Lô 22B đường Lê Hồng Phông, Đông Khê, Ngô Quyền, Hải Phòng",(0225) 3722869,20.8482500,106.7058500
Techcombank Lê Quang Định,"Số 205A đường Nguyễn Xí, phường 26, quận Bình Thạnh, TP. Hồ Chí Minh",028 6297 7186,10.81620,106.70682
Techcombank Lê Văn Sỹ,"Số 184 A đường Lê Văn Sỹ, phường 10, quận Phú Nhuận,TP. Hồ Chí Minh",028 3991 5968,10.79320,106.67019
Techcombank Linh Đàm,"Số CC2A, Khu đô thị mới Bắc Linh Đàm, phường Đại Kim, quận Hoàng Mai, TP. Hà Nội",024 3641 6088,20.9683300,105.8272900
Techcombank Lĩnh Nam,"Số 18 Tam Trinh, phường Minh Khai, quận Hai Bà Trưng, TP. Hà Nội",024 3632 1265,20.9950800,105.8619400
Techcombank Bà Triệu,"Tầng 1 và tầng 2 ngôi nhà số 333 Trần Khát Chân, phường Thanh Nhàn, quận Hai Bà Trưng, TP. Hà Nội",024 3976 0055,21.0090300,105.8571000
Techcombank Lò Đúc,"Số 108, ngõ Hòa Bình 6, tổ 15B, phường Minh Khai, quận Hai Bà Trưng, thành phố Hà Nội.",024 3972 8118,20.99572,105.85462
Techcombank Long An,"Gian hàng L1-07 và ,L2-05-09, Trung tâm thương mại Plaza Vincom Long An, đường Hùng Vương, phường 1, Tp. Tân An, Tỉnh Long An",02723.525.788,10.53429,106.40983
Techcombank Long Khánh,"Số 47A, Nguyễn Du, Khu phố 1, phường Xuân An, TP. Long Khánh, tỉnh Đồng Nai.",0251 3879 639,10.92389,107.23964
Techcombank Long Thành,"Tổ 10, KP3 khu Phước Hải, thị trấn Long Thành, tỉnh Đồng Nai",0251 354 4003,10.78560,106.94949
Techcombank Smart City,"Cửa hàng số 01SH05, tòa S2.05 – Z29M.1 (F1-CH02-2), dự án Khu đô thị mới Tây Mỗ, Đại Mỗ, Vinhomes Park (Vinhomes Smart City), phường Tây Mỗ, quận Nam Từ Liêm, thành phố Hà Nội.",024 3926 3405,21.0070100,105.7369600
Techcombank Hai Bà Trưng,"Số 57A Phan Chu Trinh, phường Phan Chu Trinh, quận Hoàn Kiếm, thành phố Hà Nội",024 3972 5550,21.0134800,105.8511700
Techcombank Mã Vòng,"A5 (Tầng trệt) Chung cư Vĩnh Phước, đường 2/4, phường Vĩnh Phước, thành phố Nha Trang, tỉnh Khánh Hòa.",0258 356 1414,12.27407,109.19773
Techcombank Mê Linh,"Thôn Yên Nhân, xã Tiền Phong, huyện Mê Linh, TP.  Hà Nội.",024 3818 5778,21.1501100,105.7573000
Techcombank Minh Phụng,"Khu A, tầng 7, tòa nhà Q. Mobile, số 36 đường Phan Đăng Lưu, phường 7, quận Bình Thạnh, TP. Hồ Chí Minh.",028 3551 0410,10.80391,106.68815
Techcombank Phổ Yên,"Tiểu khu 4, Phường Ba Hàng, Thị Xã Phổ Yên, Thái Nguyên",0208. 384.1566,21.4146300,105.8623700
Techcombank Bắc Giang,"Số nhà 289, 291, 293, 295 đường Nguyễn Thị Minh Khai, phường Dĩnh Kế, thành phố Bắc Giang, tỉnh Bắc Giang",(0204) 626-0088,21.2811900,106.2079100
Techcombank Móng Cái,"Số 10 đường Hùng Vương, phường Trần Phú, Tp. Móng Cái, tỉnh Quảng Ninh",2033777088,21.5284600,107.9698100
Techcombank Mỹ Phước,"Ô 18 & Ô 19, lô C, KDC Mỹ Phước 4, phường Mỹ Phước, thị xã Bến Cát, tỉnh Bình Dương.",0274 355 6544,11.14567,106.60056
Techcombank Nam Định,"Số nhà 85, 87, 89 đường Đông A, phường Lộc Hòa, thành phố Nam Định, tỉnh Nam Định",0228.352.8686,20.435978,106.157713
Techcombank Hapulico,"Số 54F Vũ Trọng Phụng, phường Thanh Xuân Trung, quận Thanh Xuân, thành phố Hà Nội",024 3566 7946/ 48,20.9985121,105.8091129
Techcombank Nam Sài Gòn,"Một phần ngôi nhà số 146 -148 Khánh Hội, phường 9, quận 4, TP. Hồ Chí Minh",028 36222840/ 028 36222841/ 028 36222842/ 028 36222843,10.75764,106.70021
Techcombank Lê Thánh Tông,"Gian số L1 - 15A tầng 1 Vincom Megamail Hải Phòng, số 1 Lê Thánh Tông, phường Máy Tơ, quận Ngô Quyền, TP Hải Phòng",(0225)3757886,20.86594,106.69156
Techcombank Ngã Tư Sở,"Số 78 Nguyễn Trãi, phường Thượng Đình, quận Thanh Xuân, TP. Hà Nội",024 3562 6156,21.0003900,105.8153200
Techcombank Nghệ An,"Tầng 1 tòa nhà CT1A Handico 30 Quang Trung, TP. Vinh, tỉnh Nghệ An.",238 358 8328,18.67571,105.67457
Techcombank Ngô Gia Tự,"Số 46 Ngô Gia Tự, phường Đức Giang, quận Long Biên, TP. Hà Nội",024 3652 5176,21.05818,105.89122
Techcombank Ngô Quyền,"Căn số SB.01 khu đô thị Vinhomes Marina, phường Vĩnh Niệm, quận Lê Chân, thành phố Hải Phòng.",0225 384 7668,20.82178,106.69231
Techcombank Bắc Hải,"Số 58C, đường Đồng Nai, phường 15, quận 10, TP. Hồ Chí Minh.",028 3977 1427,10.77819,106.66370
Techcombank Ngọc Khánh,"Gian hàng L1-10 và L2-10A Tầng 1 và tầng 2 khu TTTM Vincom Center Liễu Giai thuộc dự án Tổ hợp trung tâm thương mại, văn phòng và căn hộ cao cấp – Vinhomes Metropolis tại số 29 Liễu Giai, phường Ngọc Khánh, quận Ba Đình, thành phố Hà Nội.",024 3775 5389,21.0312600,105.8138200
Techcombank Ngọc Lâm,"Số 60 phố Ngọc Lâm, P. Ngọc Lâm, Quận Long Biên, TP. Hà Nội",024 3873 7865,21.04467,105.86799
Techcombank Nam Thăng Long,"432 Phạm Văn Đồng, Bắc Từ Liêm, Hà Nội",024 3662 8812,21.0586652,105.7832066
Techcombank Nguyễn Ảnh Thủ,"Số 130/3 đường Nguyễn Ảnh Thủ, Ấp Trung Chánh 1, xã Trung Chánh, huyện Hóc Môn, TP. Hồ Chí Minh",028 5447 4811,10.86393,106.61279
Techcombank Yên Phong,"Lô CC1, đường YP2, KCN Yên Phong, huyện Yên Phong, tỉnh Bắc Ninh","0222.3699919/ 0222.3699918",21.2045700,105.9533500
Techcombank Nguyễn Chí Thanh,"Khu B, một phần tầng 2, số 78–80–82 Hậu Giang, phường 2, quận 6, TP. Hồ Chí Minh.",028 3960 3949,10.74997,106.64667
Techcombank Nguyễn Cơ Thạch,"Tòa A1Vinhomes Gardenia, đường Hàm Nghi, phường Cầu Diễn, quận Nam Từ Liêm, Hà Nội",024 32010942,21.0362400,105.7602000
Techcombank Thường Tín,"Tầng 2,3,4 ngôi nhà số 120 phố Ga, thị trấn Thường Tín, huyện Thường Tín, thành phố Hà Nội.",024 3323 4163,20.87303,105.86378
Techcombank Nguyễn Khánh Toàn,"136 Nguyễn Khánh Toàn, Phường Quan Hoa, Cầu Giấy, HN",024 6269 0205,21.0384100,105.8003800
Techcombank Nguyễn Kiệm,"L1- 01, L2 - 02, Tầng L1 và L2 Khu cao ốc văn phòng và Căn hộ chung cư, số 5B đường Phổ Quang, phường 2, quận Tân Bình, TP. Hồ Chí Minh",028 6290 9191,10.80599,106.66653
Techcombank Bắc Ninh,"Gian hàng L1-04 & L2-05 tại Trung tâm thương mại Vincom Plaza Lý Thái Tổ, Ngã 6, phường Suối Hoa, TP. Bắc Ninh, tỉnh Bắc Ninh",(0222) 3811 989,21.1778700,106.0725900
Techcombank Nguyễn Oanh,"Số 110 - 112 Nguyễn Oanh, phường 1, quận Gò Vấp, TP. Hồ Chí Minh",028 3989 7631,10.82894,106.67900
Techcombank Nguyễn Sơn,"Số 301 Nguyễn Sơn, P. Phú Thạnh, Q. Tân Phú, TP. Hồ Chí Minh",028 3861 2805,10.78376,106.62325
Techcombank Nguyễn Sỹ Sách,"Số 28B đường Nguyễn Sỹ Sách, phường Hưng Bình, thành phố Vinh, tỉnh Nghệ An",0238 356 0327,18.6864800,105.6803300
Techcombank Nguyễn Tất Thành," TM.B.01 sàn thương mại số 01 và TM.B.02 sàn thương mại số 02, tầng trệt, khối tháp B thuộc Nhà Chung Cư, số 132 đường Bến Vân Đồn, phường 9, quận 4, TP.  Hồ Chí Minh.",028 3941 3231,10.76295,106.69985
Techcombank Nguyễn Thái Sơn,"Số 233 Nguyễn Thái Sơn, phường 1,  quận Gò Vấp, TP. Hồ Chí Minh",028 6295 7535,10.82519,106.68759
Techcombank Hoàng Đạo Thúy,"Tầng 1, Tòa nhà 29 T2, Đường Hoàng Đạo Thúy, phường Trung Hòa, quận Cầu Giấy, TP. Hà Nội",024 6251 1032,21.0073000,105.8023700
Techcombank Nguyễn Văn Linh,"Tầng 2, tòa nhà Capital Tower, số 6 Nguyễn Khắc Viện, phường Tân Phú, quận 7, thành phố Hồ Chí Minh.",028 541 20001,10.72859,106.72023
Techcombank Nguyễn Văn Trỗi,"Tầng trệt, tầng lửng và lầu 1 Tòa nhà Số 203 Nam Kỳ Khởi Nghĩa, Phường 7, quận 3, TP. Hồ Chí Minh",028 3932 6834,10.78755,106.68608
Techcombank Nha Trang,"Trung tâm Thương mại VinCom Plaza, số 44 – 46 đường Lê Thánh Tôn, TP. Nha Trang, tỉnh Khánh Hòa.",0258 381 8177,12.24259,109.19401
Techcombank Nhuệ Giang,"Số 56 - 58 Lê Lợi, phường Quang Trung, quận  Hà Đông, TP. Hà Nội",024 3352 9876,20.97037,105.77834
Techcombank Hạ Long,"Số nhà 599, đường Hạ Long, KDC du lịch Đông Hùng Thắng, phường Bãi Cháy, thành phố Hạ Long, tỉnh Quảng Ninh.",(203) 361 1946,20.9779500,107.0100700
Techcombank Ninh Bình,"Số 848 đường Trần Hưng Đạo, phường Tân Thành, Tp. Hoa Lư, tỉnh Ninh Bình",0229.388.8369,20.2589800,105.9702600
Techcombank Nội Bài,"Tầng 1 và tầng 2 khu nhà văn phòng 3 tầng, tòa nhà NTS, cảng hàng không QT Nội Bài, Xã Phú Minh, huyện Sóc Sơn, TP.  Hà Nội.",024 3584 0538,21.2114700,105.8061400
Techcombank Pasteur,"Số 86-88 Nguyễn Công Trứ, phường Nguyễn Thái Bình, Quận 1, TP. Hồ Chí Minh",028 38 212155,10.76967,106.70271
Techcombank Phan Chu Trinh,"Số 97 Phan Chu Trinh, phường Phước Ninh, quận Hải Châu, TP. Đà Nẵng",(236) 626-0088,16.06618,108.22020
Techcombank Minh Khai,"Số 225 - 227, đường Xô Viết Nghệ Tĩnh, Phường 17, Quận Bình Thạnh, Thành phố Hồ Chí Minh.",028 3910 5324,10.80022,106.71098
Techcombank Phan Xích Long,"Số 80 - 82 Phan Xích Long, phường 2, quận Phú Nhuận, TP. Hồ Chí Minh",028 5449 2304,10.79940,106.68533
Techcombank Manhattan,"Căn nhà mã số NX-LP-82, thuộc dự án Khu Dân cư và Công viên Phước Thiện (Vinhomes Grand Park), phường Long Bình và Long Thạnh Mỹ, thành phố Thủ Đức (Quận 9 cũ), thành phố Hồ Chí Minh.",,10.83759,106.83182
Techcombank Phố Hiến,"Số 594 đường Nguyễn Văn Linh, phường Hiến Nam, thành phố Hưng yên, tỉnh Hưng yên",0221 3868088,20.6653100,106.0583100
Techcombank Phong Phú,"Số 314 A Đường Chánh Hưng - phường 5, quận 8, TP. Hồ Chí Minh",028 36225523 /028 36225524 /028 36225520 /028 36225526,10.73959,106.66907
Techcombank Phủ Lỗ,"Số nhà 196, đường 2, Phù Lỗ, Sóc Sơn, Hà Nội",024 3884 9305,21.1980700,105.8381000
Techcombank Bát Đàn,"Số 34 Bát Đàn, phường Hàng Bồ, quận Hoàn Kiếm, TP. Hà Nội",024 3923 2932,21.0337800,105.8470900
Techcombank Phú Mỹ Hưng,"Toà nhà Capital Towner, Số 6 Nguyễn Khắc Viện, phường Tân Phú, quận 7, TP. Hồ Chí Minh",028 541 20001,10.72859,106.72023
Techcombank Sài Gòn,"Một phần tầng 1, tầng 2 tòa nhà số 23 đường Lê Duẩn, Phường Bến Nghé, Quận 1, thành phố Hồ Chí Minh.",028 3911 6868,10.78385,106.70205
Techcombank Phú Thọ,"Số 447 Lê Đại Hành, phường 11, quận 11, TP. Hồ Chí Minh",028 3962 5344,10.76854,106.65229
Techcombank Cantavil An Phú,"84E đường số 2, khu phố 8, phường Trường Thọ, thành phố Thủ Đức, thành phố Hồ Chí Minh",028 3511 9884,10.83631,106.75332
Techcombank Phú Xuân,"1873, Huỳnh Tấn Phát,KP5, TT Nhà Bè, huyện Nhà Bè, TP. Hồ Chí Minh",028 3873 9707,10.69956,106.73863
Techcombank Phúc Yên,"Số 84 đường Trần Hưng Đạo,tổ 8, phường Trưng Trắc, TP. Phúc Yên, tỉnh Vĩnh Phúc",(0211)35113 05/06,21.23344,105.70596
Techcombank An Khánh,"Tầng 1 và tầng 2 ngôi nhà tại địa chỉ A7-NV1 ô số 8 và ô số 9, Khu đô thị mới hai bên đường Lê Trọng Tấn, xã An Khánh, huyện Hoài Đức, TP. Hà Nội.",024 33103288,21.0013900,105.7329400
Techcombank Tân Xuân,"Tòa N5, Ecohome 3, phường Đông Ngạc , quận Bắc Từ Liêm, Hà Nội",024 3868 9999,21.0850689,105.78525
Techcombank Pleiku,"39 đường Nguyễn Tất Thành, phường Hoa Lư, TP Pleiku, Gia Lai",0269 372 3999,13.983137,108.00924
Techcombank Lacasa,"Một phần tầng trệt ngôi nhà số C2 - C3 khu dân cư Vạn Phát Hưng, khu phố 4, phường Phú Thuận, quận 7, thành phố Hồ Chí Minh. (Hai nhà hợp khối).",028 3833 0124,10.71435,106.73962
Techcombank Bàu Cát,"Số 189 - 191 Bàu Cát phường 14, quận Tân Bình, TP. Hồ Chí Minh",028 3849 2565,10.79210,106.64368
Techcombank Quận 5,"Số 284A An Dương Vương, Phường 4, quận 5, TP. Hồ Chí Minh",028 3839 2010,10.76065,106.68145
Techcombank Quận 6,"Một phần nhà 439 Nguyễn Văn Luông, phường 12, quận 6, TP. Hồ Chí Minh",028 3817 0812,10.75236,106.63471
Techcombank Quảng Nam,Số 84 Phan Chu Trinh - Phường An Mỹ - TP. Tam Kỳ - Tỉnh Quảng Nam,0235 3818 989,15.57176,108.48463
Techcombank Quảng Ngãi,"Số 26 Lê Thánh Tôn, phường Nghĩa Chánh, TP. Quảng Ngãi, tỉnh Quảng Ngãi (Nhà ở số PG1-01 và PG1-02).",0255 371 7999,15.11374,108.81056
Techcombank Quảng Ninh,"Gian số L1 -19, l2 – 10B, tầng L1, L2, trung tâm thương mại Vimcom Center – Hạ Long, Khu Cột đồng Hồ, phường Bạch Đằng, TP. Hạ Long, tỉnh Quảng Ninh.",(203) 3820966,20.9500600,107.0843800
Techcombank Quang Trung,"Số 170 C Quang Trung, phường 10, quận Gò Vấp, TP. Hồ Chí Minh",028 5446 3304,10.82900,106.67375
Techcombank Quy Nhơn,"Số 600 đường Trần Hưng Đạo, phường Thị Nại, thành phố Quy Nhơn, tỉnh Bình Định",0256 382 1444,13.782907,109.221063
Techcombank Sài Đồng,"Căn hộ 6 nhà N01B, đô thị mới Sài Đồng, phường Phúc Đồng, quận Long Biên, TP. Hà Nội",024 3674 0667,21.03882,105.90382
Techcombank Sala,"Số 107 Nguyễn Cơ Thạch, phường An Lợi Đông, thành phố Thủ Đức (Quận 2 cũ), thành phố Hồ Chí Minh.",028 6258 6350,10.76977,106.72420
Techcombank Trung tâm giao dịch Hội Sở,"Số 06 phố Quang Trung, phường Trần Hưng Đạo, quận Hoàn Kiếm, Tp. Hà Nội",024 3944 6368,21.02395,105.84895
Techcombank Phan Văn Hớn,"Một phần tầng trệt ngôi nhà số 148 Phan Văn Hớn, phường Tân Thới Nhất, quận 12, thành phố Hồ Chí Minh.",028 62970944,10.82923,106.61686
Techcombank Sao Mai,"Số 337 - 339 Nguyễn An Ninh, p9, TP. Vũng tàu, tỉnh Bà Rịa-Vũng Tàu",0254 359 5654,10.36770,107.08582
Techcombank Sóc Sơn,"Thửa đất số 00, tờ bản đồ 00 lô 4-5 khu A II-7 khu đấu giá quyền sử dụng đất thị trấn Sóc Sơn, huyện Sóc Sơn, Hà Nội",02435955398/ 02435955399,21.2559300,105.8481400
Techcombank Sóc Trăng,"Số PG01- 01 đường Trần Hưng Đạo, khóm 1, phường 2, TP. Sóc Trăng, tỉnh Sóc Trăng.",0299.362.7990,9.59676,105.97087
Techcombank Sơn Tây,"Số 269 - 271 Chùa Thông, phường Sơn Lộc, thị xã Sơn Tây, TP. Hà Nội",024 3361 8968,21.1241400,105.5009600
Techcombank Dĩ An,"Số 198-200 GS01, Khu đô thị - thương mại - dịch vụ Quảng Trường Xanh khu phố Tây A, phường Đông Hòa, thành phố Dĩ An, tỉnh Bình Dương",0274 379 6002,10.89512,106.76816
Techcombank Tam Hiệp,"Số R64-R65 đường Võ Thị Sáu, phường Thống Nhất, thành phố Biên Hòa, tỉnh Đồng Nai.",2513915377,10.94680,106.82744
Techcombank Tân Bình,"Số 99A 1 - 2 - 3 Cộng Hòa, phường 4, quận Tân Bình, TP. Hồ Chí Minh",028 3811 7533,10.80106,106.65483
Techcombank Tân Định,"Số 122 Trần Quang Khải, phường Tân Định, quận 1, TP. Hồ Chí Minh",028 5404 7450,10.79214,106.69225
Techcombank Tân Hưng Thuận,"Số 40 Vườn Lài, phường Tân Thành, Quận Tân Phú, thành phố Hồ Chí Minh.",028 3592 1826,10.78734,106.63467
Techcombank Biên Hòa,"Số 39, đường Đồng Khởi, phường Bình Đa, Tp.  Biên Hòa, tỉnh Đồng Nai",0251.3857.155,10.95468,106.86679
Techcombank Tân Hương,"Số 125 Tân Sơn Nhì, phường Tân Sơn Nhì, quận Tân Phú, thành phố Hồ Chí Minh.",028 3559 4205,10.80099,106.63326
Techcombank Tân Phú,"Số 264 Luỹ Bán Bích, phường Hòa Thạnh, quận Tân Phú, TP. Hồ Chí Minh",028 3860 5033,10.77269,106.63234
Techcombank Tân Qui,"Số 340 Nguyễn Thị Thập, phường Tân Qui, quận 7, TP. Hồ Chí Minh",028 3771 5888,10.73874,106.71239
Techcombank Tân Sơn Nhất,"Số 38-40, Hồng Hà, phường 02, quận Tân Bình, TP. Hồ Chí Minh.",028 3848 9853,10.81318,106.66768
Techcombank Global City,"Số 480, đường Liên Phường, phường Phước Long B, thành phố Thủ Đức (Quận 9 cũ), Thành phố Hồ Chí Minh.",028 3762 0569,10.80534,106.79061
Techcombank Tân Thuận,"Số 340 Huỳnh Tấn Phát, phường Bình Thuận, quận 7, TP. Hồ Chí Minh",028 36204061/ 028 36204062,10.74954,106.72855
Techcombank Tây Ninh,"Số 512, KP1, đường 30/4, phường 3, Tp. Tây Ninh, tỉnh Tây Ninh",0276 364 7777,11.323615,106.101905
Techcombank Tây Sài Gòn,"Một phần tầng 1 ngôi nhà, số 56 Út Tịch, phường 4, quận Tân Bình, thành phố Hồ Chí Minh.",028 6292 3489,10.79660,106.65855
Techcombank Thái Bình,"Vincom phố Lý Bôn, số 460 Lý Bôn, phường Lê Hồng Phong, TP. Thái Bình",02273 645477,20.44455,106.33702
Techcombank Thái Nguyên,"462 – 464 đường Lương Ngọc Quyến, phường Đồng Quang, thành phố Thái Nguyên, tỉnh Thái Nguyên",0208. 375. 3989,21.58561,105.832499
Techcombank 30/4,"Số 429 Đường 30/04, Phường Rạch Dừa, TP. Vũng Tàu, tỉnh Bà Rịa-Vũng Tàu",0254 361 6181,10.39746,107.11003
Techcombank Trần Quốc Hoàn,"Số 16 lô 11A Trung Hoà, phường Yên Hòa, quận Cầu Giấy, TP. Hà Nội",024 3782 0668,21.0151100,105.8013200
Techcombank Thái Thịnh,"Lô số 109 tầng 1, 102 Thái Thịnh, phường Trung Liệt, quận Đống Đa, TP. Hà Nội",024 3537 8288,21.00893,105.81985
Techcombank Thăng Long,"Số 181 Nguyễn Lương Bằng, P Quang Trung, quận Đống Đa, TP. Hà Nội",024 2220 8989,21.01488,105.82806
Techcombank Suncity,"Số 3 - 7 đường Nguyễn Phước Lan, phường Hòa Xuân, quận Cẩm Lệ, thành phố Đà Nẵng.",0236 381 9898,16.02271,108.22512
Techcombank Thanh Đa,"Số 633 - 635 Xô Viết Nghệ Tĩnh, phường 26, quận Bình Thạnh, TP. Hồ Chí Minh",028 3899 7227,10.81131,106.71402
Techcombank Thanh Hóa,"Gian hàng số L1- 03B và L2 - 11B tại TTTM Vincom Plaza Trần Phú, Thanh Hóa, số 27 đường Trần Phú, phường Điện Biên,TP. Thanh Hóa, tỉnh Thanh Hóa.",237 385 8999,19.8096300,105.7772800
Techcombank Đà Thành," Số 83, Nguyễn Thị Minh Khai, phường Hải Châu, quận Hải Châu, Tp.  Đà Nẵng.",0236 357 2999,16.07199,108.21866
Techcombank Thanh Xuân,"Số 467 Nguyễn Trãi, phường Thanh Xuân Bắc, quận Thanh Xuân, TP. Hà Nội",024 3554 2698,20.99019,105.80186
Techcombank Thảo Điền,"Số 214 Nguyễn Văn Hưởng, phường Thảo Điền, TP. Thủ Đức (Quận 2 cũ), TP. Hồ Chí Minh",028 6281 9156,10.81258,106.73198
Techcombank The Manor,"Một phần tầng 1 tòa nhà HH3, Sudico - khu đô thị Mỹ Đình, Mễ Trì, phường Mỹ Đình 1, quận Nam Từ Liêm, TP. Hà Nội",024 37940439,21.0165100,105.7795200
Techcombank Thống Nhất,"Số 237 - 239 Lê Thanh Nghị, phường Thanh Nghị, TP. Hải Dương, tỉnh Hải Dương",(0220) 3835 866,20.93051,106.32214
Techcombank Bình Đăng,"Số 338 - 340 Liên Tỉnh 5, phường 6, quận 8, TP. Hồ Chí Minh",028 38282114 /028 38282113,10.73321,106.65578
Techcombank Thủ Đức,"Số 102, LK1-2, đường Đặng Văn Bi, phường Bình Thọ, TP. Thủ Đức, TP. Hồ Chí Minh",028 3722 5086,10.84395,106.76262
Techcombank Thuận Kiều,"Số 44 Xuân Quỳnh, phường Phước Long B, thành phố Thủ Đức (Quận 9 cũ), thành phố Hồ Chí Minh.",028 38539885/028 38539886,10.81530,106.77786
Techcombank Thụy Khuê,"Số 152, Phường Thụy Khuê, phường Thụy Khuê Quận Tây Hồ, TP. Hà Nội",024 3728 2631,21.04331,105.82239
Techcombank Thủy Nguyên,"Số 104 đường Bạch Đằng, Thị trấn Núi Đèo, huyện Thuỷ Nguyên, TP. Hải Phòng",(0225) 3642288,20.9201400,106.6791100
Techcombank Tiên Du,"Số 106 Lý Thường Kiệt, thị trấn Lim, huyện Tiên Du, tỉnh Bắc Ninh",0222.371.1989,21.1426400,106.0175300
Techcombank Tiền Giang,"Căn PG01-01 và PG01-02, Dự án Trung tâm thương mại và Shophouse Vincom Mỹ Tho, số 1A đường Hùng Vương, phường 1, TP. Mỹ Tho, tỉnh Tiền Giang.",0273 397 3979,10.35718,106.36397
Techcombank Quế Võ,"94 Trần Hưng Đạo, Phố Mới, Quế Võ, Bắc Ninh",0222.374.4968,21.1535500,106.1537200
Techcombank Hồng Lạc,"Số 795-795A, Lạc Long Quân, phường 10, quận Tân Bình, TP. Hồ Chí Minh (Hai nhà hợp khối).",028 3868 7801,10.78277,106.65060
Techcombank Tô Hiệu,"Số 71 Tô Hiệu, phường Trại Cau, quận Lê Chân, TP. Hải Phòng",(0225) 3 700866,20.8516600,106.6839900
Techcombank Tô Ký,"Số 121 Tô Ký, phường Đông Hưng Thuận, quận 12, TP. Hồ Chí Minh",028 3622 7751,10.84810,106.63389
Techcombank Bình Dương,"106, đại lộ Bình Dương, khu 7, phường Phú Hòa, TP Thủ Dầu Một, tỉnh Bình Dương",0274 3842422,10.9698065,106.677743
Techcombank Trần Bình,"Căn hộ N3C1 nhà số 3 khu nhà ở để bán, phường Mỹ Đình I, Nam Từ Liêm, TP. Hà Nội",024 6287 0061,21.0297100,105.7752100
Techcombank Trần Đăng Ninh,"Số 257 -259 đường Trần Đăng Ninh, tổ 8, phường Dịch Vọng, quận Cầu Giấy, TP. Hà Nội",024 3793 2993,21.0393700,105.7914400
Techcombank Trần Điền,"Ô số 104 và 106 Dự án tòa nhà hỗn hợp An Bình 1 – Khu đô thị mới Định Công, phường Định Công, quận Hoàng Mai, TP. Hà Nội",024 3640 0596,20.9847600,105.8334800
Techcombank Trần Duy Hưng,"Tầng 1, CT1, Tòa nhà Vimeco, Nguyễn Chánh, phường Trung Hòa, quận Cầu Giấy, TP. Hà Nội",024 2225 0286,21.0088300,105.7945200
Techcombank Trần Não,"Số 125, KP3, Trần Não, phường An Khánh, TP. Thủ Đức, TP. Hồ Chí Minh",028 3740 2587,10.79262,106.73082
Techcombank Lumiere,"Một phần tầng trệt ngôi nhà số 602/27, đường Điện Biên Phủ, phường 22, quận Bình Thạnh, Thành phố Hồ Chí Minh",028 3931 5715,10.79801,106.71788
Techcombank Trần Thái Tông,"Một phần ngôi nhà tại tầng 1 và tầng 2 số 79 phố Trần Thái Tông, phường Dịch Vọng, quận Cầu Giấy, TP. Hà Nội",024 3795 0505,21.0308400,105.7879000
Techcombank Trung Yên,"Số 12 lô 01B Khu đô thị Trung Yên, phường Trung Hòa, quận Cầu Giấy, TP. Hà Nội",024 3783 5062,21.0156400,105.7978200
Techcombank Trường Chinh,"Số 826A Đường Trường Chinh, phường 15, quận Tân Bình, TP. Hồ Chí Minh",028 3815 8384,10.81917,106.63141
Techcombank Trương Định," Tầng 1 tòa nhà Mandarin garden 2, Hòa Phát, số 99 Tân Mai, phường Tân Mai, quận Hoàng Mai, TP. Hà Nội (493 Trương Định)",024 3642 5033,20.98387,105.84796
Techcombank BÌNH HÒA,"Số 362A Lê Quang Định, phường 11, quận Bình Thạnh, thành phố Hồ Chí Minh.",028 3516 2702,10.81083,106.69219
Techcombank Trường Sơn,"Tầng 2 (hai) khu B, tòa nhà Agrex Building, số 58, Võ Văn Tần, phường 6, quận 3, Thành phố Hồ Chí Minh.",028 39304532 - 123,10.77777,106.69108
Techcombank Phạm Văn Chí,"Số 601A, Phạm Văn Chí, phường 07, quận 06, thành phố Hồ Chí Minh",028 3812 9043,10.74075,106.63974
Techcombank Từ Liêm,"Số 30 phố Nhổn, phường Tây Tựu, quân Bắc Từ Liêm, TP. Hà Nội",024 3780 5197,21.0550200,105.7320900
Techcombank Uông Bí,"Số 470 Quang Trung, phường Quang Trung, TP. Uông Bí, Tỉnh Quảng Ninh",(203) 356.6992,21.0345200,106.7702500
Techcombank Văn Cao,"Số 195 Văn Cao, phường Đằng Giang, quận Ngô Quyền, Tp. Hải Phòng",(0225)3653168/69,20.8357600,106.7015500
Techcombank Dương Nội,"C64 - LK20 ô số 6, Khu đô thị mới hai bên đường Lê Trọng Tấn, phường Dương Nội, quận Hà Đông, thành phố Hà Nội.",024 3568 3556,20.9870600,105.7382200
Techcombank Văn Quán,"Số 96+98 đường 19/5 phường Văn Quán, quận Hà Đông, TP. Hà Nội",024 3354 3327,20.9751200,105.7878500
Techcombank Văn Thánh,"Số 561 đường Điện Biên Phủ, Phường 25. quận Bình Thạnh, TP. Hồ Chí Minh",028 3512 6269,10.79959,106.71903
Techcombank Việt Hưng,"Ô số A41, Lô Biệt thự BT7, khu đô thị mới Việt Hưng, phường Việt Hưng, quận Long Biên,TP. Hà Nội",024 36574404,21.0600400,105.9070100
Techcombank Việt Trì,"Khu Trung tâm thương mại VINCOM PLAZA Việt Trì, phố Đoàn Kết, phường Tiên Cát,TP. Việt Trì, tỉnh Phú Thọ.",(0210) 3815 027,21.31273,105.39561
Techcombank Bình Phú,"Số 137 - 139 Chợ Lớn, khu dân cư Bình Phú, phường 11, quận 6, TP. Hồ Chí Minh",028 3755 3291,10.74543,106.63104
Techcombank Starcity,"Lô số 129 và lô số 131, đường A4, khu đô thị VCN Phước Hải, phường Phước Hải, thành phố Nha Trang, tỉnh Khánh Hòa.",0258 3835444,12.24124,109.17767
Techcombank Vĩnh Long,"Gian L1-06, tầng 1, Trung Tâm Thương Mại Vincom Plaza Vĩnh Long, số 55 đường Phạm Thái Bường, khóm 3, phường 4, thành phố Vĩnh Long, tỉnh Vĩnh Long.",0270 385 4999,10.24576,105.97749
Techcombank Vĩnh Phúc,"Số 324 đường Mê Linh, phường Liên Bảo, thành phố Vĩnh Yên, tỉnh Vĩnh Phúc",(0211) 3847297,21.31396,105.60891
Techcombank Võ Văn Ngân,"Số 6 Võ Văn Ngân, khu phố 1, phường Trường Thọ, quận Thủ Đức, TP. Hồ Chí Minh",028 3720 2478,10.85097,106.75566
Techcombank Vũng Tàu,"Số 2, 2A, 2B, 2C, 2D Lê Hồng Phong, Phường 4, thành phố Vũng Tàu, tỉnh Bà Rịa - Vũng Tàu",0254 359 5656,10.36149,107.075618
Techcombank Xa La,"Số 2 biệt thự 8 khu đô thị Xa La, phường Phúc La, quận Hà Đông, TP. Hà Nội",024 3311 5673,20.9628300,105.7920400
Techcombank Phạm Văn Đồng,"234 Phạm Văn Đồng, phường Cổ Nhuế 1, quận Bắc Từ Liêm, TP. Hà Nội",024 6664 2451,21.0516200,105.7797700
Techcombank Xuân Mai,"Thửa đất số 62 tờ bản đồ số 43 tại địa chỉ thửa đất khu Xuân Hà, thị trấn Xuân Mai, huyện Chương Mỹ, thành phố Hà Nội.  Hoặc Số 9 – Tổ 4 – Khu Xuân Hà – TT.Xuân Mai – H.Chương Mỹ - TP. HN",024 3372 4954,20.9029300,105.5791300
Techcombank Yên Bái,"Gian hàng Techcombank, L1 – 03, L1 – 02D, L2 – 02A, tầng 1, tầng 2 khu trung tâm thương mại Vincom Plaza Yên Bái, đường Thành Công, và đường Tô Hiến Thành, phường Nguyễn Thái Học, thành phố Yên Bái, tỉnh Yên Bái.",(0216) 389 3639,21.71512,104.90514
Techcombank Yên Mỹ,"QL 39, thị trấn Yên Mỹ, huyện Yên Mỹ, tỉnh Hưng Yên",0221.396 2818,20.8855100,106.0359300
Techcombank Bình Phước,"số 617 đường QL14, khu phố Tân Bình, phường Tân Bình, thành phố Đồng Xoài, tỉnh Bình Phước",0271 382 6688,11.5356692,106.8950294
Techcombank Ninh Hiệp,"Một phần tầng 1 ngôi nhà tại Thôn 8, xã Ninh Hiệp, huyện Gia Lâm, TP. Hà Nội",024 3698 3361,21.0786100,105.9408700
Techcombank Bách Khoa,"Tầng 1 và tầng 2, số nhà 184 Lê Thanh Nghị, phường Đồng Tâm, quận Hai Bà Trưng, TP. Hà Nội",024 3868 4918,21.002246,105.843755
Techcombank Cần Thơ,"Số 45A - 47 đường 30/4 phường Tân An, quận Ninh Kiều, TP. Cần Thơ",0292.376.6669,10.02974,105.78036
Techcombank Chợ Tây Thành,"215 Nguyễn Trãi, phường Phú Sơn,Tp. Thanh Hóa, tỉnh Thanh Hóa",237 372 7083,19.80364,105.76903
Techcombank Cửa Bắc,"Số 8 Cửa Bắc, phường Trúc Bạch, quận Ba Đình, TP. Hà Nội.",024 6273 3023,21.0455700,105.8432400
Techcombank Đào Tấn,"Sô 37 Đào Tấn, phường Ngọc Khánh, quận Ba Đình, TP. Hà Nội",024 376 67508,21.0327200,105.8074900
Techcombank Diamond Island,"Một phần tầng trệt ngôi nhà số 29, Đường 60-TML, Phường Thạnh Mỹ Lợi, TP Thủ Đức , TP. Hồ Chí Minh.",028 5444 7748,10.77791,106.75727
Techcombank Hoàng Gia,"Tầng 1, nhà R3, tổ hợp TTTM giáo dục và căn hộ Royal City, số 72 đường Nguyễn Trãi, phường Thượng Đình, quận Thanh Xuân, TP. Hà Nội",024 6664 1818,21.0028400,105.8150800
Techcombank Khương Mai,"Một phần diện tích tầng 1, tầng 2 Tòa nhà Artemis tại số 03 Lê Trọng Tấn, phường Khương Mai, quận Thanh Xuân, thành phố Hà Nội.",024 3566 5366,20.9999000,105.8285900
Techcombank Lạc Long Quân,"Tầng 1, tầng 2 và tầng 3 số 531 Lạc Long Quân, phường Xuân La, quận Tây Hồ, TP. Hà nội","024 6258 1440/ 024 6258 1441",21.0630700,105.8092100
Techcombank Bình Thạnh,"Số 177, đường Nguyễn Gia Trí, phường 25, quận Bình Thạnh, thành phố Hồ Chí Minh.",028 3512 6664,10.80606,106.71585
Techcombank Hà Đông,"Một phần diện tích tầng 1 tòa nhà chung cư CT1, làng Việt Kiều Châu Âu Euro land, khu đô thị Mỗ Lao, phường Mộ Lao, quận Hà Đông, TP. Hà Nội","024 3542 9666/ 03542 9668",20.9860900,105.7824600
Techcombank Nguyễn Hữu Thọ,"Số 363 đường Nguyễn Hữu Thọ, phường Khuê Trung, quận Cẩm Lệ, TP. Đà Nẵng",236. 3 572999 <104,16.03660,108.21019
Techcombank Tràng An,"T4 - L1 -01 + 04 và T-L2-01A, Tầng L1, L2, tòa nhà T4 tại dự án Tổ hợp TTTM giáo dục và căn hộ Times City, số 458 đường Minh Khai, phường Minh Khai, quận Hai Bà Trưng, TP. Hà Nội",024 3932 9888,20.9950600,105.8691300
Techcombank Xuân Diệu,"Số 46 đường Xuân Diệu, phường Quảng An, quận Tây Hồ, TP. Hà Nội",024 3718 5594,21.0616400,105.8313700
Techcombank Hà Nam,"Tầng 1 và tầng 2 Vincom Plaza Hà Nam, phường Chân Cầu, Tp. Phủ Lý, tỉnh Hà Nam",0226.388.9933,20.5435100,105.9175200
Techcombank An Phú,"Số 159 đường Võ Nguyên Giáp, Phường Thảo Điền, TP. Thủ Đức, Tp. Hồ Chí Minh",(028) 3636 6688,10.80253,106.74070
Techcombank Nguyễn Văn Quá,"Một phần tầng trệt ngôi nhà số 1/43, Nguyễn Văn Quá, phường Đông Hưng Thuận, quận 12, thành phố Hồ Chí Minh.",028 3551 3909,10.82707,106.62677
Techcombank 29-3,"Số 286 - 288 Điện Biên Phủ, phường Chính Gián, quận Thanh Khê, TP. Đà Nẵng",0236 383 8858,16.06598,108.19450
Techcombank Phú Nhuận,"Tầng triệt, tầng lửng tòa nhà INTAN, số 97 Nguyễn Văn Trỗi, phường 12, quận Phú Nhuận, TP. Hồ Chí Minh",028 38422028,10.79334,106.67891
Techcombank Long Biên,"Căn S0501S03, KĐT VINHOME SYMPHONY, Long Biên, TP Hà Nội",024 321 27762,21.0498700,105.9175400
Techcombank Bình Thới,"Một phần tầng trệt ngôi nhà số 363 Lạc Long Quân, phường 5, quận 11, thành phố Hồ Chí Minh.",028 5406 8985,10.77118,106.64523
Techcombank Phước Kiển,"Số 69, Khu dân cư Phú Long, Phân khu số 8, đường Nguyễn Hữu Thọ, Ấp 5, xã Phước Kiển, huyện Nhà Bè, TP. Hồ Chí Minh",028 39701314,10.71795,106.70307
Techcombank The Rainbow,"Căn 1S15, Tầng 1, tòa nhà S2.01, (26Z2), Lô đất A9 (II.3), Khu dân cư và công viên Phước Thiện (Vinhomes Grand Park), phường Long Thạnh Mỹ, TP. Thủ Đức (Quận 9 cũ), TP. Hồ Chí Minh.",028 3858 9293,10.83759,106.83182
Techcombank Hiệp Bình Phước,"Số 557B, Quốc lộ 13, Khu phố 5, phường Hiệp Bình Phước, thành phố Thủ Đức, TP. Hồ Chí Minh.",028 37273100 028 3727 3452,10.84958,106.71869
Techcombank Vạn Phúc City,"Một phần tầng trệt ngôi nhà số 91, Nguyễn Thị Nhung, khu nhà ở Vạn Phúc 1, phường Hiệp Bình Phước, thành phố Thủ Đức, thành phố Hồ Chí Minh.",028 3550 1420,10.84185,106.71514
Techcombank Hố Nai,"Số 318, quốc lộ 1, KP1, phường Tân Hòa, Tp.  Biên Hòa, tỉnh Đồng Nai.",0251 3880 159,10.96809,106.90763
Techcombank Bình Tân,"Số 303 Lê Văn Quới, phường Bình Trị Động, quận Bình Tân, TP. Hồ Chí Minh",028 37620173,10.77601,106.61203
Techcombank Lê Văn Thọ,"534 Lê Văn Thọ, Phường 16, Quận Gò Vấp, TP. Hồ Chí Minh",028 3894 8100,10.85104,106.65631
Techcombank Tân Cảng,"Tầng trệt, tầng 1, nhà dịch vụ số L2-SH06, chung cư Landmark 2, Số 720A đường Điện Biên Phủ, phường 22, quận Bình Thạnh, thành phố Hồ Chí Minh.",028 36361300,10.79365,106.72134
Techcombank Phú Quốc,"216 nguyễn trung trực, thị trấn Dương Đông, huyện Phú Quốc",0297.399.9369,10.22329,103.97085
Techcombank Thắng Lợi,"Tầng trệt, tầng lửng và tầng 2 khu A, tòa nhà số 58 đường Võ Văn Tần, phường Võ Thị Sáu, quận 3, thành phố Hồ Chí Minh.",028 39304532 - 123,10.77777,106.69108
Techcombank Bình Thuận,"Thửa đất số 525+526+527+528, tờ bản đồ số 08, Khu phố 14, đường Hùng Vương, phường Phú Thủy, thành phố Phan Thiết, tỉnh Bình Thuận",0252 372 2444,10.93843,108.104449
Techcombank Văn Lâm,"LK01-35, Như Quỳnh Center, TT Như Quỳnh, Huyện Văn Lâm, tỉnh Hưng Yên",0221 3785878,20.98159,105.98362
Techcombank Tây Hồ Tây,"LK.C09 Dự án Embassy Garden, phường Cổ Nhuế 1, quận Bắc Từ Liêm, TP. Hà Nội",(024)32006444,21.06285,105.79845
Techcombank Sunrise City,"Một phần căn nhà số 34 - 36, Nguyễn Thị Thập, khu đô thị mới Him Lam, phường Tân Hưng, quận 07, Thành phố Hồ Chí Minh..",(028) 36206686/(028) 36201291,10.74095,106.69892
Techcombank Hồng Bàng,"Số BH01-36, khu đô thị Xi măng Hải Phòng (Khu đô thị Vinhomes Imperia Hải Phòng), phường Thượng Lý, quận Hồng Bàng, Tp. Hải Phòng.",0225 3222266,20.8630800,106.6621300
Techcombank Bà Rịa,"Số 5 Dương Bạch Mai, phường Phước Trung, TP. Bà Rịa, tỉnh Bà Rịa-Vũng Tàu",0254 371 7175,10.49284,107.17116
Techcombank Nguyễn Tuân,"TM-A103, tầng 1, tòa nhà A thuộc Dự án tổ hợp nhà liền kề, trung tâm thương mại và căn hộ tại số 82 đường Nguyễn Tuân, phường Thanh Xuân Trung, quận Thanh Xuân, TP. Hà Nội.",024 3942 6868,20.9973900,105.8047400
Techcombank Gia Lâm,"Số 1SH03, 1SH05, 1SH5A, 1SH06, 1SH8A tại tầng 1 thuộc Tòa nhà số S1.01 (L27M-2) tại lô đất B3-CT2, xã Đa Tốn, huyện Gia Lâm, TP. Hà Nội.",02432033690,20.99341,105.94262
Techcombank Central Park,"Căn số C2-SH.05, tầng trệt, Nhà chung cư Central 2, phường 22, quận Bình Thạnh, TP. Hồ Chí Minh.",028 5449 2183,10.79148,106.72096
Techcombank CityLand,"Một phần tầng trệt ngôi nhà số 29, đường số 3, khu dân cư CityLand, phường 10, quận Gò Vấp, thành phố Hồ Chí Minh.",028 3827 5806,10.83424,106.67036
Techcombank Bình Tiên,"Số 374, Lê Trọng Tấn, phường Tây Thạnh, quận Tân Phú, thành phố Hồ Chí Minh.",028 3967 6538,10.80806,106.62019
Techcombank Green Park,"SH-4B, tại tầng trệt của Tòa nhà thuộc dự án Phương Đông Green Park, khu C1, đường Pháp Vân, phường Hoàng Liệt, quận Hoàng Mai, TP. Hà Nội",024 39446575,20.96365,105.8452
Techcombank Ecopark,"Tầng 01, Căn L1 – 03, tháp A2 (Lake 1) Dự án Khu căn hộ Vịnh Thủy, Khu đô thị thương mại và du lịch Văn Giang (Ecopark), xã Xuân Quan, huyện Văn Giang, tỉnh Hưng Yên.",0243 6789733/ 02436789711,20.95259,105.93742
Techcombank Cổ Linh,"Tổ 7, phường Thạch Bàn, quận Long Biên, TP. Hà Nội",024 3747 5568,21.02002,105.91107
Techcombank Kim Giang,"Số 146 Kim Giang (Thửa đất số 56 + 57 - 1, tờ bản đồ số 04), phường Đại Kim, quận Hoàng Mai, thành phố Hà Nội.",024 3944 7885,20.9815246,105.8196798
Techcombank Park City,"Thửa đất số 90, tờ bản đồ số 40, tổ dân phố 4, phường La Khê, quận Hà Đông, thành phố Hà Nội. (Địa chỉ giao dịch: Số 150 Lê Trọng Tấn, phường Lê Khê, quận Hà Đông)",02432057002,20.9663018,105.7592770
Techcombank Sơn Trà,"Lô C1- 08, 09, 10 (Số 124) đường Phạm Văn Đồng, phường An Hải Bắc, quận Sơn Trà, thành phố Đà Nẵng.",0236 384 0886,16.07082,108.23539
Techcombank Tây Mỗ,"Số 1S03 tại tầng 1 thuộc Tòa nhà S4.02 (L35M.1), Lô đất F4-CH01, Dự án Khu đô thị mới Tây Mỗ - Đại Mỗ - Vinhomes Smart City, phường Tây Mỗ, quận Nam Từ Liêm, thành phố Hà Nội.",,21.0051066,105.7397100
Techcombank Thủ Đô,"Một phần diện tích tại tầng hầm B1 và một phần tầng 1 thuộc Tòa nhà số 6 Quang Trung, phường Trần Hưng Đạo, quận Hoàn Kiếm, thành phố Hà Nội.",024 3944 6368,21.02395,105.84895
Techcombank Trung Sơn,"Số 241 đường 9A, KDC Trung Sơn, ấp 4B, xã Bình Hưng, huyện Bình Chánh, Thành phố Hồ Chí Minh.",028 36203963,10.73270,106.68972
Techcombank Thủ Dầu Một,"Số 154 Phạm Ngọc Thạch, khu 7, phường Hiệp Thành, thành phố Thủ Dầu Một, tỉnh Bình Dương",0274 3819880,10.99872,106.65860
Techcombank An Đông,"Số 97M Nguyễn Duy Dương, phường 9, quận 5, TP. Hồ Chí Minh",028 3835 0203,10.75993,106.67097
Techcombank Bình Trị Đông,"Số 238 Vành đai Trong, Khu phố 3, phường Bình Trị Đông B, quận Bình Tân, TP. Hồ Chí Minh",028 3817 2010,10.75043,106.61547
Techcombank Phan Văn Trị,"672A32-672A33, Phan Văn Trị, Phường 10, Quận Gò Vấp, Thành phố Hồ Chí Minh",,10.83371,106.67015
Techcombank Ruby,"HD09-SP.BH-50 Khu đô thị Vinhomes Ocean Park, Thị Trấn Trâu Quỳ, Gia Lâm, Hà Nội",02473084866,21.00030,105.94288
Techcombank Quảng Bình,"Tầng 1 và tầng 2 của tòa nhà 3 tầng tại số 01 đường Trần Hưng Đạo, phường Đồng Phú, thành phố Đồng Hới, tỉnh Quảng Bình.",0232 3868886,17.46978306,106.6172165
Techcombank Xuân Phương,"Tầng 1, Ô đất số 9 Lô TT-A, Khu văn phòng nhà ở và dịch vụ công cộng Xuân Phương Garden, phường Phương Canh, quận Nam Từ Liêm, thành phố Hà Nội.",024 320555 26,21.04144,105.73539
Techcombank Bùi Thị Xuân,"Một phần ngôi nhà số 452, đường Nguyễn Thị Minh Khai, phường 05, quận 03, TP. Hồ Chí Minh.",028 6291 6810,10.76868,106.68451
Techcombank Cà Mau,"Số 68 Đường Nguyễn Tất Thành, Phường 8, Thành phố Cà Mau",0290.368.6888,9.1696999,105.1461999
Techcombank Hà Đô,"Một phần tầng trệt ngôi nhà số 285/78 Cách Mạng Tháng Tám, phường 12, quận 10, thành phố Hồ Chí Minh.",024 35429666/024 35429668,10.77718,106.67800
Techcombank Cẩm Phả,"180 -182 Trần Phú, phường Cẩm Thành,TP. Cẩm Phả, tỉnh Quảng Ninh",(203) 393.9866,21.0130900,107.2825400
Techcombank Cao Thắng,"Số 65C Cao Thắng, phường 3, quận 3, TP. Hồ Chí Minh",028 3832 9881,10.77119,106.68054
Techcombank Nguyễn Duy Trinh,"Gian L1-03 tầng 1, khu trung tâm thương mại Vincom Maximark Quận 2, tòa nhà Homyland 2, số 307 Nguyễn Duy Trinh, phường Bình Trưng Tây, TP. Thủ Đức (Quận 2 cũ), TP. Hồ Chí Minh.",028 3742 1439,10.78848,106.76569
Techcombank Cát Linh,"Số 98 Tôn Đức Thắng, phường Văn Miếu Quốc Tử Giám, quận Đống Đa, TP. Hà Nội",024 6275 4183,21.0271,105.83383
Techcombank Cầu Giấy,"Số 196 Đường Cầu Giấy, quận Cầu Giấy, TP Hà Nội",024 32262766/024 32262764,21.0340500,105.7977400
Techcombank Văn Phú,"Shophouse SH26 và SH27, tòa B chung cư H – CT2, khu nhà ở Hi Brand, khu đô thị mới Văn Phú, phường Phú La, quận Hà Đông, thành phố Hà Nội.",024 3775 3366,20.9594200,105.7676900
Techcombank Tây Hồ,"Số 110 Lạc Long Quân, phường Bưởi, quận Tây Hồ, TP. Hà Nội",024 3753 3535,21.0508400,105.8079200
Techcombank Chợ Đôn,"Số 290-292 đường Trần Nguyên Hãn, phường Niệm Nghĩa, quận Lê Chân, TP. Hải Phòng",0225. 3856286,20.8424600,106.6680800
Techcombank Chợ Lớn,"Số 78 - 80 - 82 Hậu Giang, phường 2, quận 6, TP. Hồ Chí Minh",028 3960 3949,10.74997,106.64667
Techcombank Kiến Hưng,"Thửa đất số DV11 – LK519, tờ bản đồ số 00, khu đất dịch vụ Đào Đất, Hàng Bè, phường Kiến Hưng, quận Hà Đông, thành phố Hà Nội.",024 3624 7088,20.9616550,105.8208360
Techcombank Chợ Mới,"Số 298 Trưng Nữ Vương, phường Bình Thuận, Quận Hải Châu, TP. Đà Nẵng",0236 355 3554,16.05312,108.21822
Techcombank Chùa Láng,"Một phần ngôi nhà tại tầng 1, số 71 Chùa Láng, phường Láng Thượng, quận Đống Đa, TP. Hà Nội.",024 3211 5725,21.0233800,105.8062400
Techcombank Chương Dương,"Số 414 Nguyễn Văn Cừ, phường Bồ Đề, quận Long Biên, TP. Hà Nội",024 3872 2222,21.04669,105.87830
Techcombank Ciputra,"Số 01 tầng SH - Tòa nhà: S56 thuộc dự án Nhà ở cao tầng kết hợp dịch vụ thương mại, Dự án Sunshine City tại Lô đất I.A.23 Khu đô thị Nam Thăng Long (giai đoạn II), phường Đông Ngạc, quận Bắc Từ Liêm, thành phố Hà Nội.",024 3743 0176,105.79231,21.084382
Techcombank Củ Chi,"Số 39 đường Liêu Bình Hương, Tổ 1 Khu KD, ấp Tân Lập, xã Tân Thông Hội, huyện Củ Chi, TP. Hồ Chí Minh.",028 3790 9899,10.96175,106.50280
Techcombank Đà Nẵng,"Số 304 – 306 đường Nguyễn Văn Linh, phường Thạc Gián, quận Thanh Khê,TP. Đà Nẵng.",236.3655118,16.05958,108.20795
Techcombank An Giang,"Số 523-527 đường Lý Thái Tổ, khóm Đông Thịnh 8, phường Mỹ Phước, thành phố Long Xuyên, tỉnh An Giang",0296.394.0696,10.371583,105.436727
Techcombank Đắk Lắk,"Số 29 Nguyễn Tất Thành, P. Tân Lợi, Tp. Buôn Ma Thuột, tỉnh Đắk Lắk",0262 384 0808,12.68691,108.05465
Techcombank Đan Phượng,"Số 135 Tây Sơn, thị trấn Phùng, huyện Đan Phượng, TP. Hà Nội",024 3388 7889,21.0840400,105.6705400
Techcombank Gamuda,"Siêu thị Vinmart Yên Sở có địa chỉ tầng 1, Tòa CT2, Khu đô thị Gamuda Gardens, phường Trần Phú, quận Hoàng Mai, thành phố Hà Nội.",024 6275 5338,20.9703900,105.8777700
Techcombank Từ Sơn,"Tầng 1, căn 382 và 390 đường Trần Phú, phường Đông Ngàn, thành phố Từ Sơn, tỉnh Bắc Ninh.",0222. 6260167,21.11574,105.9551
Techcombank Đinh Bộ Lĩnh,"Một phần tầng trệt ngôi nhà số 329 Bạch Đằng, phường 2, quận Bình Thạnh, TP. Hồ Chí Minh.",028 3899 8101,10.80316,106.70477
Techcombank Định Công,"Số 52 Vương Thừa Vũ, phường Khương Trung, quận Thanh Xuân, TP. Hà Nội",024 3665 8518,20.9998800,105.8219300
Techcombank Đỗ Xuân Hợp,"Số 282 Đỗ Xuân Hợp, phường Phước Long A, TP. Thủ Đức (Quận 9 cũ), TP. Hồ Chí Minh",08 3728 3815,10.82310,106.76994
Techcombank Đội Cấn,"Số 285 Đội Cấn, Phường liễu Giai, quận Ba Đình, TP. Hà Nội",024 3722 5318,21.0357400,105.8190000
Techcombank Đông Anh,"Số 143 - 145 khối 1B, thị trấn Đông Anh, huyện Đông Anh, TP Hà Nội",024 3965 5346,21.1366700,105.8443700
Techcombank Đống Đa,"Số 208 Thái Hà, phường Trung Liệt, quận Đống Đa, TP. Hà Nội",024 3537 3586,21.0136500,105.8192000
Techcombank An Hòa,"Số 243H, đường Nguyễn Văn Cừ, phường An Hòa, quận Ninh Kiều, Thành phố Cần Thơ.",0292.389.7111,10.04756,105.76888
Techcombank Đồng Đăng,"Số 96 Khu Nam Quan, Thị trấn Đồng Đăng, huyện Cao Lộc, tỉnh Lạng Sơn",(0205) 371.3968,21.9522400,106.6982500
Techcombank Đông Đô,"Tầng 1, tòa nhà C5 D’capital, 119 Trần Duy Hưng, Cầu Giấy, Hà Nội",024 39446575,21.0062100,105.7946700
Techcombank Đồng Nai,"PG1-01, Trung tâm thương mại dịch vụ Vincom Biên Hòa, đường Phạm Văn Thuận, phường Tân Mai, TP. Biên Hòa, Tỉnh Đồng Nai",0251 882 3389,10.95734,106.84406
Techcombank Đồng Tháp,"PG1 - 24 Dự án Trung tâm thương mại và Shophouse Cao Lãnh -Đồng Tháp, phường 1,TP. Cao Lãnh, tỉnh Đồng Tháp",0277 387 6783,10.45565,105.63389
Techcombank Green Bay,"Mộc Lan 6/01- Dự án Vinhomes Greenbay, Nam Từ Liêm, Thành phố Hà Nội",024 3927 6868,20.9983000,105.7869900
Techcombank Gia Định,"Một phần tầng trệt, tẩng lửng và tầng 2 Tòa nhà Q.Mobile số 36 Phan Đăng Lưu, Phường 7, quận Bình Thạnh, TP. Hồ Chí Minh",028 35510412/ 028 38418073,10.80391,106.68815
Techcombank Hà Nội,"Tầng 1 và tầng lửng, 30B Nguyễn Hữu Huân, phường Lý Thái Tổ, quận Hoàn Kiếm, TP. Hà Nội",024 3824 3941,21.03477,105.85441
Techcombank Hà Tây,"Tầng 1, tòa nhà CT2 Ngô Thì Nhậm, phường Hà Cầu, quận Hà Đông, TP. Hà Nội",024 3311 9950,20.9688100,105.7687600
Techcombank Hà Thành,"Số 330 phố Bà Triệu, phường Lê Đại Hành, quận Hai Bà Trưng, thành phố Hà Nội.",024 3863 9999,21.01008,105.84894
Techcombank Hà Tĩnh,"Khu TTTM Vincom Plaza Hà Tĩnh, đường Hàm Nghi và đường Hà Huy Tập, phường Hà Huy Tập, TP. Hà Tĩnh",0239 369 8886,18.3375800,105.8956600
Techcombank An Lạc,"104-106 đường số 17A, phường Bình Trị Đông B, quận Bình Tân, TP. Hồ Chí Minh..",028 3752 4853,10.74292,106.61042
Techcombank Ngũ Hành Sơn,"Số 161 đường Nguyễn Văn Thoại, phường An Hải Nam, quận Sơn Trà, Tp. Đà Nẵng",236. 3655118-302,16.05504,108.24150
Techcombank Hải Dương,"Số nhà 543 đường Trường Chinh, phường Tân Bình, thành phố Hải Dương, tỉnh Hải Dương",0220. 389 7183,20.93775,106.32411
Techcombank Hải Phòng,"Thửa 6 Lô 3A dự án KĐTM Ngã 5 Sân bay Cát Bi, phường Đông Khê, quận Ngô Quyền, TP. Hải Phòng ",(0225) 3810865/67/68,20.8609200,106.6865100
Techcombank Hàng Đậu,"Số 25 B, Phan Đình Phùng, phường Quán Thánh, quận Ba Đình, TP. Hà Nội",024 3733 6868,21.0400900,105.8447900
Techcombank Hiệp Phú,"Gian L1-07, tầng L1, TTM Plaza Lê Văn Việt, 50 Lê Văn Việt , phường Hiệp Phú, TP. Thủ Đức (Quận 9 cũ), TP. Hồ Chí Minh",028 3736 1649,10.84559,106.77898
Techcombank Hòa Hưng,"Lô G.02A, tầng trệt, Tòa tháp B, số 285, đường Cách Mạng Tháng Tám, phường 12, quận 10, TP. Hồ Chí Minh.",028 3862 4895,10.77750,106.67981
Techcombank Hòa Khánh,"Số 661 Tôn Đức Thắng, phường Hòa Khánh Nam, quận Liên Chiểu, TP. Đà Nẵng",02363 731 999,16.06873,108.15145
Techcombank Hoàng Cầu,"Số 63 phố Hoàng Cầu, phường Ô Chợ Dừa, quận Đống Đa, TP. Hà Nội (địa chỉ cũ là Tổ 36 Hoàng Cầu)",024 6275 0087,21.0166400,105.8238600
Techcombank Hoàng Mai,"Tòa nhà Resco, B15 Khu đô thị mới Đại Kim, phường Đại Kim, quận Hoàng Mai, TP. Hà Nội",024 6284 2637,20.9758200,105.8362700
Techcombank Hoàng Quốc Việt,"Số 98 Hoàng Quốc Việt, phường Nghĩa Tân, quận Cầu Giấy, TP. Hà Nôi","024 37480412. Số máy lẻ: 117, 170, 301 (Phòng DVKH); 352 (Phòng KHCN); 310 (Phòng KHUT)",21.0464600,105.7961800
Techcombank Ấp Bắc,"Số 46 đường Ấp Bắc, phường 13, quận Tân Bình, TP. Hồ Chí Minh",028 3813 2493,10.80198,106.64171
Techcombank Hóc Môn,"Số 37 Lý Thường Kiệt, Khu phố 2, thị trấn Hóc Môn, huyện Hóc Môn, TP. Hồ Chí Minh",028 3710 7359,10.88748,106.59236
Techcombank Hội An,"Số 278 Lý Thường Kiệt, Phường Tân An, TP. Hội An - tỉnh Quảng Nam",235. 3917887,15.88311,108.32909
Techcombank Huế,"Số 24 Lý Thường Kiệt, phường Vĩnh Ninh, quận Thuận Hóa, Tp. Huế",0234 388 3333,16.45921,107.59169
Techcombank Hưng Đạo,"Số 857 Trần Hưng Đạo, Phường 1, quận 5, TP. Hồ Chí Minh",028 3924 2602,10.75488,106.67998
Techcombank Chí Linh,"Số 39, Nguyễn Hữu Cảnh, phường Nguyễn An Ninh, thành phố Vũng Tàu, tỉnh Bà Rịa - Vũng Tàu.",0254 351 2973,10.39049,107.10380
Techcombank Hưng Yên,"Số 05 đường Nguyễn Bình, phường Bần Yên Nhân, thị xã Mỹ Hào, tỉnh Hưng Yên",(0221) 3941 158,20.9389800,106.0597500
Techcombank Huỳnh Tấn Phát,"Số 694 Huỳnh Tấn Phát, phường Tân Phú, quận 7, TP. Hồ Chí Minh",028 3773 3050,10.73302,106.73108
Techcombank An Hưng,"Shophouse SH A01 tòa nhà Anland Premium, Khu đô thị mới Dương Nội, phường La Khê, quận Hà Đông, TP. Hà Nội.",024 7300 0999,20.9755800,105.7607200
Techcombank KeangNam,"Tòa nhà Keangnam, E6 Phạm Hùng, phường Yên Hòa, quận Cầu Giấy, TP. Hà Nội",024 3837 8999,21.0166900,105.7835800
Techcombank Khâm Thiên,"Số 228 Khâm Thiên, phường Thổ Quan, quận Đống Đa, TP. Hà Nội",024 3511 3096,21.0192900,105.8350100
Techcombank Âu Cơ,"Khu B, tầng lửng, tòa nhà số 99A Cộng Hòa, phường 4, quận Tân Bình, thành phố Hồ Chí Minh.",028 3811 7533,10.80106,106.65483
Techcombank Kiến An,"Số 216 Trần Thành Ngọ, phường Trần Thành Ngọ, quận Kiến An, TP. Hải Phòng",(0225) 3577368,20.8091600,106.6259800
Techcombank Kiên Giang,"Gian L1 - 04 tầng 1, Trung tâm TM Vincom Rạch Giá, lô A12, khu phố 1 đường Cô Bắc, phường Vĩnh Thanh Vân, Tp. Rạch Giá, Kiên Giang",0297.377.6868,10.00287,105.08101
Techcombank Kim Liên,"Tầng 1, 2 Số 69 Xã Đàn, phường Phương Liên, quận Đống Đa, thành phố Hà Nội.",024 2222 9966,21.0174612,105.8307711
Techcombank Hồ Tùng Mậu,"Một phần tầng 1 ngôi nhà số 384 đường Hồ Tùng Mậu, tổ 12, phường Phú Diễn, quận Bắc Từ Liêm, Hà Nội",024 3734 5588,21.0323000,105.8286600
Techcombank Kỳ Anh,"Gian L1 – 05, tầng L1, Trung tâm Thương mại VinCom Kỳ Anh Hà Tĩnh, phường Sông Trí, thị xã Kỳ Anh, tỉnh Hà Tĩnh",2393 730588,18.0763700,106.2887200
Techcombank Kỳ Đồng,"Tầng trệt tầng lừng Tòa nhà Sông Đà, số 14B Kỳ Đồng, phường 9, quận 3, TP. Hồ Chí Minh",028 6290 5605,10.78353,106.68248
Techcombank Kỳ Hòa,"Số 425 Sư Vạn Hạnh, phường 12, quận 10, TP. Hồ Chí Minh",028 3880 1657,10.77255,106.66904
Techcombank Lạc Trung,"Tầng 2, 3, 4 số nhà 12+14 phố Lạc Trung, phường Thanh Lương, quận Hai Bà Trưng, TP. Hà Nội",024 6327 8951,21.003077,105.861793
Techcombank Lái Thiêu,"Số 65 Nguyễn Văn Tiết, khu phố Đông Tư, P. Lái Thiêu, TX Thuận An, tỉnh Bình Dương",0274 363 6102,10.90838,106.70137
Techcombank Lâm Đồng,"Số 136 Phan Đình Phùng, phường 2, TP. Đà Lạt, tỉnh Lâm Đồng",0263 353 3686,11.94658,108.43531
