Name,Address,isCDM,District,Province,Latitude,Longitude
ATM Techcombank Đỉnh Núi Bà Nà Hill,"Khu đài phu nước trung tâm tại đỉnh núi Bà Nà Hill, X. Hòa Ninh, H. Hòa Vang, TP. Đà Nẵng",False,Hòa Vang,Đà Nẵng,15.9966890942255,107.988897306583
ATM Techcombank Tổng CTY Cổ Phần Dệt May Hòa Thọ,"36 Ông Ích Đường, P. Hòa Thọ Đông, Q. Cẩm Lệ, TP. Đà Nẵng",False,Cẩm Lệ,Đà Nẵng,16.021285254989,108.202620160115
ATM Techcombank CTY Tài Chính Dầu Khí Đà Nẵng 1,"Lô A2.1, đường 30/4, P. Hoà Cường Bắc, Q. Hải Châu, TP. Đà Nẵng",False,Hải Châu,Đà Nẵng,16.040946466551,108.220758161465
ATM Techcombank Vinpearl Nam Hội An,"Khu vui chơi Vinpearl Nam Hội An, Tổ 6, Khối Phước Hải, P. Cửa Đại, TP. Hội An, Tỉnh Quảng Nam",False,Hội An,Quảng Nam,15.7866540818338,108.407675089524
ATM Techcombank CTY Tài Chính Dầu Khí Đà Nẵng 2,"Lô A2.1, đường 30/4, P. Hoà Cường Bắc, Q. Hải Châu, TP. Đà Nẵng",False,Hải Châu,Đà Nẵng,16.040946466551,108.220758161465
ATM Techcombank Khách Sạn Vinpearl Nam Hội An,"Tổ 6, Khối Phước Hải, P. Cửa Đại, TP. Hội An, Tỉnh Quảng Nam",False,Hội An,Quảng Nam,15.7941377684763,108.419439105954
ATM Techcombank Vinpearl Đà Nẵng,"7 Trường Sa, P. Hòa Hải, Q. Ngũ Hành Sơn, TP. Đà Nẵng",False,Ngũ Hành Sơn,Đà Nẵng,16.0055932110791,108.266398849999
ATM Techcombank CTY Foster Đà Nẵng,"Đường số 9, KCN Hòa Cầm, P. Hoà Thọ Tây, Q. Cẩm Lệ, TP. Đà Nẵng",False,Cẩm Lệ,Đà Nẵng,16.008300567736,108.178783234498
ATM Techcombank Khách Sạn Eden Đà Nẵng,"5-7 Duy Tân, P. Hoà Cường Bắc, Q. Hải Châu, TP. Đà Nẵng",False,Hải Châu,Đà Nẵng,16.0486071077067,108.216362513349
ATM Techcombank CTY Dệt May 29/3,"60 Mẹ Nhu, P. Thanh Khê Tây, Q. Thanh Khê, TP. Đà Nẵng",False,Thanh Khê,Đà Nẵng,16.0669283843934,108.179165440043
ATM Techcombank Khách Sạn New Blue Snow,"Lô G Phạm Văn Đồng, P. An Hải Bắc, Q. Sơn Trà, TP.Đà Nẵng",False,Sơn Trà,Đà Nẵng,16.0724902755182,108.233186081035
ATM Techcombank Viện Kiểm Sát Nhân Dân Tối Cao Đà Nẵng,"4 Lý Tự Trọng, P. Thạch Thang, Q. Hải Châu, TP. Đà Nẵng",False,Hải Châu,Đà Nẵng,16.0778881250614,108.222392008471
ATM Techcombank KCN Hòa Cầm 1,"Đường số 2, KCN Hòa Cầm, P. Hòa Thọ Tây, Q. Cẩm Lệ, TP. Đà Nẵng",False,Cẩm Lệ,Đà Nẵng,16.0065615526733,108.176734624592
ATM Techcombank KCN Hòa Cầm 2,"Đường số 2, KCN Hòa Cầm, P. Hòa Thọ Tây, Q. Cẩm Lệ, TP. Đà Nẵng",False,Cẩm Lệ,Đà Nẵng,16.0065615526733,108.176734624592
ATM Techcombank CTY Dệt May Thọ Hòa Quảng Nam,"X. Điện Thắng, H. Điện Bàn, Tỉnh Quảng Nam",False,Điện Bàn,Quảng Nam,15.9385300407657,108.223766574999
ATM Techcombank CTY TNHH KAD Industrial S.A Việt Nam,"Lô 10 đường 11B, KCN Hòa Khánh mở rộng, P. Hoà Khánh Bắc, Q. Liên Chiểu, TP. Đà Nẵng",False,Liên Chiểu,Đà Nẵng,16.0815262220249,108.114053098497
ATM Techcombank UBND Quận Cẩm Lệ,"40 Ông Ích Đường, P. Hòa Thọ Đông, Q. Cẩm Lệ, TP. Đà Nẵng",False,Cẩm Lệ,Đà Nẵng,16.0181340146869,108.204131249589
ATM Techcombank Đà Thành,"83 Nguyễn Thị Minh Khai, P. Hải Châu, Q. Hải Châu, TP. Đà Nẵng",False,Hải Châu,Đà Nẵng,16.0719926036079,108.218662453033
ATM Techcombank Cáp Treo Bà Nà Hill,"Khu cáp treo tại chân núi Bà Nà Hill, X. Hòa Ninh, H. Hòa Vang, TP. Đà Nẵng",False,Hòa Vang,Đà Nẵng,16.0254492198656,108.033204269109
ATM Techcombank CTY A76 Nội Bài 2,"CTY A76 Nội Bài, sân bay Nội Bài, X. Phú Minh, H. Sóc Sơn, TP. Hà Nội",False,Sóc Sơn,Hà Nội,21.2187149,105.8041709
ATM Techcombank Sảnh Đến Sân Bay Nội Bài,"Sảnh đến sân bay Nội Bài, X. Phú Minh, H. Sóc Sơn, TP. Hà Nội",False,Sóc Sơn,Hà Nội,21.218715,105.804171
ATM Techcombank Nhà Ga T1 Sân bay Nội Bài,"Nhà ga T1, sân bay Nội Bài, X. Phú Minh, H. Sóc Sơn, TP. Hà Nội",False,Sóc Sơn,Hà Nội,21.218715,105.804171
ATM Techcombank CTY A76 Nội Bài 1,"CTY A76 Nội Bài, sân bay Nội Bài, X. Phú Minh, H. Sóc Sơn, TP. Hà Nội",False,Sóc Sơn,Hà Nội,21.2187149,105.8041709
ATM Techcombank KCN Nội Bài 1,"KCN Nội Bài, X. Quang Tiến, H. Sóc Sơn, TP. Hà Nội",False,Sóc Sơn,Hà Nội,21.1096592,105.7842673
ATM Techcombank KCN Nội Bài 2,"KCN Nội Bài, X. Quang Tiến, H. Sóc Sơn, TP. Hà Nội",False,Sóc Sơn,Hà Nội,21.1096592,105.7842673
ATM Techcombank CTY Eurowindow,"Lô 15, KCN Quang Minh, thị trấn Quang Minh, H. Mê Linh, TP. Hà Nội",False,Mê Linh,Hà Nội,21.1856191,105.7792521
ATM Techcombank Hai Bà Trưng,"57A Phan Chu Trinh, P. Phan Chu Trinh, Q. Hoàn Kiếm, TP. Hà Nội",False,Hoàn Kiếm,Hà Nội,21.0191356543897,105.855273728907
ATM Techcombank CTY TNHH Seethings Việt Nam,"Lô đất L3.1 và 1/2 L3.2, KCN Đồ Sơn, P. Tân Thành, Q. Dương Kinh, TP. Hải Phòng",False,Dương Kinh,Hải Phòng,20.20742163,106.106759858
ATM Techcombank CTY Yazaki Hải Phòng,"Lô đất L, KCN Nhật Bản-Hải Phòng, X. An Hưng, H. An Dương, TP. Hải Phòng",False,An Dương,Hải Phòng,20.875236,106.577235
ATM Techcombank UBND Quận Ngô Quyền,"19 Đà Nẵng, P. Máy Tơ, Q. Ngô Quyền, TP. Hải Phòng",False,Ngô Quyền,Hải Phòng,20.20861611,106.106707462
ATM Techcombank UBND Phường Hải Thành,"869 Phạm Văn Đồng, P. Hải Thành, Q. Dương Kinh, TP. Hải Phòng",False,Dương Kinh,Hải Phòng,20.20772459,106.106733293
ATM Techcombank CTY May Hai Huyện Kiến An,"127 Trần Thành Ngọ, P. Trần Thành Ngọ, Q. Kiến An, TP. Hải Phòng",False,Kiến An,Hải Phòng,20.20809351,106.106625816
ATM Techcombank Lê Thánh Tông,"L1-15A, tầng 1, TTTM Vincom Megamall Hải Phòng, 1 Lê Thánh Tông, P. Máy Tơ, Q. Ngô Quyền, TP. Hải Phòng",False,Ngô Quyền,Hải Phòng,20.8659354338651,106.691559406996
ATM Techcombank CTY TNHH Aroma Bay Candles 1,"Đường 355, khu Tiểu Trà, P. Hưng Đạo, Q. Dương Kinh, TP. Hải Phòng",False,Dương Kinh,Hải Phòng,20.20795504,106.1066923
ATM Techcombank Công An Huyện An Dương,"Tổ dân phố số 7, thị trấn An Dương, H. An Dương, TP. Hải Phòng",False,An Dương,Hải Phòng,20.20865595,106.1066137
ATM Techcombank CTY Cổ Phần Viconship Việt Nam,"Cảng Viconship, số 1 Ngô Quyền, P. Đông Hải 1, Q. Hải An, TP. Hải Phòng",False,Hải An,Hải Phòng,20.20863303,106.106721267
ATM Techcombank CTY TNHH Aroma Bay Candles 2,"Đường 355, khu Tiểu Trà, P. Hưng Đạo, Q. Dương Kinh, TP. Hải Phòng",False,Dương Kinh,Hải Phòng,20.20795504,106.1066923
ATM Techcombank KCN Nomura 1,"KCN Nomura, X. Tân Tiến, H. An Dương, TP. Hải Phòng",False,An Dương,Hải Phòng,20.20893888,106.106595248
ATM Techcombank CTY Pioneer KCN Nomura,"Lô G, KCN Nhật Bản-Hải Phòng, X. An Hưng, H. An Dương, TP. Hải Phòng",False,An Dương,Hải Phòng,20.20902257,106.106592156
ATM Techcombank KCN Nomura 2,"KCN Nomura, X. Tân Tiến, H. An Dương, TP. Hải Phòng",False,An Dương,Hải Phòng,20.20893888,106.106595248
ATM Techcombank Bắc Hải,"58C Đồng Nai, P. 15, Q. 10, TP. Hồ Chí Minh",False,Quận 10,Hồ Chí Minh,10.7781949871996,106.663702879945
ATM Techcombank Cao Thắng,"65C Cao Thắng, P. 3, Q. 3, TP. Hồ Chí Minh",False,Quận 3,Hồ Chí Minh,10.7711866078652,106.680542222275
ATM Techcombank Hòa Hưng,"Lô G.02A, Tòa tháp B, 285 Cách Mạng Tháng Tám, P. 12, Q. 10, TP. Hồ Chí Minh",False,Quận 10,Hồ Chí Minh,10.7775011400513,106.679809791593
ATM Techcombank Nguyễn Văn Trỗi,"203 Nam Kỳ Khởi Nghĩa, P. Võ Thị Sáu, Q. 3, TP. Hồ Chí Minh",False,Quận 3,Hồ Chí Minh,10.7875488678425,106.686083295287
ATM Techcombank Phú Nhuận,"97 Nguyễn Văn Trỗi, P. 12, Q. Phú Nhuận, TP. Hồ Chí Minh",False,Phú Nhuận,Hồ Chí Minh,10.7933399893657,106.678909995287
ATM Techcombank Trung Tâm Văn Hóa Quận Phú Nhuận,"70-72 Nguyễn Văn Trỗi, P. 8, Q. Phú Nhuận, TP. Hồ Chí Minh",False,Phú Nhuận,Hồ Chí Minh,10.79532,106.67575
ATM Techcombank Aeon Citimart Cao Thắng,"96 Cao Thắng, P. 4, Q. 3, TP. Hồ Chí Minh",False,Quận 3,Hồ Chí Minh,10.771333,106.680611
ATM Techcombank Sở Xây Dựng Hồ Chí Minh,"60 Trương Định, P. 7, Q. 3, TP. Hồ Chí Minh",False,Quận 3,Hồ Chí Minh,10.782185,106.68489
ATM Techcombank Tòa Nhà Sunwah 1,"115 Nguyễn Huệ, P. Bến Nghé, Q. 1, TP. Hồ Chí Minh",False,Quận 1,Hồ Chí Minh,10.7738,106.70353
ATM Techcombank Nguyễn Tất Thành,"TM.B.01, khối tháp B thuộc Nhà Chung Cư, 132 Bến Vân Đồn, P. 6, Q. 4, TP. Hồ Chí Minh",False,Quận 4,Hồ Chí Minh,10.7629541398981,106.699852636891
ATM Techcombank Kỳ Đồng,"Tòa nhà Sông Đà, 14B Kỳ Đồng, P. 9, Q. 3, TP. Hồ Chí Minh",False,Quận 3,Hồ Chí Minh,10.7835268044765,106.682477511551
ATM Techcombank Tân Bình,"99A Cộng Hoà, P. 4, Q. Tân Bình, TP. Hồ Chí Minh",False,Tân Bình,Hồ Chí Minh,10.8010572505971,106.654827052957
ATM Techcombank UBND Quận 10,"1 Thành Thái, P. 1, Q. 10, TP. Hồ Chí Minh",False,Quận 10,Hồ Chí Minh,10.768639,106.666778
ATM Techcombank Tòa Nhà Everrich,"968 đường 3/2, P. 15, Q. 11, TP. Hồ Chí Minh",False,Quận 11,Hồ Chí Minh,10.763083,106.656889
ATM Techcombank Trung Tâm Cấp Cứu 115,"266 Lý Thường Kiệt, P. 14, Q. 10, TP. Hồ Chí Minh",False,Quận 10,Hồ Chí Minh,10.770222,106.658444
ATM Techcombank UBND Phường 1 Quận 10,"31 Lý Thái Tổ, P. 1, Q. 10, TP. Hồ Chí Minh",False,Quận 10,Hồ Chí Minh,10.766611,106.676667
ATM Techcombank Hưng Đạo,"857 Trần Hưng Đạo, P. 1, Q. 5, TP. Hồ Chí Minh",False,Quận 5,Hồ Chí Minh,10.7548781471367,106.679981866451
ATM Techcombank An Đông,"97M Nguyễn Duy Dương, P. 9, Q. 5, TP. Hồ Chí Minh",False,Quận 5,Hồ Chí Minh,10.7599299893971,106.670969995286
ATM Techcombank CTY TNHH FWKK Việt Nam 1,"Đồi Trại Quan, X. Sơn Đông, H. Lập Thạch, Tỉnh Vĩnh Phúc",False,Lập Thạch,Vĩnh Phúc,21.313745,105.4602661
ATM Techcombank CTY TNHH FWKK Việt Nam 2,"Đồi Trại Quan, X. Sơn Đông, H. Lập Thạch, Tỉnh Vĩnh Phúc",False,Lập Thạch,Vĩnh Phúc,21.313745,105.4602661
ATM Techcombank CTY TNHH Midori Apparel Việt Nam,"Lô CN10, KCN Khai Quang, P. Khai Quang, TP. Vĩnh Yên, Tỉnh Vĩnh Phúc",False,Vĩnh Yên,Vĩnh Phúc,21.307903,105.633324
ATM Techcombank Vĩnh Phúc 1,"Tòa nhà Việt Đức Financial Building, 8 Tôn Đức Thắng, P. Khai Quang, TP. Vĩnh Yên, Tỉnh Vĩnh Phúc",False,Vĩnh Yên,Vĩnh Phúc,21.3108455613212,105.611880959817
ATM Techcombank CTY TNHH Vina Union,"Lô A9, KCN Bá Thiện 2, X. Thiện Kế, H. Bình Xuyên, Tỉnh Vĩnh Phúc",False,Bình Xuyên,Vĩnh Phúc,21.343828,105.66996
ATM Techcombank Vĩnh Phúc 2,"Tòa nhà Việt Đức Financial Building, 8 Tôn Đức Thắng, P. Khai Quang, TP. Vĩnh Yên, Tỉnh Vĩnh Phúc",False,Vĩnh Yên,Vĩnh Phúc,21.3108455613212,105.611880959817
ATM Techcombank KCN Phố Nối B,"KCN Dệt may Phố Nối B, X. Liêu Xá, H. Yên Mỹ, Tỉnh Hưng Yên",False,Yên Mỹ,Hưng Yên,20.9256944,106.0647222
ATM Techcombank CTY TNHH Sumitomo Electric,"Lô 3, đường TS 6, KCN Tiên Sơn, X. Hoàn Sơn, H. Tiên Du, Tỉnh Bắc Ninh",False,Tiên Du,Bắc Ninh,21.130392,106.00856
ATM Techcombank Bưu Điện KCN Tiên Sơn,"Đường TS11, KCN Tiên Sơn, thôn Móng Núi, X. Hoàn Sơn, H. Tiên Du, Tỉnh Bắc Ninh",False,Tiên Du,Bắc Ninh,21.123768,105.998937
ATM Techcombank Từ Sơn,"382-390 Trần Phú, P. Đông Ngàn, TP. Từ Sơn, Tỉnh Bắc Ninh",False,Từ Sơn,Bắc Ninh,21.1157370819417,105.955099908965
ATM Techcombank Tiên Du,"106 Lý Thường Kiệt, thị trấn Lim, H. Tiên Du, Tỉnh Bắc Ninh",False,Tiên Du,Bắc Ninh,21.1421552805442,106.017262766636
ATM Techcombank CTY Foseca Bắc Ninh,"Lô G6-1, KCN Quế Võ, X. Phương Liễu, H. Quế Võ, Tỉnh Bắc Ninh",False,Quế Võ,Bắc Ninh,21.158447,106.118065
ATM Techcombank Nha Trang 1,"TTTM Vincom Plaza Nha Trang, 44-46 Lê Thánh Tôn, P. Lộc Thọ, TP. Nha Trang, Tỉnh Khánh Hòa",False,Nha Trang,Khánh Hòa,12.2425905941041,109.194013266468
ATM Techcombank Vincom Trần Phú,"78-80 Trần Phú, P. Lộc Thọ, TP. Nha Trang, Tỉnh Khánh Hòa",False,Nha Trang,Khánh Hòa,12.2330454,109.1973669
ATM Techcombank Nha Trang 2,"TTTM Vincom Plaza Nha Trang, 44-46 Lê Thánh Tôn, P. Lộc Thọ, TP. Nha Trang, Tỉnh Khánh Hòa",False,Nha Trang,Khánh Hòa,12.2425905941041,109.194013266468
ATM Techcombank Khu Du Lịch Vinpearl Nha Trang,"Sảnh 5 sao, Bến tàu Vinpearl, Đảo Hòn Tre, P. Vĩnh Nguyên, TP. Nha Trang, Tỉnh Khánh Hoà",False,Nha Trang,Khánh Hòa,12.2030042,109.2172179
ATM Techcombank Đảo Vinpearl Nha Trang,"Khu vực thủy cung, khu vui chơi VinWonders, Đảo Hòn Tre, P. Vĩnh Nguyên, TP. Nha Trang, Tỉnh Khánh Hòa",False,Nha Trang,Khánh Hòa,12.2192121,109.2410141
ATM Techcombank Marriott Nha Trang Resort & Spa,"Tầng 2, Nha Trang Marriott Resort & Spa, Đảo Hòn Tre, P. Vĩnh Nguyên, TP. Nha Trang, Tỉnh Khánh Hòa",False,Nha Trang,Khánh Hòa,12.2184119,109.2547608
ATM Techcombank Chí Linh,"39 Nguyễn Hữu Cảnh, P. Nguyễn An Ninh, TP. Vũng Tàu, Tỉnh Bà Rịa - Vũng Tàu",False,Vũng Tàu,Bà Rịa - Vũng Tàu,10.3904899897451,107.103799266447
ATM Techcombank 30/4,"429 đường 30/4, P. Rạch Dừa, TP. Vũng Tàu, Tỉnh Bà Rịa - Vũng Tàu",False,Vũng Tàu,Bà Rịa - Vũng Tàu,10.3974560897385,107.1100306511
ATM Techcombank Siêu Thị Vinatext Cần Thơ,"42 đường 30/4, P. An Phú, Q. Ninh Kiều, TP. Cần Thơ",False,Ninh Kiều,Cần Thơ,10.0305712143159,105.780995712467
ATM Techcombank UBND Phường Hưng Lợi Tỉnh Cần Thơ,"190 đường 30/4, P. Hưng Lợi, Q. Ninh Kiều, TP. Cần Thơ",False,Ninh Kiều,Cần Thơ,10.0169457512584,105.765331706926
ATM Techcombank Khách Sạn Bưu Điện Hạ Long,"3 Vườn Đào, P. Bãi Cháy, TP. Hạ Long, Tỉnh Quảng Ninh",False,Hạ Long,Quảng Ninh,20.958313,107.050547
ATM Techcombank Yazaki Đông Mai,"Lô CN-02, KCN Đông Mai, P. Đông Mai, TX. Quảng Yên, Tỉnh Quảng Ninh",False,Quảng Yên,Quảng Ninh,21.004719,106.84138
ATM Techcombank Cẩm Phả,"180 -182 Trần Phú, P. Cẩm Thành, TP. Cẩm Phả, Tỉnh Quảng Ninh",False,Cẩm Phả,Quảng Ninh,21.0128251302531,107.283422752223
ATM Techcombank Tòa Nhà Liên Cơ Quan,"Tòa nhà Liên Cơ Quan, đường Nguyễn Văn Cừ, P. Hồng Hà, TP. Hạ Long, Tỉnh Quảng Ninh",False,Hạ Long,Quảng Ninh,20.944309,107.12276
ATM Techcombank CTY Kaiser 2,"Đường D2, KCN Mỹ Phước, P. Thới Hòa, TP. Bến Cát, Tỉnh Bình Dương",False,Bến Cát,Bình Dương,11.125126,106.598294
ATM Techcombank CTY An Hưng Tường,"Khu phố 3, P. Tân Định, TP. Bến Cát, Tỉnh Bình Dương",False,Bến Cát,Bình Dương,11.054731,106.624867
ATM Techcombank CTY Cổ Phần Lâm Việt,"Đường Trịnh Hoài Đức, khu phố Khánh Lộc, P. Khánh Bình, TP. Tân Uyên, Tỉnh Bình Dương",False,Tân Uyên,Bình Dương,11.03852958,106.7521248
ATM Techcombank CTY Esquel Asia Bình Dương 1,"14 Đường Số 5, KCN VSIP 1, P. Thuận Giao, TP. Thuận An, Tỉnh Bình Dương",False,Thuận An,Bình Dương,10.934775,106.719064
ATM Techcombank CTY Esquel Asia Bình Dương 2,"14 Đường Số 5, KCN VSIP 1, P. Thuận Giao, TP. Thuận An, Tỉnh Bình Dương",False,Thuận An,Bình Dương,10.934775,106.719064
ATM Techcombank Trường Trần Văn Ơn,"1/182 Hoà Lân, khu phố Hòa Lân 2, P. Thuận Giao, TP. Thuận An, Tỉnh Bình Dương",False,Thuận An,Bình Dương,10.948962,106.715477
ATM Techcombank CTY Cổ Phần Quốc Tế Bắc Sài Gòn 1,"Số 7, Lô DC 36, đường D1, Khu OASIS KCN VSIP 1, P. An Phú, TP. Thuận An, Tỉnh Bình Dương",False,Thuận An,Bình Dương,10.941141,106.728182
ATM Techcombank CTY Masan Bình Dương 1,"Lô 6, KCN Tân Đông Hiệp A, P. Tân Đông Hiệp, TP. Dĩ An, Tỉnh Bình Dương",False,Dĩ An,Bình Dương,10.906379,106.787796
ATM Techcombank CTY Masan Bình Dương 2,"Lô 6, KCN Tân Đông Hiệp A, P. Tân Đông Hiệp, TP. Dĩ An, Tỉnh Bình Dương",False,Dĩ An,Bình Dương,10.906379,106.787796
ATM Techcombank CTY Gỗ Tân Nhật,"Lô C1, C2, C3 và C4, đường N5, KCN Nam Tân Uyên mở rộng, P. Uyên Hưng, TP. Tân Uyên, Tỉnh Bình Dương",False,Tân Uyên,Bình Dương,11.10336,106.78652
ATM Techcombank CTY Kaiser 1,"Đường D2, KCN Mỹ Phước, P. Thới Hòa, TP. Bến Cát, Tỉnh Bình Dương",False,Bến Cát,Bình Dương,11.125126,106.598294
ATM Techcombank Bưu Điện Tỉnh Bình Dương,"324 Đại lộ Bình Dương, P.Phú Hòa, TP. Thủ Dầu Một, Tỉnh Bình Dương",False,Thủ Dầu Một,Bình Dương,10.981356,106.667154
ATM Techcombank CTY Esquel Asia Bình Dương 3,"14 Đường Số 5, KCN VSIP 1, P. Thuận Giao, TP. Thuận An, Tỉnh Bình Dương",False,Thuận An,Bình Dương,10.935607,106.719151
ATM Techcombank CTY Cổ Phần Quốc Tế Bắc Sài Gòn 2,"Số 7, Lô DC 36, đường D1, Khu OASIS KCN VSIP 1, P. An Phú, TP. Thuận An, Tỉnh Bình Dương",False,Thuận An,Bình Dương,10.941141,106.728182
ATM Techcombank CTY Lợi Hào 1,"Xưởng 3, khu phố 6, P. Uyên Hưng, TP. Tân Uyên, Tỉnh Bình Dương",False,Tân Uyên,Bình Dương,11.093243,106.791687
ATM Techcombank CTY Lợi Hào 2,"Xưởng 2, Lô A3-A4, đường số 1, cụm công nghiệp Uyên Hưng, P. Uyên Hưng, TP. Tân Uyên, Tỉnh Bình Dương",False,Tân Uyên,Bình Dương,11.093243,106.791687
ATM Techcombank KCN Phúc Điền,"KCN Phúc Điền, X. Cẩm Phúc, H. Cẩm Giàng, Tỉnh Hải Dương",False,Cẩm Giàng,Hải Dương,20.93602,106.22483
ATM Techcombank KCN Tân Trường,"Cổng KCN Tân Trường, X. Tân Trường, H. Cẩm Giàng, Tỉnh Hải Dương",False,Cẩm Giàng,Hải Dương,20.9325,106.19197
ATM Techcombank KCN Đại An Hải Dương,"Km51 Quốc lộ 5, P. Tứ Minh, TP. Hải Dương, Tỉnh Hải Dương",False,Hải Dương,Hải Dương,20.9331,106.26842
ATM Techcombank CTY Anco,"Lô A4, đường số 4, KCN Sông Mây, X. Bắc Sơn, H. Trảng Bom, Tỉnh Đồng Nai",False,Trảng Bỏm,Đồng Nai,10.979296,106.953939
ATM Techcombank CTY Esquel Asia Đồng Nai,"Lô 102/6-1, đường số 2, KCN Amata, P. Long Bình, TP. Biên Hòa, Tỉnh Đồng Nai",False,Biên Hòa,Đồng Nai,10.942593,106.887756
ATM Techcombank Siêu Thị Đồng Nai,"2A-2B Quốc lộ 1A, P. Tân Hiệp, TP. Biên Hòa, Tỉnh Đồng Nai",False,Biên Hòa,Đồng Nai,10.967608,106.857628
ATM Techcombank CTY Great Veca 1,"KCN Sông Mây, X. Bắc Sơn, H. Trảng Bom, Tỉnh Đồng Nai",False,Trảng Bỏm,Đồng Nai,10.976665,106.942731
ATM Techcombank CTY Great Veca 2,"KCN Sông Mây, X. Bắc Sơn, H. Trảng Bom, Tỉnh Đồng Nai",False,Trảng Bỏm,Đồng Nai,10.976665,106.942731
ATM Techcombank KCN Amata Đồng Nai,"Đường Amata, KCN Amata, P. Long Bình, TP. Biên Hòa, Tỉnh Đồng Nai",False,Biên Hòa,Đồng Nai,10.937974,106.887082
ATM Techcombank CTY Center Power Tech,"Đường 5C, KCN Nhơn trạch 2, thị trấn Hiệp Phước, H. Nhơn Trạch, Tỉnh Đồng Nai",False,Nhơn Trạch,Đồng Nai,10.727189,106.918073
ATM Techcombank Nhà Thiếu Nhi Quận Thủ Đức 1,"281 Võ Văn Ngân, P. Linh Chiểu, TP. Thủ Đức, TP. Hồ Chí Minh",False,Thủ Đức,Hồ Chí Minh,10.85047,106.7671
ATM Techcombank Khách Sạn Somerset Tây Hồ,"254D Thụy Khuê, P. Thụy Khuê, Q. Tây Hồ, TP. Hà Nội",False,Tây Hồ,Hà Nội,21.043467,105.818489
ATM Techcombank Bộ Công Thương,"54 Hai Bà Trưng, P. Trần Hưng Đạo, Q. Hoàn Kiếm, TP. Hà Nội",False,Hoàn Kiếm,Hà Nội,21.025467,105.848557
ATM Techcombank Trường THCS Phú Mỹ 1,"120B Ngô Tất Tố, P. 19, Q. Bình Thạnh, TP. Hồ Chí Minh",False,Bình Thạnh,Hồ Chí Minh,10.7925,106.71222
ATM Techcombank CTY Vinacontrol,"54 Trần Nhân Tông, P. Nguyễn Du, Q. Hai Bà Trưng, TP. Hà Nội",False,Hai Bà Trưng,Hà Nội,21.016994,105.847809
ATM Techcombank Tòa nhà V Tower Hà Nội,"649 Kim Mã, P. Kim Mã, Q. Ba Đình, TP. Hà Nội",False,Ba Đình,Hà Nội,21.02839,105.8062
ATM Techcombank Bảo Hiểm Xã Hội Quận 9 1,"442 Lê Văn Việt, P. Tăng Nhơn Phú A, TP. Thủ Đức, TP. Hồ Chí Minh",False,Thủ Đức,Hồ Chí Minh,10.84419,106.78959
ATM Techcombank Khu Phức Hợp Ẩm Thực Almaz,"Almaz Vinhomes Riverside, đường Hoa Lan, P. Phúc Lợi, Q. Long Biên, TP. Hà Nội",False,Long Biên,Hà Nội,21.046667,105.917194
ATM Techcombank Coopmart Nguyễn Ảnh Thủ,"162/7 Nguyễn Ảnh Thủ, P. Trung Mỹ Tây, Q. 12, TP. Hồ Chí Minh",False,Quận 12,Hồ Chí Minh,10.85744,106.60876
ATM Techcombank Vinmart Bàu Cát,"Lô M, Chung Cư Bàu Cát 2, đường Vườn Lan, P. 10, Q. Tân Bình, TP. Hồ Chí Minh",False,Tân Bình,Hồ Chí Minh,10.787472,106.645056
ATM Techcombank CTY Cổ Phần & Xây Dựng Cấp Thoát Nước Waseco,"10 Phổ Quang, P. 2, Q. Tân Bình, TP. Hồ Chí Minh",False,Tân Bình,Hồ Chí Minh,10.80237,106.66577
ATM Techcombank CTY Dịch Vụ Hàng Không Tân Sơn Nhất,"46 Hậu Giang, P. 2, Q. Tân Bình, TP. Hồ Chí Minh",False,Tân Bình,Hồ Chí Minh,10.80816,106.66267
ATM Techcombank Siêu Thị T-Mart Lĩnh Nam 1,"72 Lĩnh Nam, P. Mai Động, Q. Hoàng Mai, TP. Hà Nội",False,Hoàng Mai,Hà Nội,20.988379,105.866554
ATM Techcombank Siêu Thị T-Mart Lĩnh Nam 2,"72 Lĩnh Nam, P. Mai Động, Q. Hoàng Mai, TP. Hà Nội",False,Hoàng Mai,Hà Nội,20.988379,105.866554
ATM Techcombank CTY Cổ Phần Gree,"15 Hồng Hà, P. 2, Q. Tân Bình, TP. Hồ Chí Minh",False,Tân Bình,Hồ Chí Minh,10.81326,106.66925
ATM Techcombank Vincom Long Biên,"TTTM Vincom Plaza Long Biên, KĐT Vinhomes Riverside, P. Việt Hưng, Q. Long Biên, TP. Hà Nội",False,Long Biên,Hà Nội,21.051306,105.917197
ATM Techcombank CTY Kỹ Thuật Máy Bay A75,"Sân bay Tân Sơn Nhất, P. 2, Q. Tân Bình, TP. Hồ Chí Minh",False,Tân Bình,Hồ Chí Minh,10.81634,106.66739
ATM Techcombank Toà Nhà I9 Quận Thanh Xuân,"Tòa I9, KĐT Thanh Xuân Bắc, P. Thanh Xuân Bắc, Q. Thanh Xuân, TP. Hà Nội",False,Thanh Xuân,Hà Nội,20.99555,105.7987
ATM Techcombank KCN Vĩnh Tuy,"KCN Vĩnh Tuy, P. Vĩnh Hưng, Q. Hoàng Mai, TP. Hà Nội",False,Hoàng Mai,Hà Nội,20.981615,105.872345
ATM Techcombank Làng Sinh Viên Hacinco 2,"KĐT Hacinco, P. Thanh Xuân Bắc, Q. Thanh Xuân, TP. Hà Nội",False,Thanh Xuân,Hà Nội,21.00056,105.803
ATM Techcombank Tòa Nhà Chung Cư Trung Yên,"Chung cư Trung Yên, KĐT Trung Yên, P. Trung Hòa, Q. Cầu Giấy, TP. Hà Nội",False,Cầu Giấy,Hà Nội,21.01471,105.796
ATM Techcombank Chi Cục Thuế Quận Gò Vấp,"308 Nguyễn Văn Nghi, P. 7, Q. Gò Vấp, TP. Hồ Chí Minh",False,Gò Vấp,Hồ Chí Minh,10.82635,106.68299
ATM Techcombank Đoàn Bay 919 Phía Nam,"108 Hồng Hà, P. 2, Q. Tân Bình, TP. Hồ Chí Minh",False,Tân Bình,Hồ Chí Minh,10.81297,106.66996
ATM Techcombank CTY Trực Thăng Việt Nam,"39B Trường Sơn, P. 4, Q. Tân Bình, TP. Hồ Chí Minh",False,Tân Bình,Hồ Chí Minh,10.80896,106.66453
ATM Techcombank Bát Sứ,"41 Bát Sứ, P. Hàng Bồ, Q. Hoàn Kiếm, TP. Hà Nội",False,Hoàn Kiếm,Hà Nội,21.034533,105.847397
ATM Techcombank Nhà Sách Nguyễn Văn Cừ 1 ,"573-575 Nguyễn Duy Trinh, P. Bình Trưng Đông, TP. Thủ Đức, TP. Hồ Chí Minh",False,Thủ Đức,Hồ Chí Minh,10.78859,106.77274
ATM Techcombank Học Viện Công Nghệ Bưu Chính Viễn Thông 1,"Km10 Nguyễn Trãi, P. Mộ Lao, Q. Hà Đông, Tp. Hà Nội",False,Hà Đông,Hà Nội,20.979997,105.787442
ATM Techcombank Bệnh Viện Quân Dân Miền Đông 2,"50 Lê Văn Việt, P. Hiệp Phú, TP. Thủ Đức, TP. Hồ Chí Minh",False,Thủ Đức,Hồ Chí Minh,10.84537,106.778
ATM Techcombank CTY In Báo Sài Gòn Giải Phóng,"90A Nguyễn Văn Quá, P. Đông Hưng Thuận, Q. 12, TP. Hồ Chí Minh",False,Quận 12,Hồ Chí Minh,10.82993,106.6274
ATM Techcombank Vincom Nguyễn Chí Thanh,"54A Nguyễn Chí Thanh, P. Láng Thượng, Q. Đống Đa, TP. Hà Nội",False,Đống Đa,Hà Nội,21.02307,105.8089
ATM Techcombank Học Viện Công Nghệ Bưu Chính Viễn Thông 2,"Km10 Nguyễn Trãi, P. Mộ Lao, Q. Hà Đông, Tp. Hà Nội",False,Hà Đông,Hà Nội,20.979997,105.787442
ATM Techcombank Vincom Phạm Ngọc Thạch,"2 Phạm Ngọc Thạch, P. Kim Liên, Q. Đống Đa, TP. Hà Nội",False,Đống Đa,Hà Nội,21.00596,105.832115
ATM Techcombank Toà Nhà N1,"62 Nguyễn Thị Định, P. Trung Hòa, Q. Cầu Giấy, TP. Hà Nội",False,Cầu Giấy,Hà Nội,21.00891,105.8046
ATM Techcombank Nhà Thiếu Nhi Quận Thủ Đức 2,"281 Võ Văn Ngân, P. Linh Chiểu, TP. Thủ Đức, TP. Hồ Chí Minh",False,Thủ Đức,Hồ Chí Minh,10.85047,106.7671
ATM Techcombank Nhà Thiếu Nhi Quận Thủ Đức 3,"281 Võ Văn Ngân, P. Linh Chiểu, TP. Thủ Đức, TP. Hồ Chí Minh",False,Thủ Đức,Hồ Chí Minh,10.85047,106.7671
ATM Techcombank Bộ Kế Hoạch & Đầu Tư,"6B Hoàng Diệu, P. Quán Thánh, Q. Ba Đình, TP. Hà Nội",False,Ba Đình,Hà Nội,21.039625,105.839821
ATM Techcombank Coopmart Quang Trung,"304A Quang Trung, P. 11, Q. Gò Vấp, TP. Hồ Chí Minh",False,Gò Vấp,Hồ Chí Minh,10.83506,106.66249
ATM Techcombank Bộ Lao Động Thương Binh & Xã hội,"2 Đinh Lễ, P. Tràng Tiền, Q. Hoàn Kiếm, TP. Hà Nội",False,Hoàn Kiếm,Hà Nội,21.025549,105.854668
ATM Techcombank Bảo Hiểm Xã Hội Quận 9 2,"442 Lê Văn Việt, P. Tăng Nhơn Phú A, TP. Thủ Đức, TP. Hồ Chí Minh",False,Thủ Đức,Hồ Chí Minh,10.84419,106.78959
ATM Techcombank Bộ Ngoại Giao Tôn Thất Đàm,"1 Tôn Thất Đàm, P. Điện Biên, Q. Ba Đình, TP. Hà Nội",False,Ba Đình,Hà Nội,20.036085,105.837105
ATM Techcombank Bộ Tư Pháp 1,"60 Trần Phú, P. Điện Biên, Q. Ba Đình, TP. Hà Nội",False,Ba Đình,Hà Nội,21.031858,105.835709
ATM Techcombank Coopmart Phan Văn Trị,"543/1 Phan Văn Trị, P. 7, Q. Gò Vấp, TP. Hồ Chí Minh",False,Gò Vấp,Hồ Chí Minh,10.82953,106.68212
ATM Techcombank Big C Thăng Long,"222 Trần Duy Hưng, P. Trung Hòa, Q. Cầu Giấy, TP. Hà Nội",False,Cầu Giấy,Hà Nội,21.00693,105.7933
ATM Techcombank CTY Cổ Phần Hoàng Hạc 1,"Lô IV, 19-20 Tây Thạnh, KCN Tân Bình, P. Tây Thạnh, Q. Tân Phú, TP. Hồ Chí Minh",False,Tân Phú,Hồ Chí Minh,10.8189,106.62829
ATM Techcombank CTY Cổ Phần Hoàng Hạc 2,"Lô IV, 19-20 Tây Thạnh, KCN Tân Bình, P. Tây Thạnh, Q. Tân Phú, TP. Hồ Chí Minh",False,Tân Phú,Hồ Chí Minh,10.8189,106.62829
ATM Techcombank CTY Cổ Phần Hoàng Hạc 3,"Lô IV, 19-20 Tây Thạnh, KCN Tân Bình, P. Tây Thạnh, Q. Tân Phú, TP. Hồ Chí Minh",False,Tân Phú,Hồ Chí Minh,10.8189,950.0
ATM Techcombank Bảo Tàng Lịch Sử Quân Sự Việt Nam 2,"28A Điện Biên Phủ, P. Điện Biên, Q. Ba Đình, TP. Hà Nội",False,Ba Đình,Hà Nội,21.031763,105.83979
ATM Techcombank Sảnh Tòa Nhà Hành Chính Vincom,"7 Bằng Lăng 1, KĐT Vinhomes Riverside, P. Việt Hưng, Q. Long Biên, TP. Hà Nội",False,Long Biên,Hà Nội,21.0515,105.908528
ATM Techcombank Bảo Tàng Lịch Sử Quân Sự Việt Nam 1,"28A Điện Biên Phủ, P. Điện Biên, Q. Ba Đình, TP. Hà Nội",False,Ba Đình,Hà Nội,21.031763,105.83979
ATM Techcombank Bộ Ngoại Giao Chu Văn An,"7 Chu Văn An, P. Điện Biên, Q. Ba Đình, TP. Hà Nội",False,Ba Đình,Hà Nội,21.033152,105.836533
ATM Techcombank Trung Tâm Dịch Vụ Du Lịch Hòn Ngọc Phương Nam,"624 Kha Vạn Cân, P. Linh Trung, TP. Thủ Đức, TP. Hồ Chí Minh",False,Thủ Đức,Hồ Chí Minh,10.84089,106.74584
ATM Techcombank Aeonmall Tân Phú,"30 Bờ Bao Tân Thắng, P. Sơn Kỳ, Q. Tân Phú, TP. Hồ Chí Minh",False,Tân Phú,Hồ Chí Minh,10.80204,106.61788
ATM Techcombank Nhà Hát Múa Rối Việt Nam,"361 Trường Chinh, P. Khương Trung, Q. Thanh Xuân, TP. Hà Nội",False,Thanh Xuân,Hà Nội,21.002701,105.821515
ATM Techcombank Auto Banking Tô Ký 1,"155 Tô Ký, P. Đông Hưng Thuận, Q. 12, TP. Hồ Chí Minh",False,Quận 12,Hồ Chí Minh,10.84879,106.63308
ATM Techcombank Auto Banking Tô Ký 2,"155 Tô Ký, P. Đông Hưng Thuận, Q. 12, TP. Hồ Chí Minh",False,Quận 12,Hồ Chí Minh,10.84879,106.63308
ATM Techcombank Bộ Tư Pháp 2,"60 Trần Phú, P. Điện Biên, Q. Ba Đình, TP. Hà Nội",False,Ba Đình,Hà Nội,21.031832,105.836311
ATM Techcombank CTY Detech,"15B Phạm Hùng, P. Mỹ Đình 2, Q. Nam Từ Liêm, TP. Hà Nội",False,Nam Từ Liêm,Hà Nội,21.02852,105.7823
ATM Techcombank Metro Hiệp Phú,"2 Trương Thị Hoa, P. Tân Thới Hiệp, Q. 12, TP. Hồ Chí Minh",False,Quận 12,Hồ Chí Minh,10.86328,106.6478
ATM Techcombank Siêu Thị Điện Máy Pico,"76 Nguyễn Trãi, P. Thượng Đình, Q. Thanh Xuân, TP. Hà Nội",False,Thanh Xuân,Hà Nội,21.000067,105.815583
ATM Techcombank Phòng Khám Đa Khoa Tân Bình 1,"Cụm 2 Lê Trọng Tấn, P. Tây Thạnh, Q. Tân Phú, TP. Hồ Chí Minh",False,Tân Phú,Hồ Chí Minh,10.81051,106.61264
ATM Techcombank Phòng Khám Đa Khoa Tân Bình 2,"Cụm 2 Lê Trọng Tấn, P. Tây Thạnh, Q. Tân Phú, TP. Hồ Chí Minh",False,Tân Phú,Hồ Chí Minh,10.81051,106.61264
ATM Techcombank Xí Nghiệp Quản Lý Nhà Đống Đa,"252 Tôn Đức Thắng. P. Hàng Bột, Q. Đống Đa, TP. Hà Nội",False,Đống Đa,Hà Nội,21.02067,105.831009
ATM Techcombank Bảo Tàng Cách Mạng Việt Nam 1,"25 Tông Đản, P. Tràng Tiền, Q. Hoàn Kiếm, TP. Hà Nội",False,Hoàn Kiếm,Hà Nội,21.025383,105.859528
ATM Techcombank CTY Cổ Phần Traphaco,"Ngõ 15 Ngọc Hồi, P. Hoàng Liệt, Q. Hoàng Mai, TP. Hà Nội",False,Hoàng Mai,Hà Nội,20.961132,105.84465
ATM Techcombank UBND Phường Quan Hoa,"68 Dương Quảng Hàm, P. Quan Hoa, Q. Cầu Giấy, TP.Hà Nội",False,Cầu Giấy,Hà Nội,21.03458,105.7996
ATM Techcombank CTY Chuyển Phát Nhanh EMS,"1 Tân Xuân, P. Xuân Đỉnh, Q. Bắc Từ Liêm, TP. Hà Nội",False,Bắc Từ Liêm,Hà Nội,21.07834,105.7865
ATM Techcombank Bệnh Viện Phụ Sản,"43 Tràng Thi, P. Hàng Bông, Q. Hoàn Kiếm, TP. Hà Nội",False,Hoàn Kiếm,Hà Nội,21.026407,105.847504
ATM Techcombank Cao Đẳng Sư Phạm 1,"387 Hoàng Quốc Việt, P. Nghĩa Tân, Q. Cầu Giấy, TP. Hà Nội",False,Cầu Giấy,Hà Nội,21.04621,105.7922
ATM Techcombank Công An Phường Dịch Vọng 2,"1 Nguyễn Khánh Toàn, P. Dịch Vọng, Q. Cầu Giấy, TP. Hà Nội",False,Cầu Giấy,Hà Nội,21.03756,105.7946
ATM Techcombank Công An Phường Dịch Vọng 1,"1 Nguyễn Khánh Toàn, P. Dịch Vọng, Q. Cầu Giấy, TP. Hà Nội",False,Cầu Giấy,Hà Nội,21.03756,105.7946
ATM Techcombank Fivimart Lê Đức Thọ,"89 Lê Đức Thọ, P. Mỹ Đình 1, Q. Nam Từ Liêm, TP. Hà Nội",False,Nam Từ Liêm,Hà Nội,21.02843,105.7688
ATM Techcombank Cao Đẳng Cơ Điện,"160 Mai Dịch, P. Mai Dịch, Q. Cầu Giấy, TP. Hà Nội",False,Cầu Giấy,Hà Nội,21.04281,105.7752
ATM Techcombank Viện Kiểm Sát Nhân Dân Đống Đa,"287 Tây Sơn, P. Láng Hạ, Q. Đống Đa, TP. Hà Nội",False,Đống Đa,Hà Nội,21.00751,105.8234
ATM Techcombank CTY Cổ Phần Cơ Điện Thủ Đức,"Km9 Xa lộ Hà Nội, P. Linh Trung, TP. Thủ Đức, TP. Hồ Chí Minh",False,Thủ Đức,Hồ Chí Minh,10.83032,106.76236
ATM Techcombank UBND Quận Long Biên,"3 Vạn Hanh, P. Việt Hưng, Q. Long Biên, TP. Hà Nội",False,Long Biên,Hà Nội,21.063556,105.90275
ATM Techcombank Đảo Kim Cương,"1 đường 104, P. Bình Trưng Tây, TP. Thủ Đức, TP. Hồ Chí Minh",False,Thủ Đức,Hồ Chí Minh,10.77875,106.74668
ATM Techcombank Tòa nhà Lotte Hà Nội,"Tầng 5, TTTM Lotte Center Hà Nội, 54 Liễu Giai, P. Cống Vị, Q. Ba Đình, TP. Hà Nội",False,Ba Đình,Hà Nội,21.031694,105.812508
ATM Techcombank Tòa Nhà Indochina,"241 Xuân Thủy, P. Dịch Vọng Hậu, Q. Cầu Giấy, TP. Hà Nội",False,Cầu Giấy,Hà Nội,21.03634,105.7823
ATM Techcombank Trường Mầm Non Ngôi Sao,"138 Bình Quới, P. 27, Q. Bình Thạnh, TP. Hồ Chí Minh",False,Bình Thạnh,Hồ Chí Minh,10.81676,106.72009
ATM Techcombank TTTM Aeon Mall Long Biên,"Tầng 1, TTTM Aeon Mall Long Biên, 27 Cổ Linh, P. Long Biên, Q. Long Biên,TP. Hà Nội",False,Long Biên,Hà Nội,21.0276389,105.8987222
ATM Techcombank CTY Cổ Phần Chế Tạo Điện Cơ Hà Nội,"Km12 Cầu Diễn, P. Phúc Diễn, Q. Bắc Từ Liêm, TP. Hà Nội",False,Bắc Từ Liêm,Hà Nội,21.04694,105.7471
ATM Techcombank Siêu Thị Big C Hồ Gươm,"110 Trần Phú, P. Mộ Lao, Q. Hà Đông, TP. Hà Nội",False,Hà Đông,Hà Nội,20.978633,105.785441
ATM Techcombank CTY TNHH Nobland 1,"10H1 KCN Hiệp Thành, P. Hiệp Thành, Q. 12, TP. Hồ Chí Minh",False,Quận 12,Hồ Chí Minh,10.8824,106.63519
ATM Techcombank CTY TNHH Nobland 2,"10H1 KCN Hiệp Thành, P. Hiệp Thành, Q. 12, TP. Hồ Chí Minh",False,Quận 12,Hồ Chí Minh,10.8824,106.63519
ATM Techcombank CTY Vận Tải Liên Ninh,"Km 15+200 Quốc lộ 1A, thôn Yên Phú, X. Liên Ninh, H.Thanh Trì, TP. Hà Nội",False,Thanh Trì,Hà Nội,20.90811,105.852898
ATM Techcombank B'smart Nguyễn Thị Định,"535 Nguyễn Thị Định, P. Cát Lái, TP. Thủ Đức, TP Hồ Chí Minh",False,Thủ Đức,Hồ Chí Minh,10.77637,106.76604
ATM Techcombank Trạm Y Tế Phường 8 Quận Gò Vấp,"1000 Quang Trung, P. 8, Q. Gò Vấp, TP. Hồ Chí Minh",False,Gò Vấp,Hồ Chí Minh,10.844659,106.666718
ATM Techcombank Thôn Ngọc Giả 2 ,"Công ty TNHH K+K Fashion - Cụm công nghiệp Ngọc Hòa, thôn Ngọc Giả, X. Ngọc Hòa, H. Chương Mỹ, TP. Hà Nội",False,Chương Mỹ,Hà Nội,20.923645,105.696387
ATM Techcombank Thôn Ngọc Giả 1,"Công ty TNHH K+K Fashion - Cụm công nghiệp Ngọc Hòa, thôn Ngọc Giả, X. Ngọc Hòa, H. Chương Mỹ, TP. Hà Nội",False,Chương Mỹ,Hà Nội,20.923645,105.696387
ATM Techcombank Thôn Phú Lãm,"Trường Cao đẳng Kinh tế - Kỹ thuật Thương mại, 126 Phố Xốm, P. Phú Lãm, Q. Hà Đông, TP. Hà Nội",False,Hà Đông,Hà Nội,20.942696,105.756686
ATM Techcombank Học Viện Tòa Án,"Đường 282, X. Kim Sơn, H. Gia Lâm, TP. Hà Nội",False,Gia Lâm,Hà Nội,21.0267778,105.997417
ATM Techcombank An Phú,"159 Võ Nguyên Giáp, P. Thảo Điền, TP. Thủ Đức, TP. Hồ Chí Minh",False,Thủ Đức,Hồ Chí Minh,10.8025272958117,106.740701045569
ATM Techcombank Royal City,"Hầm B1, 72A Nguyễn Trãi, P. Thượng Đình, Q. Thanh Xuân, TP. Hà Nội",False,Thanh Xuân,Hà Nội,21.002934,105.815273
ATM Techcombank Tòa Nhà Anh Minh Building,"36 Hoàng Cầu, P. Ô Chợ Dừa, Q. Đống Đa, TP. Hà Nội",False,Đống Đa,Hà Nội,21.10854,105.8247
ATM Techcombank Times City,"458 Minh Khai, P. Vĩnh Tuy, Q. Hai Bà Trưng, TP. Hà Nội",False,Hai Bà Trưng,Hà Nội,20.993979,105.868996
ATM Techcombank Trường UNIS Ciputra,"G9 Ciputra, P. Phú Thượng, Q. Tây Hồ, TP. Hà Nội",False,Tây Hồ,Hà Nội,21.07542,105.8093
ATM Techcombank Hàng Đậu,"25B Phan Đình Phùng, P. Quán Thánh, Q. Ba Đình, TP. Hà Nội",False,Ba Đình,Hà Nội,21.0400399129199,105.844671978281
ATM Techcombank Lạc Trung,"23 Lạc Trung, P. Vĩnh Tuy, Q. Hai Bà Trưng, TP. Hà Nội",False,Hai Bà Trưng,Hà Nội,21.0029993587952,105.863987194166
ATM Techcombank Bộ Ngoại Giao Lê Quang Đạo,"2 Lê Quang Đạo, P. Mễ Trì, Q. Nam Từ Liêm, TP. Hà Nội",False,Nam Từ Liêm,Hà Nội,21.00748,105.7742
ATM Techcombank Trường THCS Phú Mỹ 2,"120B Ngô Tất Tố, P. 19, Q. Bình Thạnh, TP. Hồ Chí Minh",False,Bình Thạnh,Hồ Chí Minh,10.7925,106.71222
ATM Techcombank Tòa Án Hóc Môn,"94/7 Quang Trung, thị trấn Hóc Môn, H. Hóc Môn, TP. Hồ Chí Minh",False,Hóc Môn,Hồ Chí Minh,10.88813,106.59872
ATM Techcombank Văn Thánh,"561 Điện Biên Phủ, P. 25, Q. Bình Thạnh, TP. Hồ Chí Minh",False,Bình Thạnh,Hồ Chí Minh,10.7995922952995,106.719025266451
ATM Techcombank Chung Cư Thủy Lợi 4,"205 Nguyễn Xí, P. 26, Q. Bình Thạnh, TP. Hồ Chí Minh",False,Bình Thạnh,Hồ Chí Minh,10.8160466949624,106.706968003345
ATM Techcombank Phạm Văn Đồng,"234 Phạm Văn Đồng , P. Cổ Nhuế 1, Q. Bắc Từ Liêm, TP. Hà Nội",False,Bắc Từ Liêm,Hà Nội,21.05162,105.77977
ATM Techcombank Ngọc Khánh,"Vinhomes Metropolis, 29 Liễu Giai, P. Ngọc Khánh, Q. Ba Đình, TP. Hà Nội",False,Ba Đình,Hà Nội,21.0311144749008,105.815009522902
ATM Techcombank Bình Thạnh,"177 Nguyễn Gia Trí, P. 25, Q. Bình Thạnh, TP. Hồ Chí Minh",False,Bình Thạnh,Hồ Chí Minh,10.8060639208756,106.715854024122
ATM Techcombank Gigamall 1,"240-242 Phạm Văn Đồng, P. Hiệp Bình Chánh, TP. Thủ Đức, TP. Hồ Chí Minh",False,Thủ Đức,Hồ Chí Minh,10.827618,106.721696
ATM Techcombank Bưu Điện Tỉnh Đắk Lắk,"1-3 Nơ Trang Long, P. Tân Tiến, TP. Buôn Ma Thuột, Tỉnh Đắk Lắk",False,Buôn Ma Thuột,Đắk Lắk,12.6797555,108.0441695
ATM Techcombank Việt Trì,"TTTM Vincom Plaza Việt Trì, phố Đoàn Kết, P. Tiên Cát, TP. Việt Trì, Tỉnh Phú Thọ",False,Việt Trì,Phú Thọ,21.3127263471411,105.395605813085
ATM Techcombank Khách Sạn Kim Thành,"5 Lê Lợi, P. Vĩnh Ninh, TP. Huế, Tỉnh Thừa Thiên Huế",False,Huế,Thừa Thiên Huế,16.4588559901245,107.58063062331
ATM Techcombank KCN Phú Bài 3,"Đường số 9, KCN Phú Bài, P. Phú Bài, TX. Hương Thủy, Tỉnh Thừa Thiên Huế",False,Hương Thủy,Thừa Thiên Huế,16.3910753593797,107.695375305227
ATM Techcombank Đường 1 KCN Phú Bài,"Đường số 1, KCN Phú Bài, P. Phú Bài, TX. Hương Thủy, Tỉnh Thừa Thiên Huế",False,Hương Thủy,Thừa Thiên Huế,16.3895833422599,107.695614277837
ATM Techcombank KCN Phú Bài 1,"Đường số 9, KCN Phú Bài, P. Phú Bài, TX. Hương Thủy, Tỉnh Thừa Thiên Huế",False,Hương Thủy,Thừa Thiên Huế,16.3913196823373,107.694122097259
ATM Techcombank KCN Phú Bài 2,"Đường số 9, KCN Phú Bài, P. Phú Bài, TX. Hương Thủy, Tỉnh Thừa Thiên Huế",False,Hương Thủy,Thừa Thiên Huế,16.3913196823373,107.694122097259
ATM Techcombank Huế,"24 Lý Thường Kiệt, P. Vĩnh Ninh, TP. Huế, Tỉnh Thừa Thiên Huế",False,Huế,Thừa Thiên Huế,16.4592118951011,107.591685622358
ATM Techcombank Nội Bài,"Tầng 1, Tòa nhà NTS, Cảng hàng không quốc tế Nội Bài, X. Phú Minh, H. Sóc Sơn, TP. Hà Nội",False,Sóc Sơn,Hà Nội,21.2114232019276,105.806089296876
ATM Techcombank CTY TNHH Youngone Bắc Giang,"Lô C14-15, KCN Đình Trám, X. Hoàng Ninh, H. Việt Yên, Tỉnh Bắc Giang",False,Việt Yên,Bắc Giang,21.245401,106.174943
ATM Techcombank CTY Flexcon Bắc Giang,"Thôn Núm, X. Dĩnh Trì, H. Lạng Giang, Tỉnh Bắc Giang",False,Lạng Giang,Bắc Giang,21.285157,106.232475
ATM Techcombank CTY Shinshung Bắc Giang,"Lô B1, KCN Song Khê-Nội Hoàng, X. Song Khê, TP. Bắc Giang, Tỉnh Bắc Giang",False,Bắc Giang,Bắc Giang,21.380575,106.128994
ATM Techcombank CTY Điện Tử Deayang,"Cụm công nghiệp Đồng Đình, thị Trấn Cao Thượng, H. Tân Yên, Tỉnh Bắc Giang",False,Tân Yên,Bắc Giang,21.2589391,106.1207001
ATM Techcombank Sở Văn Hóa Thể Thao & Du Lịch Lạng Sơn,"320 Bà Triệu, P. Vĩnh Trại, TP. Lạng Sơn, Tỉnh Lạng Sơn",False,Lạng Sơn,Lạng Sơn,21.85292,106.761927
ATM Techcombank Trung Tâm Thương Mại Quy Nhơn,"7 Lê Duẩn, P. Lý Thường Kiệt, TP. Quy Nhơn, Tỉnh Bình Định",False,Quy Nhơn,Bình Định,13.7735708987293,109.221378305035
ATM Techcombank KCN Thanh Oai 1,"KCN Thanh Oai, X. Bích Hòa, H. Thanh Oai, TP. Hà Nội",False,Thanh Oai,Hà Nội,20.968822,105.768807
ATM Techcombank KCN Thanh Oai 2,"KCN Thanh Oai, X. Bích Hòa, H. Thanh Oai, TP. Hà Nội",False,Thanh Oai,Hà Nội,20.970766,105.778156
ATM Techcombank Cảng Quy Nhơn,"2 Phan Chu Trinh, P. Hải Cảng, TP. Quy Nhơn, Tỉnh Bình Định",False,Quy Nhơn,Bình Định,13.7788406167696,109.238388718779
ATM Techcombank CTY Masan Miền Bắc,"KCN Nam Cấm, X. Nghi Long, H. Nghi Lộc, Tỉnh Nghệ An",False,Nghi Lộc,Nghệ An,18.8309602914831,105.657119995418
ATM Techcombank Công An Tỉnh Nghệ An,"7 Trường Thi, P. Trường Thi, TP. Vinh, Tỉnh Nghệ An",False,Vinh,Nghệ An,18.6703207931627,105.691712843678
ATM Techcombank CTY Núi Pháo,"Xóm Suối Cát, X. Hà Thượng, H. Đại Từ, TP. Thái Nguyên, Tỉnh Thái Nguyên",False,Thái Nguyên,Thái Nguyên,21.56625,105.843333
ATM Techcombank CTY Cồ Phần Thương Mại Thái Hưng,"Tổ 8, P. Gia Sàng, TP. Thái Nguyên, Tỉnh Thái Nguyên",False,Thái Nguyên,Thái Nguyên,21.6462222,105.6755556
ATM Techcombank CTY Dream Plastic 1,"Lô C, KCN Châu Sơn, P. Châu Sơn, TP. Phủ Lý, Tỉnh Hà Nam",False,Phủ Lý,Hà Nam,20.516463,105.894966
ATM Techcombank CTY Dream Plastic 2,"Lô D, cụm công nghiệp Tây Nam Phủ Lý, P. Châu Sơn, TP. Phủ Lý, Tỉnh Hà Nam",False,Phủ Lý,Hà Nam,20.529018,105.897081
ATM Techcombank An Hòa,"243H Nguyễn Văn Cừ, P. An Hòa, Q. Ninh Kiều, TP. Cần Thơ",False,Ninh Kiều,Cần Thơ,10.04755757582,105.768881568291
ATM Techcombank CTY Esquel Hòa Bình,"KCN Lương Sơn, X. Hòa Sơn, H. Lương Sơn, Tỉnh Hòa Bình",False,Lương Sơn,Hòa Bình,20.8865653636757,105.543947126299
ATM Techcombank CTY Vinsmart,"Lô CN1-06B-1&2, KCN cao Hòa Lạc, X. Hạ Bằng, H. Thạch Thất, TP. Hà Nội",False,Thạch Thất,Hà Nội,21.01305,105.45934
ATM Techcombank Đại Học Lâm Nghiệp,"Quốc lộ 21, thị trấn Xuân Mai, H. Chương Mỹ, TP. Hà Nội",False,Chương Mỹ,Hà Nội,20.896292,105.5787167
ATM Techcombank Bưu Điện Tỉnh Long An,"1 Quốc lộ 1A, P. 2, TP. Tân An, Tỉnh Long An",False,Tân An,Long An,10.5400496076353,106.408716250415
ATM Techcombank Thường Tín,"Tầng 2,3,4 nhà 120 phố Ga, thị trấn Thường Tín, H. Thường Tín, TP. Hà Nội",False,Thường Tín,Hà Nội,20.87303,105.86378
ATM Techcombank Chương Dương,"412 Nguyễn Văn Cừ, P. Bồ Đề, Q. Long Biên, TP. Hà Nội",False,Long Biên,Hà Nội,21.0466890806156,105.878300366634
ATM Techcombank Long Biên,"1S03 và 1S5A, tầng 1, Tòa nhà S5 (S5.2), P. Phúc Lợi, Q. Long Biên, TP. Hà Nội",False,Long Biên,Hà Nội,21.0506819074052,105.91678945643
ATM Techcombank Đoàn Bay 919,"121 Nguyễn Sơn, P. Gia Thụy, Q. Long Biên, TP. Hà Nội",False,Long Biên,Hà Nội,21.0276389,105.8987222
ATM Techcombank Gia Lâm 1,"Tòa nhà số S1.01, KĐT Vinhome Ocean Park, X. Đa Tốn, H. Gia Lâm, TP. Hà Nội",False,Gia Lâm,Hà Nội,20.99341,105.94262
ATM Techcombank Gia Lâm 2,"Tòa nhà số S1.01, KĐT Vinhome Ocean Park, X. Đa Tốn, H. Gia Lâm, TP. Hà Nội",False,Gia Lâm,Hà Nội,20.99341,105.94262
ATM Techcombank Mega Mall Ocean Park,"Thang cuốn L1, Mega Mall Ocean Park, X. Kiêu Kỵ, H. Gia Lâm, TP. Hà Nội",False,Gia Lâm,Hà Nội,20.993972,105.960278
ATM Techcombank Ecopark,"L1-03, tầng 1, tháp A2, KĐT Ecopark, X. Xuân Quan, H. Văn Giang, Tỉnh Hưng Yên",False,Văn Giang,Hưng Yên,20.95259,105.93742
ATM Techcombank Sở Công Thương Hà Tĩnh,"2 Trần Phú, P. Bắc Hà, TP. Hà Tĩnh, Tỉnh Hà Tĩnh",False,Hà Tĩnh,Hà Tĩnh,18.338704,105.89568
ATM Techcombank CTY Viễn Thông Quảng Ngãi,"KCN Tịnh Phong, X. Tịnh Phong, H. Sơn Tịnh, Tỉnh Quảng Ngãi ",False,Sơn Tịnh,Quảng Ngãi,15.195775,108.793977
ATM Techcombank Petro Sông Trà,"2 Quang Trung, P. Lê Hồng Phong, TP. Quảng Ngãi, Tỉnh Quảng Ngãi",False,Quảng Ngãi,Quảng Ngãi,15.1333612697745,108.801582968613
ATM Techcombank Central Hotel Quảng Ngãi,"1 Lê Lợi, P. Chánh Lộ, TP. Quảng Ngãi, Tỉnh Quảng Ngãi",False,Quảng Ngãi,Quảng Ngãi,15.113152,108.804549
ATM Techcombank CTY TNHH Giầy Amara Việt Nam 2,"Quốc lộ 21, khu Song Khê, thị trấn Cổ Lễ, H. Trực Ninh, Tỉnh Nam Định",False,Trực Ninh,Nam Định,20.4294352,106.1727226
ATM Techcombank Siêu Thị Big C Nam Định,"Quốc lộ 10, P. Lộc Hòa, TP. Nam Định, Tỉnh Nam Định",False,Nam Định,Nam Định,20.4294352,106.1727226
ATM Techcombank Nam Định,"56 Quang Trung, P. Bà Triệu, TP. Nam Định, Tỉnh Nam Định",False,Nam Định,Nam Định,20.4293079431766,106.17239328196
ATM Techcombank CTY TNHH Giầy Amara Việt Nam 1,"Quốc lộ 21, khu Song Khê, thị trấn Cổ Lễ, H. Trực Ninh, Tỉnh Nam Định",False,Trực Ninh,Nam Định,20.4294352,106.1727226
ATM Techcombank CTY MCNEX Ninh Bình 1,"Lô CN5, KCN Phúc Sơn, P. Ninh Sơn, TP. Ninh Bình, Tỉnh Ninh Bình",False,Ninh Bình,Ninh Bình,20.216222,105.986556
ATM Techcombank CTY MCNEX Ninh Bình 2,"Lô CN5, KCN Phúc Sơn, P. Ninh Sơn, TP. Ninh Bình, Tỉnh Ninh Bình",False,Ninh Bình,Ninh Bình,20.216222,105.986556
ATM Techcombank Siêu Thị Big C Ninh Bình,"Tầng 1, TTTM Big C Ninh Bình, 10 Trần Nhân Tông, X. Ninh Phúc, TP. Ninh Bình, Tỉnh Ninh Bình",False,Ninh Bình,Ninh Bình,20.242667,106.004083
ATM Techcombank CTY Vienergy,"KCN Phúc Sơn, X. Ninh Phúc, TP. Ninh Bình, Tỉnh Ninh Bình",False,Ninh Bình,Ninh Bình,20.225194,105.99375
ATM Techcombank Đồng Đăng,"96 Khu Nam Quan, thị trấn Đồng Đăng, H. Cao Lộc, Tỉnh Lạng Sơn",False,Cao Lộc,Lạng Sơn,21.952139251774,106.698185244891
ATM Techcombank CTY May Sơn Hà,"208 Lê Lợi, P. Lê Lợi, TX. Sơn Tây, TP. Hà Nội",False,Sơn Tây,Hà Nội,21.1485,105.5054444
ATM Techcombank Tiền Giang,"PG01-01 và PG01-02, Dự án TTTM và Shophouse Vincom Mỹ Tho, 1A Hùng Vương, P. 1, TP. Mỹ Tho, Tỉnh Tiền Giang",False,Mỹ Tho,Tiền Giang,10.3571764509333,106.363968744715
ATM Techcombank Vincom Mega Mall Smart City,"Ô GS-CCTP1, KĐT mới Tây Mỗ-Đại Mỗ, P. Tây Mỗ, Q. Nam Từ Liêm, TP. Hà Nội",False,Nam Từ Liêm,Hà Nội,21.00674,105.7538
ATM Techcombank Cao Đẳng Sư Phạm 2,"387 Hoàng Quốc Việt, P. Nghĩa Tân, Q. Cầu Giấy, TP. Hà Nội",False,Cầu Giấy,Hà Nội,21.04621,105.7922
ATM Techcombank Thăng Long 2,"181 Nguyễn Lương Bằng, P. Quang Trung, Q. Đống Đa, TP. Hà Nội",False,Đống Đa,Hà Nội,21.01488,105.82806
ATM Techcombank Làng Sinh Viên Hacinco 1,"KĐT Hacinco, P. Thanh Xuân Bắc, Q. Thanh Xuân, TP. Hà Nội",False,Thanh Xuân,Hà Nội,21.00056,105.803
ATM Techcombank CTY TNHH Maxport Thái Bình 2,"X. Tự Tân, H. Vũ Thư, Tỉnh Thái Bình",False,Vũ Thư,Thái Bình,20.4528898,106.2581296 
ATM Techcombank CTY Yazaki Thái Bình 2,"Lô CN1+CN2, KCN Sông Trà, X. Tân Bình, H. Vũ Thư, Tỉnh Thái Bình",False,Vũ Thư,Thái Bình,20.4777963,106.3306916
ATM Techcombank CTY TNHH Maxport Thái Bình 1,"X. Tự Tân, H. Vũ Thư, Tỉnh Thái Bình",False,Vũ Thư,Thái Bình,20.4528898,106.2581296 
ATM Techcombank CTY Yazaki Thái Bình 1,"Lô CN1+CN2, KCN Sông Trà, X. Tân Bình, H. Vũ Thư, Tỉnh Thái Bình",False,Vũ Thư,Thái Bình,20.4777963,106.3306916
ATM Techcombank Nguyễn Kiệm,"L1-01, tầng L1, Khu cao ốc văn phòng và Căn hộ chung cư, 5B Phổ Quang, P. 2, Q. Tân Bình, TP. Hồ Chí Minh",False,Tân Bình,Hồ Chí Minh,10.8059894507656,106.666527795287
ATM Techcombank CTY Forimex 2,"129 Nơ Trang Long, P. 12, Q. Bình Thạnh, TP. Hồ Chí Minh",False,Bình Thạnh,Hồ Chí Minh,10.81147,106.69558
ATM Techcombank Bình Hòa,"362A Lê Quang Định, P. 11, Q. Bình Thạnh, TP. Hồ Chí Minh",False,Bình Thạnh,Hồ Chí Minh,10.8108310814462,106.692190764605
ATM Techcombank UBND Phường 5 Quận Phú Nhuận,"94 Phan Đăng Lưu, P. 5, Q. Phú Nhuận, TP. Hồ Chí Minh",False,Phú Nhuận,Hồ Chí Minh,10.80376,106.68493
ATM Techcombank Satra Đất Thành,"163 Phan Đăng Lưu, P. 1, Q. Phú Nhuận, TP. Hồ Chí Minh",False,Phú Nhuận,Hồ Chí Minh,10.80069,106.68206
ATM Techcombank Phan Xích Long,"80-82 Phan Xích Long, P. 2, Q. Phú Nhuận, TP. Hồ Chí Minh",False,Phú Nhuận,Hồ Chí Minh,10.79939948936,106.685330395287
ATM Techcombank UBND Phường 2 Quận Phú Nhuận,"3 Phan Xích Long, P. 2, Q. Phú Nhuận, TP. Hồ Chí Minh",False,Phú Nhuận,Hồ Chí Minh,10.80124,106.68373
ATM Techcombank Auto Banking Tô Ký 3,"155 Tô Ký, P. Đông Hưng Thuận, Q. 12, TP. Hồ Chí Minh",False,Quận 12,Hồ Chí Minh,10.84879,106.63308
ATM Techcombank CTY Forimex 1,"129 Nơ Trang Long, P. 12, Q. Bình Thạnh, TP. Hồ Chí Minh",False,Bình Thạnh,Hồ Chí Minh,10.81147,106.69558
ATM Techcombank Gia Định,"Tòa nhà Q. Mobile, 36 Phan Đăng Lưu, P.  6, Q. Bình Thạnh, TP. Hồ Chí Minh",False,Bình Thạnh,Hồ Chí Minh,,
ATM Techcombank Tây Ninh,"366-368 đường 30/4, P. 3, TP. Tây Ninh, Tỉnh Tây Ninh",False,Tây Ninh,Tây Ninh,11.3139504365438,106.096653302632
ATM Techcombank Bưu Điện Tỉnh Tây Ninh,"186 đường 30/4, P. 3, TP. Tây Ninh, Tỉnh Tây Ninh",False,Tây Ninh,Tây Ninh,11.3141667,106.0970556
ATM Techcombank Bưu Điện Tỉnh Lâm Đồng,"2 Lê Đại Hành, P. 1, TP. Đà Lạt, Tỉnh Lâm Đồng",False,Đà Lạt,Lâm Đồng,11.9403358050765,108.437153244925
ATM Techcombank CTY Cổ Phần Phước Kỳ Nam,"KCN Thuận Yên, P. Hòa Thuận, TP. Tam Kỳ, Tỉnh Quảng Nam",False,Tam Kỳ,Quảng Nam,15.564145,108.457279
ATM Techcombank Uông Bí,"470 Quang Trung, P. Quang Trung, TP. Uông Bí, Tỉnh Quảng Ninh",False,Uông Bí,Quảng Ninh,21.0344899388831,106.770153435951
ATM Techcombank Hồng Lạc,"795-795A Lạc Long Quân, P. 10, Q. Tân Bình, TP. Hồ Chí Minh",False,Tân Bình,Hồ Chí Minh,10.7827720893756,106.650595266451
ATM Techcombank Nguyễn Sơn,"301 Nguyễn Sơn, P. Phú Thạnh, Q. Tân Phú, TP. Hồ Chí Minh",False,Tân Phú,Hồ Chí Minh,10.7837551468507,106.62324585111
ATM Techcombank The Pizza Company,"207-209 Bàu Cát, P. 12, Q. Tân Bình, TP. Hồ Chí Minh",False,Tân Bình,Hồ Chí Minh,10.791966,106.644051
ATM Techcombank Phước Kiển,"NL31, số 69, KDC Phú Long, Phân khu số 8, đường Nguyễn Hữu Thọ, ấp 5, X. Phước Kiển, H. Nhà Bè, TP. Hồ Chí Minh",False,Nhà Bè,Hồ Chí Minh,10.708920850199,106.709744776019
ATM Techcombank Chung Cư Hoàng Anh I 1,"357 Lê Văn Lương, P. Tân Quy, Q. 7, TP. Hồ Chí Minh",False,Quận 7,Hồ Chí Minh,10.740742,106.70377
ATM Techcombank Chung Cư Hoàng Anh I 2,"357 Lê Văn Lương, P. Tân Quy, Q. 7, TP. Hồ Chí Minh",False,Quận 7,Hồ Chí Minh,10.740742,106.70377
ATM Techcombank Chung Cư Hoàng Anh II,"783 Trần Xuân Soạn, P. Tân Hưng, Q. 7, TP. Hồ Chí Minh",False,Quận 7,Hồ Chí Minh,10.751676,106.6991
ATM Techcombank Trường Nguyễn Hữu Thọ,"55/8A Lâm Văn Bền, P. Tân Kiểng, Q. 7, TP. Hồ Chí Minh",False,Quận 7,Hồ Chí Minh,10.748311,106.715892
ATM Techcombank TTTM Sài Gòn Paragon,"3 Nguyễn Lương Bằng, P. Tân Phú, Q. 7, TP. Hồ Chí Minh",False,Quận 7,Hồ Chí Minh,10.729912,106.722622
ATM Techcombank Vincom Nam Long,"71 Trần Trọng Cung, KDC Nam Long, P. Tân Thuận Đông, Q. 7, TP. Hồ Chí Minh",False,Quận 7,Hồ Chí Minh,10.743892,106.732174
ATM Techcombank Chung Cư Luxcity 1,"528 Huỳnh Tấn Phát, P. Bình Thuận, Q. 7, TP. Hồ Chí Minh",False,Quận 7,Hồ Chí Minh,10.738713,106.730191
ATM Techcombank Trung Sơn,"241 đường 9A, KDC Trung Sơn, ấp 4B, X. Bình Hưng, H. Bình Chánh, TP. Hồ Chí Minh",False,Bình Chánh,Hồ Chí Minh,10.732697824814,106.689719995286
ATM Techcombank Phú Mỹ Hưng,"Tòa nhà Capital Tower, 6 Nguyễn Khắc Viện, P. Tân Phú, Q. 7, TP. Hồ Chí Minh",False,Quận 7,Hồ Chí Minh,10.7285881567274,106.720234995286
ATM Techcombank Chung Cư Luxcity 2,"528 Huỳnh Tấn Phát, P. Bình Thuận, Q. 7, TP.Hồ Chí Minh",False,Quận 7,Hồ Chí Minh,10.738713,106.730191
ATM Techcombank Parc Mall,"547-549 Tạ Quang Bửu, P. 4, Q. 8, TP. Hồ Chí Minh",False,Quận 8,Hồ Chí Minh,10.7406688 ,106.6787454 
ATM Techcombank UBND Phường Bách Khoa,"39 Lê Thanh Nghị, P. Bách Khoa, Q. Hai Bà Trưng, TP. Hà Nội",False,Hai Bà Trưng,Hà Nội,21.001812,105.846169
ATM Techcombank Bảo Tàng Cách Mạng Việt Nam 2,"25 Tông Đản, P. Tràng Tiền, Q. Hoàn Kiếm, TP. Hà Nội",False,Hoàn Kiếm,Hà Nội,21.025383,105.859528
ATM Techcombank Gamuda,"Siêu thị Winmart Yên Sở, tầng 1, Tòa CT2, KĐT Gamuda Gardens, P. Trần Phú, Q. Hoàng Mai, TP. Hà Nội",False,Hoàng Mai,Hà Nội,20.9704200353203,105.877769995467
ATM Techcombank Long Khánh,"324-326 Hùng Vương, khu phố 3, P. Xuân Bình, TP. Long Khánh, Tỉnh Đồng Nai",False,Long Khánh,Đồng Nai,10.9238883859637,107.239635418582
ATM Techcombank Casino Vinpearl Phú Quốc 1,"Khu Bãi Dài, X. Gành Dầu, TP. Phú Quốc, Tỉnh Kiên Giang",False,Phú Quốc,Kiên Giang,10.3289643,103.8553802
ATM Techcombank Casino Vinpearl Phú Quốc 2,"Khu Bãi Dài, X. Gành Dầu, TP. Phú Quốc, Tỉnh Kiên Giang",False,Phú Quốc,Kiên Giang,10.3289643,103.8553802
ATM Techcombank Grand World Vinpearl Phú Quốc,"Khu Bãi Dài, X. Gành Dầu, TP. Phú Quốc, Tỉnh Kiên Giang",False,Phú Quốc,Kiên Giang,10.328538,103.86275
ATM Techcombank Khách Sạn Oasis Vinpearl Phú Quốc,"Khu Bãi Dài, X. Gành Dầu, TP. Phú Quốc, Tỉnh Kiên Giang",False,Phú Quốc,Kiên Giang,10.329966,103.855445
ATM Techcombank VinWonders Vinpearl Phú Quốc,"Khu Bãi Dài, X. Gành Dầu, TP. Phú Quốc, Tỉnh Kiên Giang",False,Phú Quốc,Kiên Giang,10.341491,103.856227
ATM Techcombank UBND Phường Vĩnh Lạc Tỉnh Kiên Giang,"343 Nguyễn Trung Trực, P Vĩnh Lạc, TP. Rạch Giá, Tĩnh Kiên Giang",False,Rạch Giá,Kiên Giang,9.997899,105.091721
ATM Techcombank Sở Tài Chính Cà Mau,"120 Phan Ngọc Hiển, P. 5, TP. Cà Mau, Tỉnh Cà Mau",False,Cà Mau,Cà Mau,9.17801578032485,105.153499355119
ATM Techcombank Tòa Nhà Coteccons,"236/6 Điện Biên Phủ, P. 17, Q. Bình Thạnh, TP. Hồ Chí Minh",False,Bình Thạnh,Hồ Chí Minh,10.798577,106.706337
ATM Techcombank Thảo Điền,"214 Nguyễn Văn Hưởng, P. Thảo Điền, TP. Thủ Đức, TP. Hồ Chí Minh",False,Thủ Đức,Hồ Chí Minh,10.8125810660624,106.731979266452
ATM Techcombank Sala,"107 Nguyễn Cơ Thạch, P. An Lợi Đông, TP. Thủ Đức, TP. Hồ Chí Minh",False,Thủ Đức,Hồ Chí Minh,10.7697699893905,106.724199266457
ATM Techcombank Gigamall 2,"240-242 Phạm Văn Đồng, P. Hiệp Bình Chánh, TP. Thủ Đức, TP. Hồ Chí Minh",False,Thủ Đức,Hồ Chí Minh,10.827618,106.721696
ATM Techcombank Tòa Nhà Sunwah 2,"115 Nguyễn Huệ, P. Bến Nghé, Q. 1, TP. Hồ Chí Minh",False,Quận 1,Hồ Chí Minh,10.7738,106.70353
ATM Techcombank Nhà Sách Nguyễn Văn Cừ 2,"573-575 Nguyễn Duy Trinh, P. Bình Trưng Đông, TP. Thủ Đức, TP. Hồ Chí Minh",False,Thủ Đức,Hồ Chí Minh,10.78859,106.77274
ATM Techcombank Bệnh Viện Quân Dân Miền Đông 1,"50 Lê Văn Việt, P. Hiệp Phú, TP. Thủ Đức, TP. Hồ Chí Minh",False,Thủ Đức,Hồ Chí Minh,10.84537,106.778
ATM Techcombank The Rainbow,"Tòa nhà S2.01, KDC Vinhomes Grand Park, P. Long Thạnh Mỹ, TP. Thủ Đức, TP. Hồ Chí Minh",False,Thủ Đức,Hồ Chí Minh,10.8375870425176,106.831819904522
ATM Techcombank Viện Khoa Học Kỹ Thuật Nông Nghiệp Miền Nam,"121 Nguyễn Bỉnh Khiêm, P. Đa Kao, Q. 1, TP. Hồ Chí Minh",False,Quận 1,Hồ Chí Minh,10.79193,106.69977
ATM Techcombank Bảo Hiểm Xã Hội Quận 9 3,"442 Lê Văn Việt, P. Tăng Nhơn Phú A, TP. Thủ Đức, TP. Hồ Chí Minh",False,Thủ Đức,Hồ Chí Minh,10.84419,106.78959
ATM Techcombank Nhà Văn Hóa Phường Mai Dịch,"12 Trần Bình, P. Mai Dịch, Q. Cầu Giấy, TP.Hà Nội",False,Cầu Giấy,Hà Nội,21.03533,105.7788
ATM Techcombank Coopmart Phan Thiết,"1A Nguyễn Tất Thành, P. Bình Hưng, TP. Phan Thiết, Tỉnh Bình Thuận",False,Phan Thiết,Bình Thuận,10.9296874417458,108.105291960912
ATM Techcombank KCN Thăng Long 3,"KCN Thăng Long, X. Kim Chung, H. Đông Anh, TP. Hà Nội",False,Đông Anh,Hà Nội,21.1162179,105.7732633
ATM Techcombank KCN Thăng Long 1,"KCN Thăng Long, X. Kim Chung, H. Đông Anh, TP. Hà Nội",False,Đông Anh,Hà Nội,21.1162179,105.7732633
ATM Techcombank KCN Thăng Long 2,"KCN Thăng Long, X. Kim Chung, H. Đông Anh, TP. Hà Nội",False,Đông Anh,Hà Nội,21.1162179,105.7732633
ATM Techcombank CTY Tongwei KCN An Dương,"Lô CN12, KCN An Dương, X. Hồng Phong, H. An Dương, TP. Hải Phòng",False,An Dương,Hải Phòng,20.8712084,106.5815359
ATM Techcombank Ga Cáp Treo Cát Hải,"Nhà ga cáp treo Sun World Cát Bà, thôn Chấn, X. Đồng Bài, H. Cát Hải, TP. Hải Phòng",False,Cát Hải,Hải Phòng,20.812683,106.886368
ATM Techcombank CTY Cổ Phần Giải Pháp Năng Lượng VinEs,"Khu kinh tế Đình Vũ-Cát Hải, đảo Cát Hải, thị trấn Cát Hải, H.Cát Hải, TP. Hải Phòng",False,Cát Hải,Hải Phòng,20.798006,106.859871
ATM Techcombank Phòng Văn Hóa Thành Phố Phủ Lý,"Đường Châu Cầu, P. Minh Khai, TP. Phủ Lý, Tỉnh Hà Nam",False,Phủ Lý,Hà Nam,20.543543,105.916958
ATM Techcombank CTY JY Hà Nam Huyện Thanh Liêm,"Phố Cà, X. Thanh Nguyên, H. Thanh Liêm, Tỉnh Hà Nam",False,Thanh Liêm,Hà Nam,20.42461,105.919603
ATM Techcombank CTY JY Hà Nam Huyện Bình Lục,"Cụm công nghiệp Bình Lục, X. Trung Lương, H. Bình Lục, Tỉnh Hà Nam",False,Bình Lục,Hà Nam,20.473435,106.037311
ATM Techcombank CTY JY Hà Nam Huyện Lý Nhân,"Thôn Thượng Vỹ, X. Nhân Chính, H. Lý Nhân, Tỉnh Hà Nam",False,Lý Nhân,Hà Nam,20.546946,106.056843
ATM Techcombank CTY Vinfast,"KCN Đình Vũ, thị trấn Cát Hải, H. Cát Hải, TP. Hải Phòng",False,Cát Hải,Hải Phòng,20.804079,106.871536
CDM Techcombank Móng Cái,"10 Hùng Vương, P. Hòa Lạc, TP. Móng Cái, Tỉnh Quảng Ninh",True,Móng Cái,Quảng Ninh,21.5283330861643,107.969650201582
CDM Techcombank Lạng Sơn 1,"390 Bà Triệu, P. Vĩnh Trại, TP. Lạng Sơn, Tỉnh Lạng Sơn",True,Lạng Sơn,Lạng Sơn,21.8487110675489,106.762718537819
CDM Techcombank Lạng Sơn 2,"390 Bà Triệu, P. Vĩnh Trại, TP. Lạng Sơn, Tỉnh Lạng Sơn",True,Lạng Sơn,Lạng Sơn,21.8487110675489,106.762718537819
CDM Techcombank Hòa Khánh 1,"661 Tôn Đức Thắng, P. Hòa Khánh Nam, Q. Liên Chiểu, TP.  Đà Nẵng",True,Liên Chiểu,Đà Nẵng,16.0687259846195,108.151449995363
CDM Techcombank 29/3,"286-288 Điện Biên Phủ, P. Chính Gián, Q. Thanh Khê, TP. Đà Nẵng",True,Thanh Khê,Đà Nẵng,16.065980738189,108.19449702408
CDM Techcombank Hải Phòng 1,"5 Lý Tự Trọng, P. Hoàng Văn Thụ, Q. Hồng Bàng, TP. Hải Phòng",True,Hồng Bàng,Hải Phòng,20.8608213568941,106.686526242319
CDM Techcombank Ấp Bắc,"46 Ấp Bắc, P. 13, Q. Tân Bình, TP. Hồ Chí Minh",True,Tân Bình,Hồ Chí Minh,10.8019762182614,106.641709995287
CDM Techcombank Lê Văn Sỹ 1,"184 A Lê Văn Sỹ, P. 10, Q. Phú Nhuận, TP. Hồ Chí Minh ",True,Phú Nhuận,Hồ Chí Minh,10.7932013092277,106.670189995287
CDM Techcombank Kỳ Hoà,"425 Sư Vạn Hạnh, P. 12, Q. 10, TP. Hồ Chí Minh",True,Quận 10,Hồ Chí Minh,10.7725516086686,106.669041978098
CDM Techcombank Nam Sài Gòn,"146-148 Khánh Hội, P. 6, Q. 4, TP. Hồ Chí Minh",True,Quận 4,Hồ Chí Minh,10.757640027865,106.700212407357
CDM Techcombank Hà Đô,"285/78 Cách Mạng Tháng 8, P. 12, Q. 10, TP. Hồ Chí Minh",True,Quận 10,Hồ Chí Minh,10.7771810685787,106.67799635111
CDM Techcombank Tân Bình,"99A Cộng Hoà, P. 4, Q. Tân Bình, TP. Hồ Chí Minh",True,Tân Bình,Hồ Chí Minh,10.8010572505971,106.654827052957
CDM Techcombank Tân Định,"122 Trần Quang Khải, P. Tân Định, Q. 1, TP. Hồ Chí Minh",True,Quận 1,Hồ Chí Minh,10.7921419508355,106.692254265407
CDM Techcombank Tây Sài Gòn,"56 Út Tịch, P. 4, Q. Tân Bình, TP. Hồ Chí Minh",True,Tân Bình,Hồ Chí Minh,10.7966049202794,106.658553053044
CDM Techcombank Quận 5 1,"284A An Dương Vương, P. 4, Q. 5, TP. Hồ Chí Minh",True,Quận 5,Hồ Chí Minh,10.7606479278186,106.681448178098
CDM Techcombank Phú Thọ,"447 Lê Đại Hành, P. 11, Q. 11, TP. Hồ Chí Minh",True,Quận 11,Hồ Chí Minh,10.7685356466762,106.652286468863
CDM Techcombank Đường 3 tháng 2,"574 đường 3/2, P. 14, Q. 10, TP. Hồ Chí Minh",True,Quận 10,Hồ Chí Minh,10.7660761694316,106.663795437616
CDM Techcombank Lào Cai 1,"2 Hoàng Liên, P.Cốc Lếu, TP. Lào Cai, Tỉnh Lào Cai",True,Lào Cai,Lào Cai,22.5001019868846,103.965610710063
CDM Techcombank Dĩ An,"463 Trần Hưng Đạo, P. Dĩ An, TP. Dĩ An, Tỉnh Bình Dương",True,Dĩ An,Bình Dương,10.9061478490385,106.769551249264
CDM Techcombank Lào Cai 2,"2 Hoàng Liên, P.Cốc Lếu, TP. Lào Cai, Tỉnh Lào Cai",True,Lào Cai,Lào Cai,22.5001019868846,103.965610710063
CDM Techcombank Vĩnh Phúc,"Tòa nhà Việt Đức Financial Building, 8 Tôn Đức Thắng, P. Khai Quang, TP. Vĩnh Yên, Tỉnh Vĩnh Phúc",True,Vĩnh Yên,Vĩnh Phúc,21.3108455613212,105.611880959817
CDM Techcombank Hưng Yên,"5 Nguyễn Bình, P. Bần Yên Nhân, TX. Mỹ Hào, Tỉnh Hưng Yên",True,Mỹ Hào,Hưng Yên,20.9388095884916,106.05989029837
CDM Techcombank Văn Lâm,"50 Quốc lộ 5, thị trấn Như Quỳnh, H. Văn Lâm, Tỉnh Hưng Yên",True,Văn Lâm,Hưng Yên,20.9815933817707,105.983620061597
CDM Techcombank Yên Mỹ,"Khu giãn dân, thôn Trai Trang, thị trấn Yên Mỹ, H. Yên Mỹ, Tỉnh Hưng Yên",True,Yên Mỹ,Hưng Yên,20.8888047720559,106.042840591
CDM Techcombank Bắc Ninh 1,"L1-04 TTTM Vincom Plaza Lý Thái Tổ, Ngã 6, P. Suối Hoa, TP. Bắc Ninh, Tỉnh Bắc Ninh",True,Bắc Ninh,Bắc Ninh,21.1781458354255,106.072241101578
CDM Techcombank Bắc Ninh 2,"L1-04 TTTM Vincom Plaza Lý Thái Tổ, Ngã 6, P. Suối Hoa, TP. Bắc Ninh, Tỉnh Bắc Ninh",True,Bắc Ninh,Bắc Ninh,21.1781458354255,106.072241101578
CDM Techcombank Từ Sơn,"382-390 Trần Phú, P. Đông Ngàn, TP. Từ Sơn, Tỉnh Bắc Ninh",True,Từ Sơn,Bắc Ninh,21.1157370819417,105.955099908965
CDM Techcombank Yên Phong,"Lô CC1, đường YP2, KCN Yên Phong, X. Long Châu, H. Yên Phong, Tỉnh Bắc Ninh",True,Yên Phong,Bắc Ninh,21.1915802636863,106.005313274828
CDM Techcombank Quế Võ,"94 khu 1, P. Phố Mới, TX. Quế Võ, Tỉnh Bắc Ninh",True,Quế Võ,Bắc Ninh,21.1529600511241,106.153898591021
CDM Techcombank Nha Trang,"TTTM Vincom Plaza Nha Trang, 44-46 Lê Thánh Tôn, P. Lộc Thọ, TP. Nha Trang, Tỉnh Khánh Hòa",True,Nha Trang,Khánh Hòa,12.2425905941041,109.194013266468
CDM Techcombank StarCity,"Lô 129-131 đường Thích Quảng Đức, KĐT VCN Phước Hải, P. Phước Hải, TP. Nha Trang, Tỉnh Khánh Hòa",True,Nha Trang,Khánh Hòa,12.2412355096041,109.177670719801
CDM Techcombank TTTM Vincom Plaza Nha Trang,"Cổng vào TTTM Vincom Plaza Nha Trang, 44-46 Lê Thánh Tôn, P. Lộc Thọ, TP. Nha Trang, Tỉnh Khánh Hòa",True,Nha Trang,Khánh Hòa,12.2425905941041,109.194013266468
CDM Techcombank Mã Vòng,"Tầng trệt, A5, Chung cư Vĩnh Phước, đường 2/4, P. Vĩnh Phước, TP. Nha Trang, Tỉnh Khánh Hòa",True,Nha Trang,Khánh Hòa,12.2740731248081,109.197731693287
CDM Techcombank Vũng Tàu,"142-144 Lê Hồng Phong, P. 4, TP. Vũng Tàu, Tỉnh Bà Rịa - Vũng Tàu",True,Vũng Tàu,Bà Rịa - Vũng Tàu,10.3582871915986,107.079966833918
CDM Techcombank Sao Mai,"337-339 Nguyễn An Ninh, P. 9, TP. Vũng Tàu, Tỉnh Bà Rịa - Vũng Tàu",True,Vũng Tàu,Bà Rịa - Vũng Tàu,10.3676999335724,107.085815838893
CDM Techcombank Bà Rịa,"5 Dương Bạch Mai, P. Phước Trung, TP. Bà Rịa, Tỉnh Bà Rịa - Vũng Tàu",True,Bà Rịa,Bà Rịa - Vũng Tàu,10.4928394402239,107.171159995283
CDM Techcombank Bà Rịa 2,"5 Dương Bạch Mai, P. Phước Trung, TP. Bà Rịa, Tỉnh Bà Rịa - Vũng Tàu",True,Vũng Tàu,Bà Rịa - Vũng Tàu,10.4928394 ,107.1711600 
CDM Techcombank Vũng Tàu 2,"Số 2, 2A, 2B, 2C, 2D Lê Hồng Phong, P. 4, TP. Vũng Tàu, Tỉnh Bà Rịa - Vũng Tàu",True,Vũng Tàu,Bà Rịa - Vũng Tàu,10.36149,107.07562
CDM Techcombank Cần Thơ 1,"45A-47 đường 30/4, P. Tân An, Q. Ninh Kiều, TP. Cần Thơ",True,Ninh Kiều,Cần Thơ,10.0297362555994,105.780360863153
CDM Techcombank Cần Thơ 2,"45A-47 đường 30/4, P. Tân An, Q. Ninh Kiều, TP. Cần Thơ",True,Ninh Kiều,Cần Thơ,10.0297362555994,105.780360863153
CDM Techcombank Quảng Ninh,"L1-19, tầng L1, TTTM Vincom Center Hạ Long, Khu Cột đồng hồ, P. Bạch Đằng, TP. Hạ Long, Tỉnh Quảng Ninh",True,Hạ Long,Quảng Ninh,20.9500391826331,107.084400183599
CDM Techcombank Bình Dương 2,"347-349 Đại lộ Bình Dương, P. Chánh Nghĩa, TP. Thủ Dầu Một, Tỉnh Bình Dương ",True,Thủ Dầu Một,Bình Dương,10.9764787222365,106.669030946383
CDM Techcombank Lái Thiêu,"65 Nguyễn Văn Tiết, khu phố Đông Tư, P. Lái Thiêu, TP. Thuận An, Tỉnh Bình Dương",True,Thuận An,Bình Dương,10.9083833165483,106.701373432076
CDM Techcombank Mỹ Phước 1,"Ô 18-19, lô C, KDC Mỹ Phước 4, P. Mỹ Phước, TP. Bến Cát, Tỉnh Bình Dương",True,Bến Cát,Bình Dương,11.1456695273547,106.60055667569
CDM Techcombank Winmart+ Đường 9 Nhị Đồng,"116-118 đường 9, khu phố Nhị Đồng 2, TTHC P. Dĩ An, TX. Dĩ An, Tỉnh Bình Dương",True,Dĩ An,Bình Dương,10.893592,106.762248
CDM Techcombank Mỹ Phước 2,"Ô 18-19, lô C, KDC Mỹ Phước 4, P. Mỹ Phước, TP. Bến Cát, Tỉnh Bình Dương",True,Bến Cát,Bình Dương,11.1456695273547,106.60055667569
CDM Techcombank Thủ Dầu Một,"154 Phạm Ngọc Thạch, P. Hiệp Thành, TP. Thủ Dầu Một, Tỉnh Bình Dương",True,Thủ Dầu Một,Bình Dương,10.9987183938867,106.658595622277
CDM Techcombank Hội An,"278 Lý Thường Kiệt, P. Tân An, TP. Hội An, Tỉnh Quảng Nam",True,Hội An,Quảng Nam,15.8831145851617,108.329092599617
CDM Techcombank Hải Dương 1,"82-84 Phạm Ngũ Lão, P. Phạm Ngũ Lão, TP. Hải Dương, Tỉnh Hải Dương",True,Hải Dương,Hải Dương,20.9377518602952,106.32411039916
CDM Techcombank Thống Nhất,"237-239 Lê Thanh Nghị, P. Lê Thanh Nghị, TP. Hải Dương, Tỉnh Hải Dương",True,Hải Dương,Hải Dương,20.9305126126688,106.322141475866
CDM Techcombank Hải Dương 2,"82-84 Phạm Ngũ Lão, P. Phạm Ngũ Lão, TP. Hải Dương, Tỉnh Hải Dương",True,Hải Dương,Hải Dương,20.9377518602952,106.32411039916
CDM Techcombank Linh Đàm 1,"Tòa nhà CC2A, KĐT Bắc Linh Đàm, P. Đại Kim, Q. Hoàng Mai, TP. Hà Nội",True,Hoàng Mai,Hà Nội,20.9681977255811,105.827295681912
CDM Techcombank Đồng Nai 1,"PG1-01, TTTM dịch vụ Vincom Biên Hòa, 1096 Phạm Văn Thuận, P. Tân Mai, TP. Biên Hòa, Tỉnh Đồng Nai",True,Biên Hòa,Đồng Nai,10.9573378562616,106.844064571994
CDM Techcombank Đồng Nai 2,"PG1-01, TTTM dịch vụ Vincom Biên Hòa, 1096 Phạm Văn Thuận, P. Tân Mai, TP. Biên Hòa, Tỉnh Đồng Nai",True,Biên Hòa,Đồng Nai,10.9573378562616,106.844064571994
CDM Techcombank Biên Hòa 1,"39 Đồng Khởi, P. Tam Hòa, TP. Biên Hòa, Tỉnh Đồng Nai ",True,Biên Hòa,Đồng Nai,10.9546783892172,106.866786351112
CDM Techcombank Biên Hòa 2,"39 Đồng Khởi, P. Tam Hòa, TP. Biên Hòa, Tỉnh Đồng Nai ",True,Biên Hòa,Đồng Nai,10.9546783892172,106.866786351112
CDM Techcombank Long Thành 1,"Tổ 10, khu phố 3 khu Phước Hải, thị trấn Long Thành, H. Long Thành, Tỉnh Đồng Nai",True,Long Thành,Đồng Nai,10.7855994500696,106.949488537616
CDM Techcombank Hố Nai,"6/2, khu phố 1, P. Tân Hòa, TP. Biên Hòa, Tỉnh Đồng Nai",True,Biên Hòa,Đồng Nai,10.9680913849155,106.907630666453
CDM Techcombank Tam Hiệp,"R64-R65 Võ Thị Sáu, P. Thống Nhất, TP. Biên Hòa, Tỉnh Đồng Nai",True,Biên Hòa,Đồng Nai,10.9467983531079,106.827442024124
CDM Techcombank Long Thành 2,"Tổ 10, khu phố 3 khu Phước Hải, thị trấn Long Thành, H. Long Thành, Tỉnh Đồng Nai",True,Long Thành,Đồng Nai,10.7855994500696,106.949488537616
CDM Techcombank Biên Hòa 3,"39 Đồng Khởi, P. Tam Hòa, TP. Biên Hòa, Tỉnh Đồng Nai ",True,Biên Hòa,Đồng Nai,10.9546783892172,106.866786351112
CDM Techcombank Tràng An 1,"458 Minh Khai, P. Vĩnh Tuy, Q. Hai Bà Trưng, TP. Hà Nội",True,Hai Bà Trưng,Hà Nội,20.994927471468,105.869157217635
CDM Techcombank Trần Duy Hưng 1,"CT1, tầng 1, Tòa nhà Vimeco Hoàng Minh Giám, P. Trung Hòa, Q. Cầu Giấy, TP. Hà Nội",True,Cầu Giấy,Hà Nội,21.008839818025,105.794592675037
CDM Techcombank Hiệp Phú,"L1-07, tầng L1, TTTM Plaza Lê Văn Việt, 50 Lê Văn Việt, P. Hiệp Phú, TP. Thủ Đức, TP. Hồ Chí Minh",True,Thủ Đức,Hồ Chí Minh,10.8455899893167,106.778979266452
CDM Techcombank Quang Trung 1,"170C Quang Trung, P. 10, Q. Gò Vấp, TP. Hồ Chí Minh",True,Gò Vấp,Hồ Chí Minh,10.8289983759944,106.673749995287
CDM Techcombank Tràng An 2,"458 Minh Khai, P. Vĩnh Tuy, Q. Hai Bà Trưng, TP. Hà Nội",True,Hai Bà Trưng,Hà Nội,20.994927471468,105.869157217635
CDM Techcombank Lạc Trung 1,"23 Lạc Trung, P. Vĩnh Tuy, Q. Hai Bà Trưng, TP. Hà Nội",True,Hai Bà Trưng,Hà Nội,21.0029993587952,105.863987194166
CDM Techcombank Hoàng Đạo Thúy 1,"Tầng 1, Tòa nhà 29T2, đường Hoàng Đạo Thúy, P. Trung Hòa, Q. Cầu Giấy, TP. Hà Nội",True,Cầu Giấy,Hà Nội,21.00735,105.80237
CDM Techcombank Hoàng Cầu,"63 Hoàng Cầu, P. Ô Chợ Dừa, Q. Đống Đa, TP. Hà Nội",True,Đống Đa,Hà Nội,21.016618638736,105.82383838926
CDM Techcombank Thái Thịnh,"102 Thái Thịnh, P. Trung Liệt, Q. Đống Đa, TP. Hà Nội",True,Đống Đa,Hà Nội,21.0089293540603,105.819846723491
CDM Techcombank Đống Đa,"208 Thái Hà, P. Trung Liệt, Q. Đống Đa, TP. Hà Nội",True,Đống Đa,Hà Nội,21.0137225435775,105.81921820442
CDM Techcombank Kim Liên 1,"Tầng 1, 69 X. Đàn, P. Phương Liên, Q. Đống Đa, TP. Hà Nội",True,Đống Đa,Hà Nội,21.0132494930184,105.834945814085
CDM Techcombank Lạc Long Quân,"Tầng 1, 531 Lạc Long Quân, P. Xuân La, Q. Tây Hồ, TP. Hà Nội",True,Tây Hồ,Hà Nội,21.0631498035518,105.809306146533
CDM Techcombank Hoàng Gia,"Tầng 1, nhà R3, 72A Nguyễn Trãi, P. Thượng Đình, Q. Thanh Xuân, TP. Hà Nội",True,Thanh Xuân,Hà Nội,21.002837838545,105.815089055051
CDM Techcombank Trần Quốc Hoàn,"19 Trần Quốc Hoàn, P. Dịch Vọng Hậu, Q. Cầu Giấy, Hà Nội",True,Cầu Giấy,Hà Nội,21.04168,105.78869
CDM Techcombank Nguyễn Ảnh Thủ,"130/3 Nguyễn Ảnh Thủ, ấp Trung Chánh 1, X. Trung Chánh, H. Hóc Môn, TP. Hồ Chí Minh",True,Hóc Môn,Hồ Chí Minh,10.8639314451509,106.612786970146
CDM Techcombank Võ Văn Ngân 1,"6 Võ Văn Ngân, khu phố 1, P. Trường Thọ, TP. Thủ Đức, TP. Hồ Chí Minh",True,Thủ Đức,Hồ Chí Minh,10.8509730082653,106.755663639464
CDM Techcombank Lê Văn Thọ 1,"534 Lê Văn Thọ, P. 6, Q. Gò Vấp, TP. Hồ Chí Minh",True,Gò Vấp,Hồ Chí Minh,10.851039350821,106.656309237148
CDM Techcombank Nguyễn Oanh,"110-112 Nguyễn Oanh, P.  7, Q. Gò Vấp, TP. Hồ Chí Minh",True,Gò Vấp,Hồ Chí Minh,10.8289449183128,106.679000066452
CDM Techcombank Bình Thạnh,"177 Nguyễn Gia Trí, P. 25, Q. Bình Thạnh, TP. Hồ Chí Minh",True,Bình Thạnh,Hồ Chí Minh,10.8060639208756,106.715854024122
CDM Techcombank Thăng Long,"181 Nguyễn Lương Bằng, P. Quang Trung, Q. Đống Đa, TP. Hà Nội",True,Đống Đa,Hà Nội,21.01488,105.82806
CDM Techcombank Trần Thái Tông 1,"79 Trần Thái Tông, P. Dịch Vọng Hậu, Q. Cầu Giấy, TP. Hà Nội",True,Cầu Giấy,Hà Nội,21.032323803778,105.788749020871
CDM Techcombank Đông Đô 1,"Tòa tháp C5 D'Capital, 119 Trần Duy Hưng, P. Trung Hòa, Q. Cầu Giấy, TP. Hà Nội",True,Cầu Giấy,Hà Nội,21.0059402815846,105.794602322456
CDM Techcombank The Manor 1,"Tòa nhà HH3 Sudico, KĐT Mỹ Đình Mễ Trì, P. Mỹ Đình 1, Q. Nam Từ Liêm, TP. Hà Nội",True,Nam Từ Liêm,Hà Nội,21.0164974696444,105.779579814431
CDM Techcombank Nguyễn Cơ Thạch 1,"A1 Vinhomes Gardenia, đường Hàm Nghi, P. Cầu Diễn, Q. Nam Từ Liêm, TP. Hà Nội",True,Nam Từ Liêm,Hà Nội,21.036176981635,105.760218001731
CDM Techcombank Keangnam,"Tòa nhà Keangnam, E6 Phạm Hùng, P. Yên Hòa, Q. Cầu Giấy, TP. Hà Nội",True,Cầu Giấy,Hà Nội,21.016296060978,105.783644301591
CDM Techcombank Đan Phượng 1,"135 Tây Sơn, thị trấn Phùng, H. Đan Phượng, TP. Hà Nội",True,Đan Phượng,Hà Nội,21.0841479075187,105.670549253141
CDM Techcombank Phạm Văn Đồng,"234 Phạm Văn Đồng , P. Cổ Nhuế 1, Q. Bắc Từ Liêm, TP. Hà Nội",True,Bắc Từ Liêm,Hà Nội,21.05162,105.77977
CDM Techcombank Đắk Lắk 1,"29 Nguyễn Tất Thành, P. Tân Lợi, TP. Buôn Ma Thuột, Tỉnh Đắk Lắk",True,Buôn Mê Thuột,Đắk Lắk,12.6869081200608,108.054651978121
CDM Techcombank Đắk Lắk 2,"29 Nguyễn Tất Thành, P. Tân Lợi, TP. Buôn Ma Thuột, Tỉnh Đắk Lắk",True,Buôn Mê Thuột,Đắk Lắk,12.6869081200608,108.054651978121
CDM Techcombank Việt Trì,"TTTM Vincom Plaza Việt Trì, phố Đoàn Kết, P. Tiên Cát, TP. Việt Trì, Tỉnh Phú Thọ",True,Việt Trì,Phú Thọ,21.3127263471411,105.395605813085
CDM Techcombank Huế 1,"24 Lý Thường Kiệt, P. Vĩnh Ninh, TP. Huế, Tỉnh Thừa Thiên Huế",True,Huế,Thừa Thiên Huế,16.4592118951011,107.591685622358
CDM Techcombank Huế 2,"24 Lý Thường Kiệt, P. Vĩnh Ninh, TP. Huế, Tỉnh Thừa Thiên Huế",True,Huế,Thừa Thiên Huế,16.4592118951011,107.591685622358
CDM Techcombank Nội Bài,"Tầng 1, Tòa nhà NTS, Cảng hàng không quốc tế Nội Bài, X. Phú Minh, H. Sóc Sơn, TP. Hà Nội",True,Sóc Sơn,Hà Nội,21.2114232019276,105.806089296876
CDM Techcombank Bắc Giang 1,"270 Hoàng Văn Thụ, P. Hoàng Văn Thụ, TP. Bắc Giang, Tỉnh Bắc Giang",True,Bắc Giang,Bắc Giang,21.2810577721941,106.20756632431
CDM Techcombank Bắc Giang 2,"270 Hoàng Văn Thụ, P. Hoàng Văn Thụ, TP. Bắc Giang, Tỉnh Bắc Giang",True,Bắc Giang,Bắc Giang,21.2810577721941,106.20756632431
CDM Techcombank Phúc Yên,"84 Trần Hưng Đạo, tổ 8, P. Trưng Trắc, TP. Phúc Yên, Tỉnh Vĩnh Phúc",True,Phúc Yên,Vĩnh Phúc,21.2334430581028,105.705958335542
CDM Techcombank Hà Tây 2,"Tầng 1, Tòa nhà CT2 Ngô Thì Nhậm, P. Hà Cầu, Q. Hà Đông, TP.  Hà Nội",True,Hà Đông,Hà Nội,20.9686778002023,105.768802818314
CDM Techcombank Nhuệ Giang,"56-58 Lê Lợi, P. Nguyễn Trãi, Q. Hà Đông, TP. Hà Nội",True,Hà Đông,Hà Nội,20.97037,105.77834
CDM Techcombank Xa La 2,"Số 2, Biệt thự 8, KĐT Xa La, P. Phúc La, Q. Hà Đông, TP. Hà Nội",True,Hà Đông,Hà Nội,20.96283,105.79204
CDM Techcombank Hà Đông,"Chung cư CT1, làng Việt Kiều Châu Âu Euroland, KĐT Mỗ Lao, P. Mộ Lao, Q. Hà Đông, TP. Hà Nội",True,Hà Đông,Hà Nội,20.9859721346537,105.782612683467
CDM Techcombank Hà Tây 1,"Tầng 1, Tòa nhà CT2 Ngô Thì Nhậm, P. Hà Cầu, Q. Hà Đông, TP.  Hà Nội",True,Hà Đông,Hà Nội,20.9686778002023,105.768802818314
CDM Techcombank Thanh Xuân 1,"467 Nguyễn Trãi, P. Thanh Xuân Nam, Q. Thanh Xuân, TP. Hà Nội",True,Thanh Xuân,Hà Nội,20.9901899131061,105.801857808962
CDM Techcombank Văn Quán,"96-98 đường 19/5, P. Văn Quán, Q. Hà Đông, TP. Hà Nội",True,Hà Đông,Hà Nội,20.97512,105.78785
CDM Techcombank Xa La 1,"Số 2, Biệt thự 8, KĐT Xa La, P. Phúc La, Q. Hà Đông, TP. Hà Nội",True,Hà Đông,Hà Nội,20.96283,105.79204
CDM Techcombank Thanh Xuân 2,"Số 467 Nguyễn Trãi, phường Thanh Xuân Bắc, quận Thanh Xuân, TP. Hà Nội",True,Thanh Xuân,Hà Nội,20.99019,105.80186
CDM Techcombank Văn Phú,"Shophouse SH26 và SH27, tòa B chung cư H-CT2, KĐT Văn Phú, P. Phú La, Q. Hà Đông, TP. Hà Nội",True,Hà Đông,Hà Nội,20.9594578648137,105.767925278645
CDM Techcombank Kiến Hưng,"154 Lê Xuân Điệp, P. Kiến Hưng, Q. Hà Đông, TP. Hà Nội",True,Hà Đông,Hà Nội,20.96165,105.82083
CDM Techcombank Park City,"150 Lê Trọng Tấn, P. La Khê, Q. Hà Đông, TP. Hà Nội",True,Hà Đông,Hà Nội,20.96635,105.75927
CDM Techcombank Dương Nội,"C64-LK20 ô số 6, KĐT mới hai bên Lê Trọng Tấn, P. Dương Nội, Q. Hà Đông, TP. Hà Nội",True,Hà Đông,Hà Nội,20.98706,105.73822
CDM Techcombank An Hưng,"SH01, Tòa nhà Anland Premium, KĐT Dương Nội, P. La Khê, Q. Hà Đông, TP. Hà Nội",True,Hà Đông,Hà Nội,20.9755799806689,105.760687808961
CDM Techcombank Quy Nhơn,"22 Nguyễn Tất Thành, P. Lê Hồng Phong, TP. Quy Nhơn, Tỉnh Bình Định",True,Quy Nhơn,Bình Định,13.7765921505644,109.222485737083
CDM Techcombank Nghệ An 1,"Tầng 1, Tòa nhà CT1A Handico, 30 Quang Trung, P. Quang Trung, TP. Vinh, Tỉnh Nghệ An",True,Vinh,Nghệ An,18.6757093297447,105.67457098192
CDM Techcombank Nghệ An 2,"Tầng 1, Tòa nhà CT1A Handico, 30 Quang Trung, P. Quang Trung, TP. Vinh, Tỉnh Nghệ An",True,Vinh,Nghệ An,18.6757093297447,105.67457098192
CDM Techcombank Nguyễn Sỹ Sách,"28B đường Nguyễn Sỹ Sách, P. Hưng Bình, TP. Vinh, Tỉnh Nghệ An",True,Vinh,Nghệ An,18.6864412254044,105.678205637744
CDM Techcombank An Giang 1,"78 Hùng Vương, P. Mỹ Long, TP. Long Xuyên, Tỉnh An Giang",True,Long Xuyên,An Giang,10.378303350068,105.442221978094
CDM Techcombank An Giang 2,"78 Hùng Vương, P. Mỹ Long, TP. Long Xuyên, Tỉnh An Giang",True,Long Xuyên,An Giang,10.378303350068,105.442221978094
CDM Techcombank Láng Hạ,"101 Láng Hạ, P. Láng Hạ, Q. Đống Đa, TP. Hà Nội",True,Đống Đa,Hà Nội,21.01398,105.81354
CDM Techcombank Thái Nguyên 1,"64 Hoàng Văn Thụ, P. Hoàng Văn Thụ, TP. Thái Nguyên, Tỉnh Thái Nguyên",True,Thái Nguyên,Thái Nguyên,21.5926193560349,105.834257921615
CDM Techcombank Thái Nguyên 2,"64 Hoàng Văn Thụ, P. Hoàng Văn Thụ, TP. Thái Nguyên, Tỉnh Thái Nguyên",True,Thái Nguyên,Thái Nguyên,21.5926193560349,105.834257921615
CDM Techcombank Xuân Mai 1,"62 khu Xuân Hà, thị trấn Xuân Mai, H. Chương Mỹ, TP. Hà Nội",True,Chương Mỹ,Hà Nội,20.90293,105.57913
CDM Techcombank Xuân Mai 2,"62 khu Xuân Hà, thị trấn Xuân Mai, H. Chương Mỹ, TP. Hà Nội",True,Chương Mỹ,Hà Nội,20.90293,105.57913
CDM Techcombank Thanh Hóa 1,"L1-03B và L2-11B, TTTM Vincom Plaza Trần Phú, 27 Trần Phú, P. Điện Biên, TP. Thanh Hóa, Tỉnh Thanh Hóa",True,Thanh Hóa,Thanh Hóa,19.8095665531125,105.777167342669
CDM Techcombank Thanh Hóa 2,"L1-03B và L2-11B, TTTM Vincom Plaza Trần Phú, 27 Trần Phú, P. Điện Biên, TP. Thanh Hóa, Tỉnh Thanh Hóa",True,Thanh Hóa,Thanh Hóa,19.8095665531125,105.777167342669
CDM Techcombank Chợ Tây Thành,"215 Nguyễn Trãi, P. Tân Sơn, TP. Thanh Hóa, Tỉnh Thanh Hóa",True,Thanh Hóa,Thanh Hóa,19.8036413645411,105.769027795439
CDM Techcombank Long An,"L1-07 và L2-05-09 TTTM Vincom Long An, đường Hùng Vương, P. 2, TP. Tân An, Tỉnh Long An",True,Tân An,Long An,10.5342866253463,106.409825324208
CDM Techcombank Xuân Diệu,"46 Xuân Diệu, P. Quảng An, Q. Tây Hồ, TP. Hà Nội",True,Tây Hồ,Hà Nội,21.0615799080585,105.831316351293
CDM Techcombank Lạc Trung 2,"23 Lạc Trung, P. Vĩnh Tuy, Q. Hai Bà Trưng, TP. Hà Nội",True,Hai Bà Trưng,Hà Nội,21.0029993587952,105.863987194166
CDM Techcombank Tràng An 3,"458 Minh Khai, P. Vĩnh Tuy, Q. Hai Bà Trưng, TP. Hà Nội",True,Hai Bà Trưng,Hà Nội,20.994927471468,105.869157217635
CDM Techcombank Kim Liên 2,"Tầng 1, 69 X. Đàn, P. Phương Liên, Q. Đống Đa, TP. Hà Nội",True,Đống Đa,Hà Nội,21.0132494930184,105.834945814085
CDM Techcombank Đội Cấn,"285 Đội Cấn, P. Liễu Giai, Q. Ba Đình, TP. Hà Nội",True,Ba Đình,Hà Nội,21.0356723989216,105.819001708425
CDM Techcombank Thụy Khuê,"152 Thụy Khuê, P. Thụy Khuê, Q. Tây Hồ, TP. Hà Nội",True,Tây Hồ,Hà Nội,21.04331,105.82239
CDM Techcombank Ngọc Khánh,"Vinhomes Metropolis, 29 Liễu Giai, P. Ngọc Khánh, Q. Ba Đình, TP. Hà Nội",True,Ba Đình,Hà Nội,21.0311144749008,105.815009522902
CDM Techcombank Hà Nội,"30B Nguyễn Hữu Huân, P. Hàng Buồm, Q. Hoàn Kiếm, TP. Hà Nội",True,Hoàn Kiếm,Hà Nội,21.034505266403,105.854331071949
CDM Techcombank Bà Triệu,"333 Trần Khát Chân, P. Thanh Nhàn, Q. Hai Bà Trưng, TP. Hà Nội",True,Hai Bà Trưng,Hà Nội,21.0090712650218,105.857109695468
CDM Techcombank Cát Linh,"98 Tôn Đức Thắng, P. Quốc Tử Giám, Q. Đống Đa, TP. Hà Nội",True,Đống Đa,Hà Nội,21.0271,105.83383
CDM Techcombank Lĩnh Nam 1,"18 Tam Trinh, P. Minh Khai, Q. Hai Bà Trưng, TP. Hà Nội",True,Hai Bà Trưng,Hà Nội,20.9951768130194,105.862100106544
CDM Techcombank Lĩnh Nam 2,"18 Tam Trinh, P. Minh Khai, Q. Hai Bà Trưng, TP. Hà Nội",True,Hai Bà Trưng,Hà Nội,20.9951768130194,105.862100106544
CDM Techcombank Winmart+ Lô BT3 Ô 24 KĐT Pháp Vân,"Lô BT3, ô số 24, KĐT mới Pháp Vân Tứ Hiệp, P. Hoàng Liệt, Q. Hoàng Mai, TP. Hà Nội",True,Hoàng Mai,Hà Nội,20.956631,105.846703
CDM Techcombank Winmart+ Packexim,"Tòa nhà Packexim, 49/15 An Dương, P. Phú Thượng, Q. Tây Hồ, TP. Hà Nội",True,Tây Hồ,Hà Nội,21.085764,105.813232
CDM Techcombank Chương Dương 1,"412 Nguyễn Văn Cừ, P. Bồ Đề, Q. Long Biên, TP. Hà Nội",True,Long Biên,Hà Nội,21.0466890806156,105.878300366634
CDM Techcombank Chương Dương 2,"412 Nguyễn Văn Cừ, P. Bồ Đề, Q. Long Biên, TP. Hà Nội",True,Long Biên,Hà Nội,21.0466890806156,105.878300366634
CDM Techcombank Ngọc Lâm,"60 Ngọc Lâm, P. Ngọc Lâm, Q. Long Biên, TP. Hà Nội",True,Long Biên,Hà Nội,21.0446654367617,105.867992557352
CDM Techcombank Sài Đồng,"Căn hộ 6, nhà NO1B, KĐT mới Sài Đồng, P. Phúc Đồng, Q. Long Biên, TP. Hà Nội",True,Long Biên,Hà Nội,21.0388174850569,105.903815476434
CDM Techcombank Việt Hưng,"A41, Lô Biệt thự BT7, KĐT mới Việt Hưng, P. Việt Hưng, Q. Long Biên, TP. Hà Nội",True,Long Biên,Hà Nội,21.0596773532822,105.90683906294
CDM Techcombank Ngô Gia Tự,"86 Ngô Gia Tự, P. Đức Giang, Q. Long Biên, TP. Hà Nội",True,Long Biên,Hà Nội,21.058183732797,105.891222641493
CDM Techcombank Cổ Linh,"81 Cổ Linh, P. Thạch Bàn, Q. Long Biên, TP. Hà Nội",True,Long Biên,Hà Nội,21.0200244997514,105.911066899162
CDM Techcombank Ruby,"Căn TMDV HD09-SP.BH-50, KĐT Gia Lâm, X. Dương Xá, H. Gia Lâm, TP. Hà Nội",True,Gia Lâm,Hà Nội,21.0002975791191,105.942878085537
CDM Techcombank Ninh Hiệp,"Thôn 8, X. Ninh Hiệp, H. Gia Lâm, TP. Hà Nội",True,Gia Lâm,Hà Nội,21.07861,105.94087
CDM Techcombank Long Biên,"1S03 và 1S5A, tầng 1, Tòa nhà S5 (S5.2), P. Phúc Lợi, Q. Long Biên, TP. Hà Nội",True,Long Biên,Hà Nội,21.04987,105.91754
CDM Techcombank Ecopark,"L1-03, tầng 1, tháp A2, KĐT Ecopark, X. Xuân Quan, H. Văn Giang, Tỉnh Hưng Yên",True,Văn Giang,Hưng Yên,20.95259,105.93742
CDM Techcombank Gia Lâm,"Tòa nhà số S1.01, KĐT Vinhome Ocean Park, X. Đa Tốn, H. Gia Lâm, TP. Hà Nội",True,Gia Lâm,Hà Nội,20.99341,105.94262
CDM Techcombank Chương Dương 3,"412 Nguyễn Văn Cừ, P. Bồ Đề, Q. Long Biên, TP. Hà Nội",True,Long Biên,Hà Nội,21.0466890806156,105.878300366634
CDM Techcombank Hà Tĩnh,"TTTM Vincom Plaza Hà Tĩnh, đường Hàm Nghi và đường Hà Huy Tập, P. Hà Huy Tập, TP. Hà Tĩnh, Tỉnh Hà Tĩnh",True,Hà Tĩnh,Hà Tĩnh,18.3376846214143,105.895681792377
CDM Techcombank Hà Tĩnh 2,"TTTM Vincom Plaza Hà Tĩnh, đường Hàm Nghi và đường Hà Huy Tập, P. Hà Huy Tập, TP. Hà Tĩnh, Tỉnh Hà Tĩnh",True,Hà Huy Tập,Hà Tĩnh,18.3376846 ,105.8956818 
CDM Techcombank Pleiku,"16-18 Trần Phú nối dài, P. Tây Sơn, TP. Pleiku, Tỉnh Gia Lai",True,Pleiku,Gia Lai,13.9782473999882,107.998543613111
CDM Techcombank Quảng Ngãi,"26 Lê Thánh Tôn, P. Nghĩa Chánh, TP. Quảng Ngãi, Tỉnh Quảng Ngãi",True,Quảng Ngãi,Quảng Ngãi,15.1137364387375,108.810563290729
CDM Techcombank Đà Nẵng 1,"304-306 Nguyễn Văn Linh, P. Thạc Gián, Q. Thanh Khê, TP. Đà Nẵng",True,Thanh Khê,Đà Nẵng,16.0595759174037,108.207947035353
CDM Techcombank Nam Định 1,"56 Quang Trung, P. Bà Triệu, TP. Nam Định, Tỉnh Nam Định",True,Nam Định,Nam Định,20.4293079431766,106.17239328196
CDM Techcombank Nam Định 2,"56 Quang Trung, P. Bà Triệu, TP. Nam Định, Tỉnh Nam Định",True,Nam Định,Nam Định,20.4293079431766,106.17239328196
CDM Techcombank Vĩnh Long 1,"L1-06, TTTM Vincom Plaza Vĩnh Long, 55 Phạm Thái Bường, khóm 3, P. 4, TP. Vĩnh Long, Tỉnh Vĩnh Long",True,Vĩnh Long,Vĩnh Long,10.2457619864998,105.97749370257
CDM Techcombank Vĩnh Long 2,"L1-06, TTTM Vincom Plaza Vĩnh Long, 55 Phạm Thái Bường, khóm 3, P. 4, TP. Vĩnh Long, Tỉnh Vĩnh Long",True,Vĩnh Long,Vĩnh Long,10.2457619864998,105.97749370257
CDM Techcombank Đồng Tháp 1,"Shophouse PG1-24, TTTM Vinhomes Cao Lãnh, 2 đường 30/4, P. 1, TP. Cao Lãnh, Tỉnh Đồng Tháp",True,Cao Lãnh,Đồng Tháp,10.4556470355209,105.633886416045
CDM Techcombank Đồng Tháp 2,"Shophouse PG1-24, TTTM Vinhomes Cao Lãnh, 2 đường 30/4, P. 1, TP. Cao Lãnh, Tỉnh Đồng Tháp",True,Cao Lãnh,Đồng Tháp,10.4556470355209,105.633886416045
CDM Techcombank Ninh Bình 1,"848 Trần Hưng Đạo, P. Tân Thành, TP. Ninh Bình, Tỉnh Ninh Bình",True,Ninh Bình,Ninh Bình,20.2593278139926,105.970818695687
CDM Techcombank Ninh Bình 2,"848 Trần Hưng Đạo, P. Tân Thành, TP. Ninh Bình, Tỉnh Ninh Bình",True,Ninh Bình,Ninh Bình,20.2593278139926,105.970818695687
CDM Techcombank Sơn Tây,"269-271 Chùa Thông, P. Sơn Lộc, TX. Sơn Tây, TP. Hà Nội",True,Sơn Tây,Hà Nội,21.1239687465472,105.500909778283
CDM Techcombank Winmart+ Chùa Thông,"429 Chùa Thông, P. Sơn Lộc, TX. Sơn Tây, TP. Hà Nội",True,Sơn Tây,Hà Nội,21.1280460357666,105.50358581543
CDM Techcombank Kỳ Anh,"L1–05, tầng 1, TTTM VinCom Kỳ Anh Hà Tĩnh, P. Sông Trí, TX. Kỳ Anh, Tỉnh Hà Tĩnh",True,Kỳ Anh,Hà Tĩnh,18.0763338878055,106.288727825802
CDM Techcombank Đà Nẵng 2,"304-306 Nguyễn Văn Linh, P. Thạc Gián, Q. Thanh Khê, TP. Đà Nẵng",True,Thanh Khê,Đà Nẵng,16.0595759174037,108.207947035353
CDM Techcombank Hòa Khánh 2,"661 Tôn Đức Thắng, P. Hòa Khánh Nam, Q. Liên Chiểu, TP.  Đà Nẵng",True,Liên Chiểu,Đà Nẵng,16.0687259846195,108.151449995363
CDM Techcombank Phan Chu Trinh,"97 Phan Chu Trinh, P. Phước Ninh, Q. Hải Châu, TP. Đà Nẵng",True,Hải Châu,Đà Nẵng,16.0661826011964,108.220204349768
CDM Techcombank Chợ Mới,"98 Trưng Nữ Vương, P. Bình Thuận, Q. Hải Châu, TP. Đà Nẵng",True,Hải Châu,Đà Nẵng,16.0531241111545,108.218220056928
CDM Techcombank Nguyễn Hữu Thọ,"363  Nguyễn Hữu Thọ, P. Khuê Trung, Q. Cẩm Lệ, TP. Đà Nẵng",True,Cẩm Lệ,Đà Nẵng,16.0366011878524,108.210186913647
CDM Techcombank SunCity,"3-7 Nguyễn Phước Lan, P. Hòa Xuân, Q. Cẩm Lệ, TP. Đà Nẵng",True,Cẩm Lệ,Đà Nẵng,16.0227069747893,108.22512204342
CDM Techcombank Ngũ Hành Sơn,"161 Nguyễn Văn Thoại, P. An Hải Đông, Q. Sơn Trà, TP. Đà Nẵng",True,Sơn Trà,Đà Nẵng,16.0550366360141,108.241499695839
CDM Techcombank Sông Công,"305 Nguyễn Văn Thoại, P. Phước Mỹ, Q. Sơn Trà, TP. Đà Nẵng",True,Sơn Trà,Đà Nẵng,16.055894,108.242027
CDM Techcombank Sơn Trà,"Lô C1-08-09-10, 124 Phạm Văn Đồng, P. An Hải Bắc, Q. Sơn Trà, TP. Đà Nẵng",True,Sơn Trà,Đà Nẵng,16.0708158365834,108.235394943106
CDM Techcombank Tiền Giang,"PG01-01 và PG01-02, Dự án TTTM và Shophouse Vincom Mỹ Tho, 1A Hùng Vương, P. 1, TP. Mỹ Tho, Tỉnh Tiền Giang",True,Mỹ Tho,Tiền Giang,10.3571764509333,106.363968744715
CDM Techcombank The Manor 2,"Tòa nhà HH3 Sudico, KĐT Mỹ Đình Mễ Trì, P. Mỹ Đình 1, Q. Nam Từ Liêm, TP. Hà Nội",True,Nam Từ Liêm,Hà Nội,21.0164974696444,105.779579814431
CDM Techcombank Nguyễn Cơ Thạch 2,"A1 Vinhomes Gardenia, đường Hàm Nghi, P. Cầu Diễn, Q. Nam Từ Liêm, TP. Hà Nội",True,Nam Từ Liêm,Hà Nội,21.036176981635,105.760218001731
CDM Techcombank Trần Duy Hưng 2,"CT1, tầng 1, Tòa nhà Vimeco Hoàng Minh Giám, P. Trung Hòa, Q. Cầu Giấy, TP. Hà Nội",True,Cầu Giấy,Hà Nội,21.008839818025,105.794592675037
CDM Techcombank Trần Thái Tông 2,"79 Trần Thái Tông, P. Dịch Vọng Hậu, Q. Cầu Giấy, TP. Hà Nội",True,Cầu Giấy,Hà Nội,21.032323803778,105.788749020871
CDM Techcombank Hoàng Đạo Thúy 2,"Tầng 1, Tòa nhà 29T2, đường Hoàng Đạo Thúy, P. Trung Hòa, Q. Cầu Giấy, TP. Hà Nội",True,Cầu Giấy,Hà Nội,21.00735,105.80237
CDM Techcombank Trung Yên,"12 lô 1B KĐT Trung Yên, P. Trung Hòa, Q. Cầu Giấy, TP. Hà Nội",True,Cầu Giấy,Hà Nội,21.0156329712301,105.797825838692
CDM Techcombank An Khánh,"A7-NV1 ô số 8 và ô số 9, KĐT mới hai bên Lê Trọng Tấn, X. An Khánh, H. Hoài Đức, TP. Hà Nội",True,Hoài Đức,Hà Nội,21.00139,105.73294
CDM Techcombank Chùa Láng,"Tầng 1, 71 Chùa Láng, P. Láng Thượng, Q. Đống Đa, TP. Hà Nội",True,Đống Đa,Hà Nội,21.0233707527978,105.80623782809
CDM Techcombank Green Bay,"ML06-01, Dự án Vinhomes Green Bay, P. Mễ Trì, Q. Nam Từ Liêm, TP. Hà Nội",True,Nam Từ Liêm,Hà Nội,20.99835,105.78699
CDM Techcombank Hapulico,"54F Vũ Trọng Phụng, P. Thanh Xuân Trung, Q. Thanh Xuân, TP. Hà Nội",True,Thanh Xuân,Hà Nội,20.9984668336726,105.809023964786
CDM Techcombank Ba Đình 1,"168 Ngọc Khánh, P. Giảng Võ, Q. Ba Đình, TP. Hà Nội",True,Ba Đình,Hà Nội,21.0253455737078,105.818647431982
CDM Techcombank Ba Đình 2,"168 Ngọc Khánh, P. Giảng Võ, Q. Ba Đình, TP. Hà Nội",True,Ba Đình,Hà Nội,21.0253455737078,105.818647431982
CDM Techcombank Xuân Phương,"Số 03-Lô TT-A, Xuân Phương Garden, P. Phương Canh, Q. Nam Từ Liêm, TP. Hà Nội",True,Nam Từ Liêm,Hà Nội,10.7661185125337,106.663919480208
CDM Techcombank Tây Mỗ,"1S03, tầng 1, Tòa nhà S4.02 (L35M.1), KĐT Vinhomes Smart City, P. Tây Mỗ, Q. Nam Từ Liêm, TP. Hà Nội",True,Nam Từ Liêm,Hà Nội,21.0048988539153,105.739596255029
CDM Techcombank Đông Đô 2,"Tòa tháp C5 D'Capital, 119 Trần Duy Hưng, P. Trung Hòa, Q. Cầu Giấy, TP. Hà Nội",True,Cầu Giấy,Hà Nội,21.0059402815846,105.794602322456
CDM Techcombank Smart City,"Cửa hàng số 01SH05, Tòa nhà S2.05-Z29M.1 (F1-CH02-2), KĐT Vinhomes Smart City, P. Tây Mỗ, Q. Nam Từ Liêm, TP. Hà Nội",True,Nam Từ Liêm,Hà Nội,21.0069203087506,105.736903980522
CDM Techcombank Nguyễn Tuân,"82 Nguyễn Tuân, P. Thanh Xuân Trung, Q. Thanh Xuân, TP. Hà Nội",True,Thanh Xuân,Hà Nội,20.9970082567257,105.804363757398
CDM Techcombank Thái Bình,"TTTM Vincom Plaza Lý Bôn, 460 Lý Bôn, P. Lê Hồng Phong, TP. Thái Bình, Tỉnh Thái Bình",True,Thái Bình,Thái Bình,20.4777963,106.3306916 
CDM Techcombank Tân Sơn Nhất,"38-40 Hồng Hà, P. 2, Q. Tân Bình, TP. Hồ Chí Minh",True,Tân Bình,Hồ Chí Minh,10.8131804135051,106.667679266452
CDM Techcombank Hóc môn,"11/4 Lý Thường Kiệt, khu phố 2, thị trấn Hóc Môn, H. Hóc Môn, TP. Hồ Chí Minh",True,Hóc Môn,Hồ Chí Minh,10.8874839041255,106.592357064602
CDM Techcombank Nguyễn Thái Sơn 1,"233 Nguyễn Thái Sơn, P. 7, Q. Gò Vấp, TP. Hồ Chí Minh",True,Gò Vấp,Hồ Chí Minh,10.8251937305739,106.687591254805
CDM Techcombank Lê Đức Thọ,"579 Lê Đức Thọ, P. 16, Q. Gò Vấp, TP. Hồ Chí Minh",True,Gò Vấp,Hồ Chí Minh,10.8476299893148,106.668419266452
CDM Techcombank Quang Trung 2,"170C Quang Trung, P. 10, Q. Gò Vấp, TP. Hồ Chí Minh",True,Gò Vấp,Hồ Chí Minh,10.8289983759944,106.673749995287
CDM Techcombank Trường Chinh,"826A Trường Chinh, P. 15, Q. Tân Bình, TP. Hồ Chí Minh",True,Tân Bình,Hồ Chí Minh,10.8191697274671,106.631410195287
CDM Techcombank Tô Ký,"121 Tô Ký, khu phố 3A, P. Đông Hưng Thuận, Q. 12, TP. Hồ Chí Minh",True,Quận 12,Hồ Chí Minh,10.848101728461,106.633888972558
CDM Techcombank CityLand,"29 đường số 3, KDC CityLand, P. 10, Q. Gò Vấp, TP. Hồ Chí Minh",True,Gò Vấp,Hồ Chí Minh,10.8342419254392,106.670359995287
CDM Techcombank Củ Chi 1,"39 Liêu Bình Hương, Tổ 1 Khu KD, ấp Tân Lập, X. Tân Thông Hội, H. Củ Chi, TP. Hồ Chí Minh",True,Củ Chi,Hồ Chí Minh,10.9617548296293,106.502797856408
CDM Techcombank Phan Văn Hớn,"148 Phan Văn Hớn, P. Tân Thới Nhất, Q. 12, TP. Hồ Chí Minh",True,Quận 12,Hồ Chí Minh,10.8292340901942,106.616859972401
CDM Techcombank Nguyễn Văn Quá,"1/43 Nguyễn Văn Quá, P. Đông Hưng Thuận, Q. 12, TP. Hồ Chí Minh",True,Quận 12,Hồ Chí Minh,10.8270742610705,106.62676887848
CDM Techcombank Lê Văn Thọ 2,"534 Lê Văn Thọ, P. 6, Q. Gò Vấp, TP. Hồ Chí Minh",True,Gò Vấp,Hồ Chí Minh,10.851039350821,106.656309237148
CDM Techcombank Bình Hòa,"362A Lê Quang Định, P. 11, Q. Bình Thạnh, TP. Hồ Chí Minh",True,Bình Thạnh,Hồ Chí Minh,10.8108311 ,106.6921908 
CDM Techcombank Gia Định,"Tòa nhà Q. Mobile, 36 Phan Đăng Lưu, P.  6, Q. Bình Thạnh, TP. Hồ Chí Minh",True,Bình Thạnh,Hồ Chí Minh,10.8039099893558,106.688151452957
CDM Techcombank Winmart+ Phan Xích Long,"476 Phan Xích Long, P. 3, Q. Phú Nhuận, TP. Hồ Chí Minh ",True,Phú Nhuận,Hồ Chí Minh,10.8023366587672,106.682582497187
CDM Techcombank Củ Chi 2,"39 Liêu Bình Hương, Tổ 1 Khu KD, ấp Tân Lập, X. Tân Thông Hội, H. Củ Chi, TP. Hồ Chí Minh",True,Củ Chi,Hồ Chí Minh,10.9617548296293,106.502797856408
CDM Techcombank Winmart+ Nguyễn Sỹ Sách ,"66B Nguyễn Sỹ Sách, P. 15, Q. Tân Bình, TP. Hồ Chí Minh",True,Tân Bình,Hồ Chí Minh,10.82,106.636
CDM Techcombank Winmart+ Đường 59 Gò Vấp,"41 đường 59, P. 14, Q. Gò Vấp, TP. Hồ Chí Minh",True,Gò Vấp,Hồ Chí Minh,10.8529357910156,106.651710510254
CDM Techcombank Winmart+ Ấp Nam Thới ,"4/1D ấp Nam Thới, X. Thới Tam Thôn, H. Hóc Môn, TP. Hồ Chí Minh",True,Hóc Môn,Hồ Chí Minh,10.8889303207397,106.60082244873
CDM Techcombank Nguyễn Thái Sơn 2,"233 Nguyễn Thái Sơn, P. 7, Q. Gò Vấp, TP. Hồ Chí Minh",True,Gò Vấp,Hồ Chí Minh,10.8251937305739,106.687591254805
CDM Techcombank Bình Dương 1,"347-349 Đại lộ Bình Dương, P. Chánh Nghĩa, TP. Thủ Dầu Một, Tỉnh Bình Dương ",True,Thủ Dầu Một,Bình Dương,10.9764787222365,106.669030946383
CDM Techcombank Lâm Đồng,"136 Phan Đình Phùng, P. 2, TP. Đà Lạt, Tỉnh Lâm Đồng",True,Đà Lạt,Lâm Đồng,11.9465816769142,108.4353114051
CDM Techcombank Phố Hiến,"594 Nguyễn Văn Linh, P. Hiến Nam, TP. Hưng Yên, Tỉnh Hưng Yên",True,Hưng Yên,Hưng Yên,20.6654550867937,106.058247915917
CDM Techcombank Phổ Yên,"Tiểu khu 4, thị trấn Ba Hàng, H. Phổ Yên, TP. Thái Nguyên",True,Phổ Yên,Thái Nguyên,21.4179244045006,105.87055492062
CDM Techcombank Quảng Nam,"84 Phan Chu Trinh, P. An Mỹ, TP. Tam Kỳ, Tỉnh Quảng Nam",True,Tam Kỳ,Quảng Nam,15.5717623688935,108.484626863523
CDM Techcombank Nguyễn Sơn,"301 Nguyễn Sơn, P. Phú Thạnh, Q. Tân Phú, TP. Hồ Chí Minh",True,Tân Phú,Hồ Chí Minh,10.7837551468507,106.62324585111
CDM Techcombank Bình Đăng,"338-340 Liên Tỉnh 5, P. 6, Q. 8, TP. Hồ Chí Minh",True,Quận 8,Hồ Chí Minh,10.7332081064901,106.65577780878
CDM Techcombank Bàu Cát,"189-191 Bàu Cát, P. 14, Q. Tân Bình, TP. Hồ Chí Minh",True,Tân Bình,Hồ Chí Minh,10.79209827743,106.643676696187
CDM Techcombank Tân Phú,"264 Luỹ Bán Bích, P. Hòa Thạnh, Q. Tân Phú, TP. Hồ Chí Minh",True,Tân Phú,Hồ Chí Minh,10.7726867291465,106.632338741316
CDM Techcombank Tân Hương 1,"125 Tân Sơn Nhì, P. Tân Sơn Nhì, Q. Tân Phú, TP. Hồ Chí Minh",True,Tân Phú,Hồ Chí Minh,10.8009853730679,106.633257795287
CDM Techcombank Bình Trị Đông 1,"238 Vành Đai Trong, khu phố 3, P. Bình Trị Đông B, Q. Bình Tân, TP. Hồ Chí Minh",True,Bình Tân,Hồ Chí Minh,10.7504283678054,106.615469995286
CDM Techcombank Chợ Lớn 1,"78-80-82 Hậu Giang, P. 6, Q. 6, TP. Hồ Chí Minh",True,Quận 6,Hồ Chí Minh,10.749970240652,106.646666695286
CDM Techcombank Bình Tân 1,"303 Lê Văn Quới, P. Bình Trị Đông, Q. Bình Tân, TP. Hồ Chí Minh",True,Bình Tân,Hồ Chí Minh,10.7760145930069,106.612027808781
CDM Techcombank Phạm Văn Chí,"601A Phạm Văn Chí, P. 7, Q. 6, TP. Hồ Chí Minh",True,Quận 6,Hồ Chí Minh,10.7407537302872,106.639740524121
CDM Techcombank Bình Phú,"137-139 Chợ Lớn, KDC Bình Phú, P. 11, Q. 6, TP Hồ Chí Minh",True,Quận 6,Hồ Chí Minh,10.7454299894107,106.631039995286
CDM Techcombank Quận 6,"439 Nguyễn Văn Luông, P. 12, Q. 6, TP. Hồ Chí Minh",True,Quận 6,Hồ Chí Minh,10.7523637726968,106.63471145312
CDM Techcombank An Lạc,"104-106 đường số 17A, P. Bình Trị Đông B, Q. Bình Tân, TP. Hồ Chí Minh ",True,Bình Tân,Hồ Chí Minh,10.7429189078213,106.610419995286
CDM Techcombank Bình Tiên,"374 Lê Trọng Tấn, P. Tây Thạnh, Q. Tân Phú, TP. Hồ Chí Minh",True,Tân Phú,Hồ Chí Minh,10.8080624501686,106.620189470145
CDM Techcombank Bình Thới,"363 Lạc Long Quân, P. 5, Q. 11, TP. Hồ Chí Minh",True,Quận 11,Hồ Chí Minh,10.7711762107346,106.645229995286
CDM Techcombank Winmart+ Bàu Cát,"271 Bàu Cát, P. 12, Q. Tân Bình, TP. Hồ Chí Minh",True,Tân Bình,Hồ Chí Minh,10.791333,106.6455
CDM Techcombank Tân Hương 2,"125 Tân Sơn Nhì, P. Tân Sơn Nhì, Q. Tân Phú, TP. Hồ Chí Minh",True,Tân Phú,Hồ Chí Minh,10.8009853730679,106.633257795287
CDM Techcombank Chợ Lớn 2,"78-80-82 Hậu Giang, P. 6, Q. 6, TP. Hồ Chí Minh",True,Quận 6,Hồ Chí Minh,10.749970240652,106.646666695286
CDM Techcombank Winmart+ Phạm Vấn,"9 Phạm Vấn, P. Phú Thọ Hòa, Q. Tân Phú, TP. Hồ Chí Minh",True,Tân Phú,Hồ Chí Minh,10.784361,106.624444
CDM Techcombank Tân Hưng Thuận,"40 Vườn Lài, P. Tân Thành, Q. Tân Phú, TP. Hồ Chí Minh",True,Tân Phú,Hồ Chí Minh,10.7873443514946,106.634666962192
CDM Techcombank Winmart+ Đường 50A Tân Tạo,"50-52 đường 50A, P. Tân Tạo, Bình Tân, TP. Hồ Chí Minh",True,Bình Tân,Hồ Chí Minh,10.752111,106.596306
CDM Techcombank Winmart+ Gò Dầu,"31A-33A Gò Dầu, P. Tân Quý, Q. Tân Phú, TP. Hồ Chí Minh",True,Tân Phú,Hồ Chí Minh,10.795667,106.628111
CDM Techcombank Lãnh Binh Thăng,"308 Lãnh Binh Thăng, P. 11, Q. 11 TP. Hồ Chí Minh",True,Quận 11,Hồ Chí Minh,10.7645761712721,106.648046034497
CDM Techcombank Winmart+ Đường 15 Bình Tân,"11 đường 15, P. Bình Hưng Hòa, Q. Bình Tân, TP. Hồ Chí Minh",True,Bình Tân,Hồ Chí Minh,10.801444,106.607889
CDM Techcombank Winmart+ Nguyễn Quý Anh,"121-123-125-127 Nguyễn Quý Anh, P. Tân Sơn Nhì, Q. Tân Phú, TP. Hồ Chí Minh",True,Tân Phú,Hồ Chí Minh,10.799167,106.627111
CDM Techcombank Winmart+ Quốc Lộ 50,"A10/27 ấp 1, Quốc lộ 50, X. Bình Hưng, H. Bình Chánh, TP. Hồ Chí Minh",True,Bình Chánh,Hồ Chí Minh,10.726883,106.655541
CDM Techcombank Bùi Thị Xuân,"452 Nguyễn Thị Minh Khai, P. 5, Q. 3, TP. Hồ Chí Minh",True,Quận 3,Hồ Chí Minh,10.7686761479717,106.684513870145
CDM Techcombank Bình Trị Đông 2,"238 Vành Đai Trong, khu phố 3, P. Bình Trị Đông B, Q. Bình Tân, TP. Hồ Chí Minh",True,Bình Tân,Hồ Chí Minh,10.7504283678054,106.615469995286
CDM Techcombank Bình Tân 2,"303 Lê Văn Quới, P. Bình Trị Đông B, Q. Bình Tân, TP. Hồ Chí Minh",True,Bình Tân,Hồ Chí Minh,10.7760145930069,106.612027808781
CDM Techcombank Quận 5 2,"284A An Dương Vương, P. 4, Q. 5, TP. Hồ Chí Minh",True,Quận 5,Hồ Chí Minh,10.7606479278186,106.681448178098
CDM Techcombank Phú Mỹ Hưng,"Tòa nhà Capital Tower, 6 Nguyễn Khắc Viện, P. Tân Phú, Q. 7, TP. Hồ Chí Minh",True,Quận 7,Hồ Chí Minh,10.7285881567274,106.720234995286
CDM Techcombank Tân Qui 1,"340 Nguyễn Thị Thập, P. Tân Quy, Q. 7, TP. Hồ Chí Minh",True,Quận 7,Hồ Chí Minh,10.7387399303594,106.712394097133
CDM Techcombank Tân Qui 2,"340 Nguyễn Thị Thập, P. Tân Quy, Q. 7, TP. Hồ Chí Minh",True,Quận 7,Hồ Chí Minh,10.7387399303594,106.712394097133
CDM Techcombank Tân Thuận,"340 Huỳnh Tấn Phát, P. Bình Thuận, Q. 7, TP. Hồ Chí Minh",True,Quận 7,Hồ Chí Minh,10.7495430460234,106.72855010878
CDM Techcombank Lacasa,"Nhà C2 Hoàng Quốc Việt, KDC Vạn Phát Hưng, khu phố 4, P. Phú Thuận, Q. 7, TP. Hồ Chí Minh",True,Quận 7,Hồ Chí Minh,10.7143505312323,106.73961780878
CDM Techcombank Phú Xuân,"6/7 Huỳnh Tấn Phát, khu phố 5, thị trấn Nhà Bè, H. Nhà Bè, TP. Hồ Chí Minh",True,Nhà Bè,Hồ Chí Minh,10.6995612202301,106.738634437615
CDM Techcombank Sunrise City,"34-36 Nguyễn Thị Thập, KĐT mới Him Lam, P. Tân Hưng, Q. 7, TP. Hồ Chí Minh",True,Quận 7,Hồ Chí Minh,10.7409507947632,106.698921249263
CDM Techcombank Huỳnh Tấn Phát,"694 Huỳnh Tấn Phát, P. Tân Phú, Q. 7, TP. Hồ Chí Minh",True,Quận 7,Hồ Chí Minh,10.7329360 ,106.7311280 
CDM Techcombank Phong Phú,"314A Chánh Hưng, P. 5, Q. 8, TP. Hồ Chí Minh",True,Quận 8,Hồ Chí Minh,10.739590398,106.669073435
CDM Techcombank Linh Đàm 2,"Tòa nhà CC2A, KĐT Bắc Linh Đàm, P. Đại Kim, Q. Hoàng Mai, TP. Hà Nội",True,Hoàng Mai,Hà Nội,20.9681977255811,105.827295681912
CDM Techcombank Trần Điền 2,"Ô số 104 và 106 Tòa nhà An Bình 1, KĐT mới Định Công, P. Định Công, Q. Hoàng Mai, TP. Hà Nội",True,Hoàng Mai,Hà Nội,20.9849248218614,105.833391005517
CDM Techcombank Định Công,"52 Vương Thừa Vũ, P. Khương Trung, Q. Thanh Xuân, TP. Hà Nội",True,Thanh Xuân,Hà Nội,20.9999851692652,105.822083381268
CDM Techcombank Hoàng Mai,"Tầng 1, Tòa nhà B15, KĐT mới Đại Kim, P. Đại Kim, Q. Hoàng Mai, TP. Hà Nội",True,Hoàng Mai,Hà Nội,20.9759685063781,105.836471382687
CDM Techcombank Trương Định,"TM105, tầng 1, 493 Trương Định, P. Tân Mai, Q. Hoàng Mai, TP. Hà Nội",True,Hoàng Mai,Hà Nội,20.9838651307387,105.847961066632
CDM Techcombank Lò Đúc,"108 ngõ Hòa Bình 6, tổ 15B, P. Minh Khai, Q. Hai Bà Trưng, TP. Hà Nội",True,Hai Bà Trưng,Hà Nội,21.0135702429528,105.857620379674
CDM Techcombank Khâm Thiên,"228 Khâm Thiên, P. Thổ Quan, Q. Đống Đa, TP. Hà Nội",True,Đống Đa,Hà Nội,21.0192723979957,105.835008553617
CDM Techcombank Trần Điền 1,"Ô số 104 và 106 Tòa nhà An Bình 1, KĐT mới Định Công, P. Định Công, Q. Hoàng Mai, TP. Hà Nội",True,Hoàng Mai,Hà Nội,20.9849248218614,105.833391005517
CDM Techcombank Hà Thành 2,"330 Bà Triệu, P. Lê Đại Hành, Q. Hai Bà Trưng, TP. Hà Nội",True,Hai Bà Trưng,Hà Nội,21.0201465508797,105.850006485668
CDM Techcombank Kim Giang,"146 Kim Giang, P. Đại Kim, Q. Hoàng Mai, TP. Hà Nội",True,Hoàng Mai,Hà Nội,20.9807700461373,105.817881575226
CDM Techcombank Winmart+ TT3 40-41 Khu Đấu Giá Tứ Hiệp,"TT3, 40-41 Khu đấu giá đất Ngũ Hiệp Tứ Hiệp, X. Tứ Hiệp, H. Thanh Trì, TP. Hà Nội",True,Thanh Trì,Hà Nội,20.936209,105.85051
CDM Techcombank Thủ Đô 1,"6 Quang Trung, P. Trần Hưng Đạo, Q. Hoàn Kiếm, TP. Hà Nội",True,Hoàn Kiếm,Hà Nội,21.0239058156148,105.849136885543
CDM Techcombank Thủ Đô 2,"6 Quang Trung, P. Trần Hưng Đạo, Q. Hoàn Kiếm, TP. Hà Nội",True,Hoàn Kiếm,Hà Nội,21.0239058156148,105.849136885543
CDM Techcombank Thủ Đô 3,"6 Quang Trung, P. Trần Hưng Đạo, Q. Hoàn Kiếm, TP. Hà Nội",True,Hoàn Kiếm,Hà Nội,21.0239058156148,105.849136885543
CDM Techcombank Hà Thành 1,"330 Bà Triệu, P. Lê Đại Hành, Q. Hai Bà Trưng, TP. Hà Nội",True,Hai Bà Trưng,Hà Nội,21.0201465508797,105.850006485668
CDM Techcombank Bệnh Viện Vinmec Time City,"458 Minh Khai, P. Minh Khai, Q. Hai Bà Trưng, TP. Hà Nội",True,Hai Bà Trưng,Hà Nội,20.99627,105.867401
CDM Techcombank Cửa Bắc,"8 Cửa Bắc, P. Trúc Bạch, Q. Ba Đình, TP. Hà Nội",True,Ba Đình,Hà Nội,21.0455452278817,105.843264035708
CDM Techcombank Bát Đàn,"34 Bát Đàn, P. Hàng Bồ, Q. Hoàn Kiếm, TP. Hà Nội",True,Hoàn Kiếm,Hà Nội,21.0337830487775,105.847067181213
CDM Techcombank Khương Mai,"3 Lê Trọng Tấn, P. Khương Mai, Q. Thanh Xuân, TP. Hà Nội",True,Thanh Xuân,Hà Nội,20.9996254201777,105.828535489944
CDM Techcombank Linh Đàm 3,"Tòa nhà CC2A, KĐT Bắc Linh Đàm, P. Đại Kim, Q. Hoàng Mai, TP. Hà Nội",True,Hoàng Mai,Hà Nội,20.9681977255811,105.827295681912
CDM Techcombank Hai Bà Trưng,"57A Phan Chu Trinh, P. Phan Chu Trinh, Q. Hoàn Kiếm, TP. Hà Nội",True,Hoàn Kiếm,Hà Nội,21.0191356543897,105.855273728907
CDM Techcombank Green Park,"SH 4, Tòa nhà Phương Đông GreenPark, 1 Trần Thủ Độ, P. Hoàng Liệt, Q. Hoàng Mai, TP. Hà Nội",True,Hoàng Mai,Hà Nội,20.96365,105.8452
CDM Techcombank Phú Quốc 1,"216 Nguyễn Trung Trực, thị trấn Dương Đông, TP. Phú Quốc, Tỉnh Kiên Giang",True,Phú Quốc,Kiên Giang,10.2232924766626,103.970846088649
CDM Techcombank Phú Quốc 2,"216 Nguyễn Trung Trực, thị trấn Dương Đông, TP. Phú Quốc, Tỉnh Kiên Giang",True,Phú Quốc,Kiên Giang,10.2232924766626,103.970846088649
CDM Techcombank Kiên Giang 1,"L1-04, tầng 1, TTTM Vincom Rạch Giá, lô A12, đường Cô Bắc, khu phố 1, P. Vĩnh Bảo, TP. Rạch Giá, Tỉnh Kiên Giang",True,Rạch Giá,Kiên Giang,10.0028675820625,105.081012434497
CDM Techcombank Kiên Giang 2,"L1-04, tầng 1, TTTM Vincom Rạch Giá, lô A12, đường Cô Bắc, khu phố 1, P. Vĩnh Bảo, TP. Rạch Giá, Tỉnh Kiên Giang",True,Rạch Giá,Kiên Giang,10.0028675820625,105.081012434497
CDM Techcombank Cà Mau,"15A-16A Hùng Vương, P. 7, TP. Cà Mau, Tỉnh Cà Mau",True,Cà Mau,Cà Mau,9.17557733774695,105.150075570308
CDM Techcombank Quảng Bình,"1 Trần Hưng Đạo, P. Đồng Phú, TP. Đồng Hới, Tỉnh Quảng Bình",True,Đồng Hới,Quảng Bình,17.46978,106.61721
CDM Techcombank Võ Văn Ngân 2,"6 Võ Văn Ngân, khu phố 1, P. Trường Thọ, TP. Thủ Đức, TP. Hồ Chí Minh",True,Thủ Đức,Hồ Chí Minh,10.8509730082653,106.755663639464
CDM Techcombank Tân Cảng 2,"L2-SH06, Chung cư Landmark 2, 720A Điện Biên Phủ, P. 22, Q. Bình Thạnh, TP. Hồ Chí Minh",True,Bình Thạnh,Hồ Chí Minh,10.7936506291697,106.721344321805
CDM Techcombank Văn Thánh,"561 Điện Biên Phủ, P. 25, Q. Bình Thạnh, TP. Hồ Chí Minh",True,Bình Thạnh,Hồ Chí Minh,10.7995922952995,106.719025266451
CDM Techcombank Cantavil An Phú,"84E đường số 2, P. Trường Thọ, TP. Thủ Đức, TP. Hồ Chí Minh",True,Thủ Đức,Hồ Chí Minh,10.8363094641968,106.75331833577
CDM Techcombank An Phú,"159 Võ Nguyên Giáp, P. Thảo Điền, TP. Thủ Đức, TP. Hồ Chí Minh",True,Thủ Đức,Hồ Chí Minh,10.8025272958117,106.740701045569
CDM Techcombank Đỗ Xuân Hợp 1,"280-282 Đỗ Xuân Hợp, P. Phước Long A, TP. Thủ Đức, TP. Hồ Chí Minh",True,Thủ Đức,Hồ Chí Minh,10.8231043653128,106.769940008781
CDM Techcombank Đỗ Xuân Hợp 2,"280-282 Đỗ Xuân Hợp, P. Phước Long A, TP. Thủ Đức, TP. Hồ Chí Minh",True,Thủ Đức,Hồ Chí Minh,10.8231043653128,106.769940008781
CDM Techcombank Hiệp Bình Phước,"557B Quốc lộ 13, khu phố 5, P. Hiệp Bình Phước, TP. Thủ Đức, TP. Hồ Chí Minh",True,Thủ Đức,Hồ Chí Minh,10.8495832893129,106.718694395287
CDM Techcombank Nguyễn Duy Trinh,"L1-03, TTTM Vincom Maximark, tòa nhà Homyland 2, 307 Nguyễn Duy Trinh, P. Bình Trưng Tây, TP. Thủ Đức, TP. Hồ Chí Minh ",True,Thủ Đức,Hồ Chí Minh,10.7884805285731,106.765689995287
CDM Techcombank Vạn Phúc City,"91 Nguyễn Thị Nhung, Khu nhà ở Vạn Phúc 1, P. Hiệp Bình Phước, TP. Thủ Đức, TP. Hồ Chí Minh",True,Thủ Đức,Hồ Chí Minh,10.8418499893202,106.715139266452
CDM Techcombank Thanh Đa 1,"633-635 Xô viết Nghệ Tĩnh, P. 26, Q. Bình Thạnh, TP. Hồ Chí Minh",True,Bình Thạnh,Hồ Chí Minh,10.8112329063827,106.713915323927
CDM Techcombank Thủ Đức,"102, LK1-2 Đặng Văn Bi, P. Bình Thọ, TP. Thủ Đức, TP. Hồ Chí Minh ",True,Thủ Đức,Hồ Chí Minh,10.8439482520649,106.762617495287
CDM Techcombank The Rainbow,"Tòa nhà S2.01, KDC Vinhomes Grand Park, P. Long Thạnh Mỹ, TP. Thủ Đức, TP. Hồ Chí Minh",True,Thủ Đức,Hồ Chí Minh,10.8375870425176,106.831819904522
CDM Techcombank Trần Não,"125 Trần Não, khu phố 3, P. Bình An, TP. Thủ Đức, TP. Hồ Chí Minh",True,Thủ Đức,Hồ Chí Minh,10.7926241619481,106.730816813399
CDM Techcombank Đinh Bộ Lĩnh,"329 Bạch Đằng, P. 15, Q. Bình Thạnh, TP. Hồ Chí Minh",True,Bình Thạnh,Hồ Chí Minh,10.8031614959138,106.704774307019
CDM Techcombank Diamond Island,"29 đường 60-Thạnh Mỹ Lợi, P. Thạnh Mỹ Lợi, TP. Thủ Đức, TP. Hồ Chí Minh",True,Thủ Đức,Hồ Chí Minh,10.7779075268253,106.75726725111
CDM Techcombank Central Park,"C2-SH. 05, nhà chung cư Central 2, P. 22, Q. Bình Thạnh, TP. Hồ Chí Minh",True,Bình Thạnh,Hồ Chí Minh,10.791475363852,106.720958487334
CDM Techcombank Minh Khai,"225-227 Xô Viết Nghệ Tĩnh, P. 17, Q. Bình Thạnh, TP. Hồ Chí Minh",True,Bình Thạnh,Hồ Chí Minh,10.8002178341981,106.710979995287
CDM Techcombank Lumiere,"602/27 Điện Biên Phủ, P. 22, Q. Bình Thạnh, TP. Hồ Chí Minh",True,Bình Thạnh,Hồ Chí Minh,10.7980116059684,106.717879995287
CDM Techcombank Thuận Kiều,"44 Xuân Quỳnh, P. Phước Long B, TP. Thủ Đức, TP. Hồ Chí Minh",True,Thủ Đức,Hồ Chí Minh,10.815304051084,106.777856824122
CDM Techcombank Tân Cảng 1,"L2-SH06, Chung cư Landmark 2, 720A Điện Biên Phủ, P. 22, Q. Bình Thạnh, TP. Hồ Chí Minh",True,Bình Thạnh,Hồ Chí Minh,10.7936506291697,106.721344321805
CDM Techcombank Sài Gòn 1,"23 Lê Duẩn, P. Bến Nghé, Q. 1, TP. Hồ Chí Minh",True,Quận 1,Hồ Chí Minh,10.7836208841898,106.702007129874
CDM Techcombank Sài Gòn 2,"23 Lê Duẩn, P. Bến Nghé, Q. 1, TP. Hồ Chí Minh",True,Quận 1,Hồ Chí Minh,10.7836208841898,106.702007129874
CDM Techcombank Sài Gòn 3,"23 Lê Duẩn, P. Bến Nghé, Q. 1, TP. Hồ Chí Minh",True,Quận 1,Hồ Chí Minh,10.7836208841898,106.702007129874
CDM Techcombank Sài Gòn 4,"23 Lê Duẩn, P. Bến Nghé, Q. 1, TP. Hồ Chí Minh",True,Quận 1,Hồ Chí Minh,10.7836208841898,106.702007129874
CDM Techcombank Global City,"480 Liên Phường, khu phố 6, P. Phước Long B, TP. Thủ Đức, TP. Hồ Chí Minh",True,Thủ Đức,Hồ Chí Minh,10.805344903262,106.790605827816
CDM Techcombank Thắng Lợi,"58 Võ Văn Tần, P. Võ Thị Sáu, Q. 3, TP. Hồ Chí Minh",True,Quận 3,Hồ Chí Minh,10.7777664643431,106.691082706934
CDM Techcombank Pasteur,"86-88 Nguyễn Công Trứ, P. Nguyễn Thái Bình, Q. 1, TP. Hồ Chí Minh",True,Quận 1,Hồ Chí Minh,10.7696721488363,106.702712910628
CDM Techcombank Lê Văn Sỹ 2,"184A Lê Văn Sỹ, P. 10, Q. Phú Nhuận, TP. Hồ Chí Minh ",True,Phú Nhuận,Hồ Chí Minh,10.7932013092277,106.670189995287
CDM Techcombank Thanh Đa 2,"633-635 Xô viết Nghệ Tĩnh, P. 26, Q. Bình Thạnh, TP. Hồ Chí Minh",True,Bình Thạnh,Hồ Chí Minh,10.8112329063827,106.713915323927
CDM Techcombank Bệnh Viện Vinmec Central Park,"Vinhomes Tân Cảng, 208 Nguyễn Hữu Cảnh, P. 22, Q. Bình Thạnh, TP. Hồ Chí Minh",True,Bình Thạnh,Hồ Chí Minh,10.7941805,106.7204355
CDM Techcombank Trần Não 2,"125 Trần Não, khu phố 3, P. Bình An, TP. Thủ Đức, TP. Hồ Chí Minh",True,Thủ Đức,Hồ Chí Minh,10.7924921,106.7276034
CDM Techcombank Hoàng Quốc Việt 1,"98 Hoàng Quốc Việt, P. Nghĩa Tân, Q. Cầu Giấy, TP. Hà Nội",True,Cầu Giấy,Hà Nội,21.0464549740606,105.796147808963
CDM Techcombank Hoàng Quốc Việt 2,"98 Hoàng Quốc Việt, P. Nghĩa Tân, Q. Cầu Giấy, TP. Hà Nội",True,Cầu Giấy,Hà Nội,21.0464549740606,105.796147808963
CDM Techcombank Từ Liêm,"30 Phố Nhổn, P. Tây Tựu, Q. Bắc Từ Liêm, TP. Hà Nội",True,Bắc Từ Liêm,Hà Nội,21.0547696815824,105.731902244165
CDM Techcombank Trần Bình,"N3C1 Mỹ Đình, P. Mỹ Đình 1, Q. Nam Từ Liêm, TP. Hà Nội",True,Nam Từ Liêm,Hà Nội,21.0295919955128,105.77528656848
CDM Techcombank Đan Phượng 2,"135 Tây Sơn, thị trấn Phùng, H. Đan Phượng, TP. Hà Nội",True,Đan Phượng,Hà Nội,21.0841479075187,105.670549253141
CDM Techcombank Tây Hồ Tây,"LK.C09 Dự án Embassy Garden, P. Cổ Nhuế 1, Q. Bắc Từ Liêm, TP. Hà Nội",True,Bắc Từ Liêm,Hà Nội,21.06283104458,105.79846585314
CDM Techcombank Tây Hồ,"110 Lạc Long Quân, P. Bưởi, Q. Tây Hồ, TP. Hà Nội",True,Tây Hồ,Hà Nội,21.0510762991745,105.808120302477
CDM Techcombank Cầu Giấy,"1/196 Nguyễn Văn Huyên, P. Quan Hoa, Q. Cầu Giấy, TP. Hà Nội",True,Cầu Giấy,Hà Nội,21.0340230106,105.797731208706
CDM Techcombank Tân Xuân,"DVTM-11 Dự án khu nhà ở X. hội Ecohome 3, Khu Bắc Cổ Nhuế-Chèm, P. Đông Ngạc, Q. Bắc Từ Liêm, TP. Hà Nội",True,Bắc Từ Liêm,Hà Nội,21.0853897295861,105.785266378013
CDM Techcombank Nam Thăng Long,"432 Phạm Văn Đồng, P. Cổ Nhuế 2, Q. Bắc Từ Liêm, TP. Hà Nội",True,Bắc Từ Liêm,Hà Nội,21.05866,105.78325
CDM Techcombank Bệnh viện Vinmec Smart City Tây Mỗ,"KĐT Tây Mỗ, Đại Mỗ, Vinhomes Smart City, đường Tây Mỗ, P. Tây Mỗ, Q. Nam Từ Liêm, TP. Hà Nội",True,Nam Từ Liêm,Hà Nội,21.0073878948332,105.747971366068
CDM Techcombank Tân Xuân 2,"DVTM-11 Dự án khu nhà ở xã hội Ecohome 3, Khu Bắc Cổ Nhuế-Chèm, P. Đông Ngạc, Q. Bắc Từ Liêm, TP. Hà Nội",True,Bắc Từ Liêm,Hà Nội,21.0853897 ,105.7852664 
CDM Techcombank Hồ Tùng Mậu,"384 Hồ Tùng Mậu, P. Cầu Diễn, Q. Bắc Từ Liêm, TP. Hà Nội",True,Bắc Từ Liêm,Hà Nội,21.0405713298596,105.765439309605
CDM Techcombank Ciputra,"Tầng SH, Tòa nhà S56 Sunshine City, Lô đất I.A.23 KĐT Nam Thăng Long, P. Đông Ngạc, Q. Bắc Từ Liêm, TP. Hà Nội",True,Bắc Từ Liêm,Hà Nội,21.08516,105.79246
CDM Techcombank Bình Thuận,"435-437 Trần Hưng Đạo, P. Đức Thắng, TP. Phan Thiết, Tỉnh Bình Thuận",True,Phan Thiết,Bình Thuận,10.9252926611327,108.100212910629
CDM Techcombank Yên Bái,"TTTM Vincom Plaza Yên Bái, đường Thành Công và đường Tô Hiến Thành, P. Nguyễn Thái Học, TP. Yên Bái, Tỉnh Yên Bái",True,Yên Bái,Yên Bái,21.70816,104.88214
CDM Techcombank Bình Phước,"78A Phú Riềng Đỏ, P. Tân Bình, TP. Đồng Xoài, Tỉnh Bình Phước",True,Đồng Xoài,Bình Phước,11.5329030416566,106.89874200954
CDM Techcombank Sóc Trăng 1,"Shophouse PG01-01 và PG01-02, đường Trần Hưng Đạo, khóm 1, P. 2, TP. Sóc Trăng, Tỉnh Sóc Trăng",True,Sóc Trăng,Sóc Trăng,9.59675778819815,105.970869526338
CDM Techcombank Sóc Trăng 2,"Shophouse PG01-01 và PG01-02, đường Trần Hưng Đạo, khóm 1, P. 2, TP. Sóc Trăng, Tỉnh Sóc Trăng",True,Sóc Trăng,Sóc Trăng,9.59675778819815,105.970869526338
CDM Techcombank Mê Linh,"Thôn Yên Nhân, X. Tiền Phong, H. Mê Linh, TP. Hà Nội",True,Mê Linh,Hà Nội,21.1500920080085,105.757300627483
CDM Techcombank Phủ Lỗ,"Tầng 1 ngôi nhà, đường số 2, X. Phủ Lỗ, H. Sóc Sơn, TP. Hà Nội",True,Sóc Sơn,Hà Nội,21.1979742175892,105.838049450872
CDM Techcombank Sóc Sơn,"Số 5 khu A lô II-7 Khu đấu giá quyền sử dụng đất, thị trấn Sóc Sơn, H. Sóc Sơn, TP. Hà Nội",True,Sóc Sơn,Hà Nội,21.2607788613104,105.849713997321
CDM Techcombank Đông Anh 1,"143-145 khối 1B, thị trấn Đông Anh, H. Đông Anh, TP. Hà Nội",True,Đông Anh,Hà Nội,21.13667,105.84437
CDM Techcombank Đông Anh 2,"143-145 khối 1B, thị trấn Đông Anh, H. Đông Anh, TP. Hà Nội",True,Đông Anh,Hà Nội,21.13667,105.84437
CDM Techcombank Winmart+ Khu 7 Phố Yên,"Khu 7, thôn Phố Yên, X. Tiền Phong, H. Mê Linh, TP. Hà Nội",True,Mê Linh,Hà Nội,21.1528,105.76
CDM Techcombank Lê Hồng Phong,"Lô 22B KĐT mới Ngã 5 sân bay Cát Bi, P. Đông Khê, Q. Ngô Quyền, TP. Hải Phòng",True,Ngô Quyền,Hải Phòng,20.847947425355,106.705920544659
CDM Techcombank Ngô Quyền,"SB.01 KĐT Vinhomes Marina, P. Vĩnh Niệm, Q. Lê Chân, TP. Hải Phòng",True,Lê Chân,Hải Phòng,20.821778,106.6923056
CDM Techcombank Văn Cao,"195 Văn Cao, P. Đằng Giang, Q. Ngô Quyền, TP. Hải Phòng",True,Ngô Quyền,Hải Phòng,20.8356597086265,106.701507080123
CDM Techcombank Tô Hiệu,"71 Tô Hiệu, P. Trại Cau, Q. Lê Chân, TP. Hải Phòng",True,Lê Chân,Hải Phòng,20.8517000549616,106.68390404452
CDM Techcombank Thủy Nguyên,"104 Bạch Đằng, thị trấn Núi Đèo, H. Thủy Nguyên, TP. Hải Phòng",True,Thủy Nguyên,Hải Phòng,20.9199916775281,106.678862279421
CDM Techcombank Chợ Đôn,"290-292 Trần Nguyên Hãn, P. Niệm Nghĩa, Q. Lê Chân, TP. Hải Phòng",True,Lê Chân,Hải Phòng,20.8424098469352,106.668037080123
CDM Techcombank Hải Phòng 2,"5 Lý Tự Trọng, P. Hoàng Văn Thụ, Q. Hồng Bàng, TP. Hải Phòng",True,Hồng Bàng,Hải Phòng,20.8608213568941,106.686526242319
CDM Techcombank Hồng Bàng,"BH01-36, KĐT Vinhomes Imperia Hải Phòng, P. Thượng Lý, Q. Hồng Bàng, TP. Hải Phòng",True,Hồng Bàng,Hải Phòng,20.86309189367,106.662131522036
CDM Techcombank Kiến An,"216 Trần Thành Ngọ, P. Trần Thành Ngọ, Q. Kiến An, TP. Hải Phòng",True,Kiến An,Hải Phòng,20.8091098358759,106.625979995463
CDM Techcombank Winmart+ Kênh Dương,"54 Kênh Dương, P. Kênh Dương, Q. Lê Chân, TP. Hải Phòng",True,Lê Chân,Hải Phòng,20.20834772,106.106691338
CDM Techcombank Winmart+ Thiên Lôi,"449 Thiên Lôi, P. Vĩnh Niệm, Q. Lê Chân, TP. Hải Phòng",True,Lê Chân,Hải Phòng,20.20830431,106.106678322
CDM Techcombank Hạ Long,"599 Hạ Long, KDC du lịch Đông Hùng Thắng, P. Bãi Cháy, TP. Hạ Long, Tỉnh Quảng Ninh",True,Hạ Long,Quảng Ninh,20.97795,107.01007
CDM Techcombank Hà Nam,"Đường Châu Cầu, P. Minh Khai, TP. Phủ Lý, Tỉnh Hà Nam",True,Phủ Lý,Hà Nam,20.543479887901,105.917495608951
