Name,Address,Phone,Latitude,Longitude
Hội Sở,"25 Bis Nguyễn Thị Minh Khai, Quận 1, Thành Phố Hồ Chí Minh, Việt Nam",Tel: (028)62915916  - Fax: (028)62915900,10.783459,106.69919
CN Sài Gòn,"22-24-26 Pasteur, Phường Nguyễn Thái Bình, Quận 1, Thành Phố Hồ Chí Minh, Việt Nam",Tel: (028) 38 299 344  - Fax:  (028) 38 299 371,10.770164,106.70065
PGD Nam Kỳ Khởi Nghĩa,"215 Nam Kỳ Khởi Nghĩa, Phường 7, Quận 3, Thành Phố Hồ Chí Minh, Việt Nam",Tel: (028) 39 322 736  - Fax: (028) 39 322 746,10.78796,106.685455
PGD Huỳnh Tấn Phát,"705 Huỳnh Tấn Phát, P. Phú Thuận, Quận 7, Thành Phố Hồ Chí Minh, Việt Nam",Tel: (028) 37 738 648  - Fax: (028) 37 738 646,10.736632,106.73065
PGD Phú Mỹ Hưng,"1485 Nguyễn Văn Linh, Khu Phố Mỹ Toàn 1, Phường Tân Phong, Quận 7, Thành Phố Hồ Chí Minh, Việt Nam",Tel: (028) 541 22 733  - Fax: (028) 541 22 735,10.728284,106.70206
PGD Khánh Hội,"173 Đường Khánh Hội, phường 3, Quận 4, Thành Phố Hồ Chí Minh, Việt Nam",Tel: (028) 39435 870  - Fax: (028) 39435 873,10.757228,106.70019
PGD Bình Điền (Công Lý cũ),"Sảnh văn phòng chợ Bình Điền, Đại lộ Nguyễn Văn Linh, Khu Phố 6, Phường 7, Quận 8, Thành Phố Hồ Chí Minh, Việt Nam",Tel: (028) 38424 432  - Fax: (028) 38424 432,10.699434,106.60687
CN Phú Nhuận,"174 Phan Đăng Lưu, Phường 3, Quận Phú Nhuận, Thành Phố Hồ Chí Minh, Việt Nam",Tel: (0283) 628 6869  - Fax: (0283) 628 6869,10.800754,106.681694
PGD Tân Định,"156 đường Trần Quang Khải, Phường Tân Định, Quận 1, Thành Phố Hồ Chí Minh, Việt Nam",Tel: (028)38209485  - Fax: (028)38209480,10.792155,106.69042
PGD Lê Quang Định,"472 Đường Lê Quang Định, Phường 11, Quận Bình Thạnh, Thành Phố Hồ Chí Minh, Việt Nam",Tel: (028) 35501 101  - Fax: (028) 35501 104,10.813779,106.68986
PGD Thanh Đa,"667 Xô Viết Nghệ Tĩnh, Phường 26, Quận Bình Thạnh, Thành phố Hồ Chí Minh",Tel: (028) 3899 8153,10.811993,106.7147
CN Lãnh Binh Thăng,"449-451 Lý Thường Kiệt, phường 8, Quận Tân Bình, Thành Phố Hồ Chí Minh, Việt Nam",Tel: (028)3868 7770  - Fax: (028)3868 7773,10.785846,106.65383
PGD Lạc Long Quân,"593 Bình Thới, Phường 10, Quận 11, Thành Phố Hồ Chí Minh, Việt Nam",Tel: (028)39637053  - Fax: (028)39637054,10.762844,106.6408
PGD Minh Phụng,"169-171 Minh Phụng, Phường 9, Quận 6, Thành Phố Hồ Chí Minh, Việt Nam",Tel: (028) 39699 880  - Fax: (028) 39699 882,10.752737,106.64279
PGD Hòa Hưng,"459 Sư Vạn Hạnh, Phường 12, Quận 10, Thành Phố Hồ Chí Minh, Việt Nam",Tel: (028) 3868 3230  - Fax: (028) 3868 3228,10.773626,106.66705
CN Nguyễn Trãi,"207-209 Nguyễn Trãi, Phường 2, Quận 5, Thành Phố Hồ Chí Minh, Việt Nam",Tel: (08)38363522  - Fax: (08)39234679,10.756722,106.67749
PGD Ngô Gia Tự,"187 Ngô Gia Tự, phường 2, Quận 10, Thành phố Hồ Chí Minh, Việt Nam (Tầng 1, tầng 2, tầng 3, tầng 4)",Tel: (028) 3927 3606  - Fax: (028) 3927 3605,10.76455,106.6722
PGD Nam Sài Gòn,"930A và 930B đường Tạ Quang Bửu, khu dân cư Bùi Minh Trực III, Phường 5, Quận 8, Thành phố Hồ Chí Minh.",Tel: (028) 73083 338,10.734366,106.65791
PGD Nguyễn Văn Cừ,"118-120, Đường Nguyễn Văn Cừ, Phường Nguyễn Cư Trinh, Quận 1, Thành Phố Hồ Chí Minh, Việt Nam",Tel: (028) 39 208 525  - Fax: (028)39 208 524,10.758597,106.68449
PGD Cây Gõ (PGD Kinh Dương Vương cũ),"1172C Đường 3 tháng 2, Phường 12, Quận 11, Thành Phố Hồ Chí Minh, Việt Nam",Tel: (028) 54 062 962  - Fax: (028) 54 062 961,10.759278,106.65126
CN Vạn Hạnh,"374-374B Võ Văn Tần, Phường 5, Quận 3, Thành Phố Hồ Chí Minh, Việt Nam",Tel: (028)38181222  - Fax: (08)38683040,10.770613,106.6845
PGD Tây Sài Gòn (Phú Lâm cũ),"258 đường Vành Đai Trong, Phường Bình Trị Đông B, Quận Bình Tân, Thành Phố Hồ Chí Minh, Việt Nam",Tel: (08)37522054  - Fax: (08)37520055,10.753148,106.61555
PGD Nguyễn Hữu Thọ (Bình Hưng cũ),"Số 45, Khu Dân cư Phú Long, Phân Khu số 5, đường Nguyễn Hữu Thọ, xã Phước Kiển, huyện Nhà Bè, TP.HCM",Tel: (028) 36 291 199,10.731064,106.65394
PGD Thái Sơn,"222 Nguyễn Thái Sơn, Phường 4, Quận Gò Vấp, Thành Phố Hồ Chí Minh, Việt Nam",Tel: (028) 39940 295  - Fax: (028) 39940 296,10.820153,106.683205
PGD Lê Văn Sỹ,"185 B-C Đường Lê Văn Sỹ, Phường 14, Quận Phú Nhuận, Thành Phố Hồ Chí Minh, Việt Nam",Tel: (028) 39918 984  - Fax: (028) 39918 983,10.792511,106.67038
CN Cộng Hòa,"18E Cộng Hòa, Phường 04, Quận Tân Bình, Thành Phố Hồ Chí Minh, Việt Nam",Tel: (028)36298899  - Fax: (028)38123749,10.801529,106.654045
PGD Nguyễn Oanh,"255 A26 Nguyễn Văn Lượng, Phường 10, Quận Gò Vấp, Thành Phố Hồ Chí Minh, Việt Nam",Tel: (08)39897270  - Fax: (08)39897271,10.83872,106.67205
PGD Tân Phú,"21A Gò Dầu, Phường Tân Quý, Quận Tân Phú , Thành Phố Hồ Chí Minh, Việt Nam",Tel: (028) 38473 270  - Fax: (028) 38473 271,10.795402,106.628494
PGD Âu Cơ,"516 Âu Cơ, Phường 10, Quận Tân Bình, Thành Phố Hồ Chí Minh, Việt Nam",Tel: (0283) 975 3565  - Fax: (0283) 975 3565,10.780189,106.64209
PGD Duy Tân,"69 Phạm Ngọc Thạch, Phường 6, Quận 3, Thành Phố Hồ Chí Minh, Việt Nam",Tel: (028)38202850  - Fax: (028)38202845,10.786451,106.691414
PGD Nguyễn Văn Quá (Trường Chinh cũ),"Số 410A đường Nguyễn Văn Quá, phường Đông Hưng Thuận, quận 12, TP.HCM",Tel: (028) 35 921 838  - Fax: (028) 35921 839,10.837358,106.629364
CN TP.Hồ Chí Minh,"159 A-B Lê Đại Hành, Phường 13, Quận 11, Thành Phố Hồ Chí Minh, Việt Nam",Tel: (028) 39626 779  - Fax: (028) 39753 641,10.762784,106.65652
PGD Phan Văn Trị (Phú Thọ cũ),"Số 561 Phan Văn Trị, phường 5, quận Gò Vấp, Thành Phố Hồ Chí Minh, Việt Nam",Tel: (028) 3985 6779  - Fax: (028) 3985 6780,10.825624,106.69
PGD Nguyễn Ảnh Thủ,"2C, 12C, 14C, 1515A Nguyễn Ảnh Thủ, Khu Phố 3, Phường. Trung Mỹ Tây, Quận 12, Thành Phố Hồ Chí Minh, Việt Nam",Tel: (0283) 718 6348  - Fax: (028) 37186 350,10.856638,106.60818
PGD Nguyễn Sơn,"238 Nguyễn Sơn, Phường Phú Thọ Hòa, Quận Tân Phú, Thành Phố Hồ Chí Minh, Việt Nam",Tel: (028) 39721 950  - Fax: (028) 39721 949,10.782928,106.62462
PGD Lê Trọng Tấn,"445-445A Lê Trọng Tấn, P. Sơn Kỳ, Quận Tân Phú, Thành Phố Hồ Chí Minh, Việt Nam",Tel: (028) 73 069939  - Fax: (028) 38 161850,10.807507,106.6225
PGD TP. Thủ Đức,"199 Đường Lê Văn Việt, Phường Hiệp Phú, TP. Thủ Đức, TP.HCM",Tel: (028) 3736 0886,10.844072,106.78243
PGD Nguyễn Duy Trinh,"201 Nguyễn Duy Trinh, Phường Bình Trưng Tây, TP.Thủ Đức, Thành Phố Hồ Chí Minh, Việt Nam",Tel: (028) 7302 8998  - Fax:  (028) 62 807 021,10.788371,106.76344
PGD Linh Đông,"226 Tô Ngọc Vân, Phường Linh Đông, Thành phố Thủ Đức, Thành Phố Hồ Chí Minh, Việt Nam",Tel: (028) 37206 401  - Fax: (028) 37206 403,10.857462,106.74734
PGD Thảo Điền (Cát Lái cũ),"Số 08 đường Nguyễn Văn Hưởng , Phường Thảo Điền, TP. Thủ Đức, TP. Hồ Chí Minh (một phần tầng trệt, 1 phần tầng 1, toàn bộ tầng 2).",Tel: (0287) 300 3696  - Fax: (0287) 300 3696,10.805925,106.7259
PGD Phước Long,"274 - 276 Đỗ Xuân Hợp, Phường Phước Long A, Thành phố Thủ Đức (Q.9 cũ), Hồ Chí Minh, Việt Nam",Tel: (028) 3629 6699  - Fax: (028) 6282 6317,10.812617,106.77573
PGD Đông Sài Gòn,"280 đường Trần Não, Khu phố 2,  Phường An Khánh, TP. Thủ Đức, Thành phố Hồ Chí Minh",Tel: (028) 3740 7047  - Fax: (028) 3740 2976,10.796132,106.73413
CN Nguyễn Đình Chiểu,"Số 58 Nguyễn Đình Chiểu, P. Đa Kao, Quận 1, Thành Phố Hồ Chí Minh, Việt Nam",Tel: (028) 6.2666.111  - Fax: (028) 6.2918.302,10.789145,106.6999
CN Hàng Xanh,"M03, M04, tầng lửng, văn phòng số 101, 102, 103, 104, tòa nhà Broadcast Điện Biên Phủ, Phường 15, Quận Bình Thạnh, Thành Phố Hồ Chí Minh, Việt Nam",Tel: (028) 35128 644  - Fax: (028) 35123 296,10.795882,106.700966
PGD Gò Vấp,"871 Quang Trung, Phường 12, Quận Gò Vấp, Thành Phố Hồ Chí Minh, Việt Nam",Tel: (028) 39872 826  - Fax: (028) 38312 300,10.843727,106.63884
PGD Củ Chi (Bình Chiểu cũ),"Số 35-37, tỉnh lộ 8, Khu phố 1, thị trấn Củ Chi, huyên Củ Chi, Thành phố Hồ Chí Minh",Tel: (028) 73 060 679  - Fax: (028) 54492 492,10.970484,106.48939
PGD Nguyễn Thị Định,"519 Nguyễn Thị Định, Khu Phố 1, Phường Cát Lái, TP. Thủ Đức, Thành Phố Hồ Chí Minh, Việt Nam",Tel: (0285) 402 7812  - Fax: (0285) 402 7812,10.7789,106.76346
PGD Hoàng Diệu,"1 Đinh Lễ, Phường 12, Quận 4, Thành Phố Hồ Chí Minh, Việt Nam",Tel: (028) 73088 688  - Fax: (028) 39435 681,10.757222,106.70019
PGD Bình Thọ,"100B Đặng Văn Bi, Phường Bình Thọ,  Thành phố Thủ Đức (Q. Thủ Đức cũ),  Thành phố Hồ Chí Minh",Tel: (028) 7306 0689  - Fax: (028) 5409 4257,10.843991,106.76257
PGD Bình Thạnh,"Tòa nhà HT Building, Số 132-134 Đường D2, Phường 25, Quận Bình Thạnh, Thành Phố Hồ Chí Minh, Việt Nam",Tel: (0283) 512 5231  - Fax: (0283) 512 5231,10.804104,106.71592
CN Gia Định,"Tòa nhà Hà Phan 1119 Trần hưng Đạo, Phường 5, Quận 5, Thành Phố Hồ Chí Minh, Việt Nam",Tel: (0283) 628 2868  - Fax: (0283) 628 2868,10.753252,106.67095
PGD Khu Nam,"Số 39 đường 9A Khu dân cư Trung Sơn, Xã Bình Hưng, Huyện Bình Chánh, Thành Phố Hồ Chí Minh, Việt Nam",Tel: (028) 7302 6869,10.738353,106.689766
PGD Chợ Lớn (PGD Bình Phú cũ),"454-456 Hồng Bàng, phường 16, Quận 11, Thành phố Hồ Chí Minh, Việt Nam",Tel: (028) 36 283 848  - Fax: (028) 54 342 310,10.75389,106.64866
PGD Tân Bình,"151 - 153 đường Nguyễn Hồng Đào, Phường 14, Quận Tân Bình, Thành Phố Hồ Chí Minh, Việt Nam",Tel: (0283) 629 4499  - Fax: (0283) 629 4499,10.795151,106.64247
PGD Tạ Uyên,"742 -744 Nguyễn Chí Thanh, Phường 4, Quận 11, Thành Phố Hồ Chí Minh, Việt Nam",Tel: (0285) 405 2052  - Fax: (0285) 405 2052,10.757363,106.65566
PGD Trương Định,"179 Nguyễn Cư Trinh, Phường Nguyễn Cư Trinh, Quận 1, Thành Phố Hồ Chí Minh, Việt Nam",Tel: (028) 38 385 132  - Fax: (028) 38 385 135,10.75861,106.68449
PGD Trường Sơn (Bình Thới cũ),"Tòa nhà Thép Toàn Thắng, Số 8A-10A, đường Trường Sơn, Phường 3, Quận Tân Bình, Thành Phố Hồ Chí Minh, Việt Nam",Tel: (0283) 975 5765  - Fax: (0283) 975 5765,10.807456,106.66494
CN Long An,"112-114-116 đường Nguyễn Văn Tiếp, khu phố 3, thị trấn Bến Lức, huyện Bến Lức, tỉnh Long An, Việt Nam",Tel: (0272) 363 0336  - Fax: (0272) 363 0336,10.640715,106.48376
PGD Long Hậu,"Số MB 101, TTDV KCN Long Hậu, đường Long Hậu-Hiệp Phước, Xã Long Hậu, Huyện Cần Giuộc, Tỉnh Long An, Việt Nam",Tel: (﻿0283) 873 4245  - Fax: (028) 3873 4246,10.638036,106.713356
PGD Tầm Vu,"Số 262 đường Đỗ Tường Phong, Khóm 1, thị trấn Tầm Vu, Huyện Châu Thành , Tỉnh Long An, Việt Nam",Tel: (0272) 390 8188  - Fax: (0272) 390 8188,10.44305,106.4678
PGD Đức Hòa,"Số 162C đường tỉnh 8241, khu Phố 3, Thị trấn Đức Hòa, Huyện Đức Hòa, Tỉnh Long An, Việt Nam",Tel: (0272) 390 8488  - Fax: (0272) 363 9395,10.823413,106.45686
CN Cần Thơ,"162-162b Đường Trần Hưng Đạo, phường An Nghiệp, quận Ninh Kiều, thành phố Cần Thơ, Việt Nam",Tel: (0710)3734250  - Fax: (0710)3734251,10.036609,105.77576
PGD Thốt Nốt (PGD Tân An cũ),"262 Quốc lộ 91, phường Thốt Nốt, quận Thốt Nốt, thành phố Cần Thơ, Việt Nam",Tel: (0292) 361 2931  - Fax: (0292) 361 2930,10.270354,105.53231
PGD Ninh Kiều,"Số 81A-81B-83 Nguyễn Trãi, P. Tân An, Quận Ninh Kiều, Thành phố Cần Thơ",Tel: (0292)3783041  - Fax: (0292)3783042,10.040269,105.78499
PGD Ô Môn,"Khu vực 4, đường 26 tháng 3, phường Châu Văn Liêm, Quận Ô Môn, Thành Phố Cần Thơ, Việt Nam",Tel: (0292) 390 8866  - Fax: (0292) 390 8866,10.11022,105.619865
CN An Giang,"217 Lý Thái Tổ, tổ 5, nhóm 7, Phường Mỹ Long, Thành Phố Long Xuyên, Tỉnh An Giang, Việt Nam",Tel: (0296) 390 8088  - Fax: (0296) 394 9588,10.377893,105.440094
PGD Châu Đốc,"163-165 Lê Lợi, tổ 17, Khóm Châu Long, Phường Châu Phú B, Thành Phố Châu Đốc, Tỉnh An Giang, Việt Nam",Tel: (0296) 356 2889  - Fax: (0296) 356 2888,10.703175,105.13217
PGD Châu Phú,"Số 366 Quốc lộ 91, Tổ 12, ấp Bình Chánh, xã Bình Long, Huyện Châu Phú, Tỉnh An Giang, Việt Nam",Tel: (0296) 730 6868  - Fax: (0296) 367 6868,10.56809,105.242226
PGD Thoại Sơn,"Số 407 đường Nguyễn Huệ, Thị trấn Núi Sập, Huyện Thoại Sơn, Tỉnh An Giang, Việt Nam",Tel: (0296) 730 0088  - Fax: (0296) 373 8039,10.26736,105.26701
CN Bến Tre,"Số 72B1, Đại Lộ Đồng Khởi, KP4, phường Phú Khương, Thành Phố Bến Tre, Tỉnh Bến Tre, Việt Nam",Tel: (0275) 3696 888  - Fax: (0275) 3696 898,10.250368,106.37337
PGD Ba Tri,"Số 34 đường 19/5, Khu Phố 2, Thị trấn Ba Tri, Tỉnh Bến Tre",Tel: (0275) 3908 858  - Fax: (0275) 3761 762,10.0463,106.592384
PGD Mỏ Cày Bắc,"Số 67A, tỉnh lộ 882, ấp Phước Hậu, Xã Phước Mỹ Trung, Huyện Mỏ Cày Bắc, Tỉnh Bến Tre, Việt Nam",Tel: (0275) 3908 758  - Fax: (0275) 3839 090,10.196537,106.27088
CN Tiền Giang,"Số 262 , đường Ấp Bắc, Phường 5, TP. Mỹ Tho, tỉnh Tiền Giang",Tel: (0273) 390 8668  - Fax: (0273) 386 2268,10.369167,106.35294
CN Sóc Trăng,"179-179A Trần Hưng Đạo, Phường 3, Thành Phố Sóc Trăng, Tỉnh Sóc Trăng, Việt Nam",Tel: (0299) 390 9090  - Fax: (0299) 390 9090,9.594821,105.9679
PGD Châu Thành,"Số 327 ấp Trà Quýt A, Thị Trấn Châu Thành, Huyện Châu Thành, Tỉnh Sóc Trăng, Việt Nam",Tel: (0299) 3908 088  - Fax: (0299) 3858 588,9.676042,105.90125
PGD  Trần Đề,"Số 240 đường Nam Sông Hậu, ấp Đầu Gồng, thị trấn Trần Đề, Huyện Trần Đề, Tỉnh Sóc Trăng, Việt Nam",Tel: (0299) 390 9919  - Fax: (0299) 390 9919,9.313468,105.93803
PGD  Ngã Năm,"Số 27-29 đường Mai Thanh Thế, Khóm 1, Phường 1, Thị Xã Ngã Năm, Tỉnh Sóc Trăng, Việt Nam",Tel: (0299) 390 9939  - Fax: (0299) 390 9939,9.564385,105.59756
CN Đồng Tháp,"62-64 Lý Thường Kiệt, Phường 2, Thành Phố Cao Lãnh, Tỉnh Đồng Tháp, Việt Nam",Tel: (0277) 6250 505  - Fax: (0277) 6250 404,10.455897,105.635254
PGD Sa Đéc,"A8-10 đường Hùng Vương, Khóm 1, Phường 2, Thành Phố Sa Đéc, Tỉnh Đồng Tháp, Việt Nam",Tel: (0277) 3908 068  - Fax: (0277) 3918 068,10.290788,105.76717
PGD Tháp Mười,"Số 118 đường Hùng Vương, Khóm 4, Thị Trấn Mỹ An, Huyện Tháp Mười, Tỉnh Đồng Tháp, Việt Nam",Tel: (0277) 3908 966  - Fax: (0277) 6651 069,10.518541,105.843834
PGD Hồng Ngự,"Số 85-87 đường Lê Hồng Phong, Phường An Thạnh, Thị xã Hồng Ngự, Tỉnh Đồng Tháp, Việt Nam",Tel: (0277) 3908 908  - Fax: (0277) 6561 089,10.808858,105.34358
CN Kiên Giang,"Lô A7-63+64 Ba Tháng Hai, Phường Vĩnh Bảo, Thành Phố Rạch Giá, Tỉnh Kiên Giang, Việt Nam",Tel: (0297) 366 8686  - Fax: (0297) 366 8687,10.001719,105.08097
PGD An Biên (Kiên Lương cũ),"Số 58B, tổ 1, Khu phố 5, thị trấn Thứ Ba, Huyện An Biên, Tỉnh Kiên Giang, Việt Nam",Tel: (0297) 390 9009  - Fax: (0297) 388 2868,9.823745,105.07199
PGD Minh Lương (Rạch Sỏi cũ),"Số 589, đường Quốc lộ 61, KP Minh Phú, TT Minh Lương, Huyện Châu Thành, Tỉnh Kiên Giang, Việt Nam",Tel: (0297) 390 9333  - Fax: (0297) 361 5368,9.907729,105.156944
PGD Phú Quốc,"Số 50, đường 30/4, khu phố 1, phường Dương Đông, TP Phú Quốc, Tỉnh Kiên Giang, Việt Nam",Tel: (0297) 730 6368  - Fax: (0297) 368 1819,10.213949,103.963295
CN Vĩnh Long,"Số 138 Phạm Thái Bường, Khóm 1, Phường 4, Thành Phố Vĩnh Long, Tỉnh Vĩnh Long, Việt Nam",Tel: (0270) 383 8886  - Fax: (0270) 383 8881,10.244344,105.97587
PGD Vũng Liêm,"Số 160N, Đường Nam Kỳ Khởi Nghĩa, Khóm 2, Thị Trấn Vũng Liêm, Huyện Vũng Liêm, Tỉnh Vĩnh Long, Việt Nam",Tel: (0270) 390 8808  - Fax: (0270) 390 8808,10.095531,106.18565
PGD Tam Bình (Mỹ Thuận cũ),"Số 24 đường Phan Văn Đáng, Khóm 1, Thị trấn Tam Bình, Huyện Tam Bình, Tỉnh Vĩnh Long, Việt Nam",Tel: (0270) 390 8668  - Fax: (0270) 371 4888,10.047831,105.99924
CN Cà Mau,"138A -138B Ngô Quyền, Phường 9, Thành Phố Cà Mau, Tỉnh Cà Mau, Việt Nam",Tel: (0290) 3641 999  - Fax: (0290) 3641 997,9.183104,105.1414
PGD Minh Hải (Sông Đốc cũ),"Số 66 đường Trần Hưng Đạo, phường 5, Thành Phố Cà Mau, Tỉnh Cà Mau",Tel: (0290) 3908 908  - Fax: (0290) 3912 666,9.18005,105.15718
PGD Tắc  Vân (Minh Hải cũ),"Số 666 đường Quốc lộ 1A, xã Tắc Vân, Thành Phố Cà Mau, Tỉnh Cà Mau",Tel: (0290) 730 5599  - Fax: (0290) 369 9090,9.17451,105.27762
PGD Năm Căn,"Số 221 đường Hùng Vương, khóm 7, thị trấn Năm Căn, Huyện Năm Căn, Tỉnh Cà Mau",Tel: (0290) 390 8008  - Fax: (0290) 390 8008,8.759327,104.99349
CN Bình Dương,"558 Đại Lộ Bình Dương, Thành Phố Thủ Dầu Một, Tỉnh Bình Dương, Việt Nam",Tel: (0650)3872861  - Fax: (0650)3872860,10.992393,106.65903
PGD Dĩ An,"90 đường Dĩ An-Truông Tre, Khu Phố Bình Minh 2, Phường Dĩ An, Huyện Dĩ An, Tỉnh Bình Dương, Việt Nam",Tel: (0274) 379 6077  - Fax: (0274) 379 6078,10.895549,106.76107
PGD Bến Cát (Sở Sao cũ),"Lô C, Ô số 1, KDC Mỹ Phước 4 - Khu A, phường Mỹ Phước, thị xã Bến Cát, tỉnh Bình Dương, Việt Nam",Tel: (0274)7303366  - Fax: (0274)3554546,11.148853,106.61145
PGD Thủ Dầu Một,"Lô B, ô 1 và ô 2, KP chợ Đinh Bộ Lĩnh, Phường Phú Cường, Thành Phố Thủ Dầu Một, Tỉnh Bình Dương, Việt Nam",Tel:  (0274) 387 8090  - Fax: (0274) 387 8086,10.97875,106.648674
PGD Bình An,"Thửa đất số 4011, tờ bản đồ số 2BA.3, số vào sổ cấp GNN:CT03772, KP Nội Hóa 2, Phường Bình An, Thị Xã Dĩ An, Tỉnh Bình Dương, Việt Nam",Tel: (0274) 377 1933,10.90557,106.79419
PGD Bàu Bàng (Cổng Xanh-Phú Cường cũ),"Đường D1-5A tổ 14, ấp Đồng Sổ, Xã Lai Uyên, Huyện Bàu Bàng, Tỉnh Bình Dương, Việt Nam",Tel: (0274) 222 2333  - Fax: (0274) 222 2332,11.239189,106.63568
PGD Lái Thiêu,"Số 66 đường Nguyễn Văn Tiết, khu Phố Đông Tư, phường Lái Thiêu, Thị Xã Thuận An, Tỉnh Bình Dương, Việt Nam",Tel: (0274) 730 1188,10.990841,106.65454
CN Đồng Nai,"208D Phạm Văn Thuận, Phường Tân Tiến, Thành phố Biên Hòa, Tỉnh Đồng Nai, Việt Nam",Tel: (0251) 391 8371  - Fax: (0251) 391 8370,10.958014,106.838936
PGD Thanh Bình,"L1-3, L1-4 KDC Phú Gia, đường Nguyễn Khuyến, Thành Phố Biên Hòa, Tỉnh Ðồng Nai, Việt Nam",Tel: (0251) 394 0751  - Fax: (0251) 394 0750,10.949201,106.82048
PGD Amata (Long Bình Tân cũ),"50-52 Ðồng Khởi, KP.4, P. Tân Hiệp, Thành Phố Biên Hòa, Tỉnh Ðồng Nai, Việt Nam",Tel: (0251) 625 1009  - Fax: (0251) 625 1099,10.952693,106.870316
PGD Tân Biên,"388, Đường Nguyễn Ái Quốc, Khu Phố 9, Phường Hố Nai, Thành Phố Biên Hòa, Tỉnh Ðồng Nai, Việt Nam",Tel: (0251)3882550  - Fax: (0251)3882551,10.9726,106.8835
PGD Tân Hiệp,"433-435 Đường Đồng Khởi, Tân Hiệp, Thành Phố Biên Hòa, Tỉnh Ðồng Nai, Việt Nam",Tel: (0251) 887 1422  - Fax: (0251) 887 1272,10.965224,106.85417
PGD Hố Nai,"A3-A8, quốc lộ 1A, khu phố 5B, phường Tân Biên, Thành phố Biên Hòa, Tỉnh Đồng Nai, Việt Nam",Tel: (0251) 388 1480  - Fax: (0251) 388 3598,10.967562,106.888405
PGD Tam Hiệp,"151/2 KP4, Tam Hiệp, Thành Phố Biên Hòa, Tỉnh Đồng Nai, Việt Nam",Tel: (0251) 882 2502  - Fax: (0251) 882 2501,10.950617,106.83435
PGD Long Khánh (Xuân Hòa cũ),"520 Hùng Vương, Phường Xuân Hòa, Thị xã Long Khánh, Tỉnh Đồng Nai, Việt Nam",Tel: (0251) 387 7917  - Fax:  (0251) 378 2428,10.92543,107.240746
PGD Trảng Bom,"B4, B5 - Khu nhà ở Bắc, Huyện Trảng Bom, Tỉnh Đồng Nai, Việt Nam",Tel: (0251) 367 5133  - Fax: (0251) 367 5129,10.951541,107.01262
PGD Quang Vinh,"19/1 ấp Đồng Nai, Xã Hóa An, Thành Phố Biên Hòa, Tỉnh Ðồng Nai, Việt Nam",Tel: (0251) 395 7166  - Fax: (0251) 385 9624,10.938856,106.81205
CN SGD Đồng Nai,"294-296 Khu Phố 1, Cách Mạng Tháng Tám, Quang Vinh, Thành Phố Biên Hòa, Tỉnh Ðồng Nai, Việt Nam",Tel: (0251) 384 0376  - Fax: (0251) 394 2524,10.948364,106.815216
PGD Quyết Thắng,"Tầng trệt, Block B, Cao ốc Pegasus Plaza, số 53-55, đường Võ Thị Sáu, Phường Quyết Thắng, Thành Phố Biên Hòa, Tỉnh Ðồng Nai, Việt Nam",Tel: ( 0251) 384 0377  - Fax: (0251) 394 3860,10.946824,106.82515
PGD Bửu Long,"3/6C, KP2, Bửu Long, Thành Phố Biên Hòa, Tỉnh Ðồng Nai, Việt Nam",Tel: (0251) 885 0902  - Fax: (0251) 885 0906,10.954618,106.79631
PGD Tân Phong,"348C Nguyễn Ái Quốc, phường Tân Tiến, Thành Phố Biên Hòa, Tỉnh Đồng Nai",Tel: (0251) 394 0592  - Fax: (0251) 394 0591,10.963081,106.83867
PGD Tân Mai,"1/20 tổ 3, KP7, Tân Mai, Thành Phố Biên Hòa, Tỉnh Ðồng Nai, Việt Nam",Tel: (0251) 882 2502  - Fax: (0251) 882 2501,10.954621,106.852234
PGD Bình Sơn (Đồng Khởi cũ),"Đường DT769, ấp 8, xã Bình Sơn, Huyện Long Thành, Tỉnh Ðồng Nai, Việt Nam",Tel: (0251) 394 3132  - Fax: (0251) 394 3132,10.795231,107.00935
PGD Thạnh Phú,"459A, tỉnh lộ 768, ấp 1, xã Thạnh Phú, Huyện Vĩnh Cửu, Tỉnh Đồng Nai, Việt Nam",Tel: (0251) 386 5950  - Fax: (0251) 386 5950,11.01158,106.84355
PGD Tân Hòa,"58/1 - 60/1 Quốc lộ 1A, khu phố 2, phường Tân Hòa, Thành Phố Biên Hòa,  Tỉnh Đồng Nai, Việt Nam",Tel: (0251) 825 3562  - Fax: (0251) 888 0413,10.968136,106.90568
PGD Vĩnh An,"Khu phố 5, thị trấn Vĩnh An, TT. Vĩnh An, Huyện Vĩnh Cửu,  Tỉnh Đồng Nai, Việt Nam",Tel: (0251) 3960 873  - Fax: (0251) 396 0873,11.086492,107.03361
PGD Tam Phước,"246B Long Đức 1, Tam Phước, Huyện Long Thành,  Tỉnh Đồng Nai, Việt Nam",Tel: (0251) 351 3266  - Fax: (0251) 3 513 131,10.853673,106.93009
PGD Long Bình,"351 Quốc lộ 51, khu phố 1, phường Long Bình Tân, Thành phố Biên Hòa, Tỉnh Đồng Nai, Việt Nam",Tel: (0251) 383 6184  - Fax: (0251) 383 6184,10.895478,106.87548
PGD Nhơn Trạch,"Số 357, đường Hùng Vương, Ấp 3, xã Hiệp Phước, Huyện Nhơn Trạch, Tỉnh Đồng Nai, Việt Nam",Tel: (0251) 354 8969  - Fax:  (0251) 354 8966,10.741976,106.94559
PGD Long Thành,"260 Lê Duẩn, Khu Văn Hải, Thị Trấn Long Thành, Huyện Long Thành, Tỉnh Đồng Nai, Việt Nam",Tel: (0251) 368 8799  - Fax: (0251) 354 6946,10.780006,106.95242
PGD Định Quán,"193 Quốc lộ 20, ấp Hiệp Quyết, TX Định Quán, Huyện Định Quán, Tỉnh Đồng Nai, Việt Nam",Tel: (0251) 361 6648  - Fax: (0251) 361 6648,11.201094,107.3573
PGD Phương Lâm,"2117 QL20 Ấp Phương Lâm 1, Xã Phú Lâm, Huyện Tân Phú, Tỉnh Đồng Nai, Việt Nam",Tel: (0251) 366 5252  - Fax: (0251) 366 5252,11.283781,107.486015
PGD Gia Ray,"362 Trần Phú, KP3, TT Gia Ray, Huyện Xuân Lộc, Tỉnh Đồng Nai, Việt Nam",Tel: (0251) 374 3755  - Fax: (0251) 374 3755,10.925987,107.40475
PGD Thống Nhất,"A2/063, quốc lộ 20, ấp Bắc Sơn, xã Quang Trung, Huyện Thống Nhất, tỉnh Đồng Nai",Tel: (0251) 377 8867  - Fax: (0251) 377 8867,11.02327,107.17579
PGD Sông Ray,"Ấp 5, xã Sông Ray, Huyện Cẩm Mỹ, Tỉnh Đồng Nai, Việt Nam",Tel: (0251) 371 5524  - Fax: (0251) 371 5524,10.762622,107.34586
PGD Phước Bình (Long Khánh cũ),"Tổ 5, ấp 2, QL51, Xã Phước Bình, Huyện Long Thành, Tỉnh Đồng Nai, Việt Nam",Tel: (0251) 354 3568,10.658859,107.037094
PGD Xuân An,"KP1, Hùng Vương, P. Xuân Bình, Thị Xã Long Khánh, Tỉnh Đồng Nai, Việt Nam",Tel: (0251) 364 7593  - Fax: (0251) 364 7593,10.937514,107.240166
PGD Đông Hòa,"Số 12 khu 6, ấp Bàu Cá, xã Trung Hòa, Huyện Trảng Bom, Tỉnh Đồng Nai, Việt Nam",Tel: (0251) 367 9956  - Fax: (0251) 367 9962,10.968794,107.03046
PGD Hố Nai 3,"Ấp Thanh Hóa Quốc Lộ 1A, Hố Nai 3, Huyện Trảng Bom, Tỉnh Đồng Nai, Việt Nam",Tel: (0251) 888 9000  - Fax: (0251) 888 9010,10.961719,106.94507
CN Vũng Tàu,"63 Lê Hồng Phong, phường 7, Thành Phố Vũng Tàu, Tỉnh Bà Rịa - Vũng Tàu, Việt Nam",Tel: (0254) 395 9799  - Fax: (064) 357 6758,10.356322,107.08321
PGD Lý Thường Kiệt,"179A-181A Nam Kỳ Khởi Nghĩa, Phường 3, Thành Phố Vũng Tàu, Tỉnh Bà Rịa - Vũng Tàu, Việt Nam",Tel: (254) 351 3363  - Fax: (064) 351 3362,10.3509,107.08609
PGD Phước Tĩnh,"Số 10 Tổ 2 Ấp Phước Lâm, Phường Phước Tỉnh, Huyện Long Điền, Tỉnh Bà Rịa Vũng Tàu, Việt Nam",Tel: (254)3673826  - Fax: (064)3673825,10.410483,107.19522
PGD Bà Rịa,"267 Cách Mạng Tháng 8, Phường Phước Hưng, Thị xã Bà Rịa, Tỉnh Bà Rịa Vũng Tàu, Việt Nam",Tel: (254)3673826  - Fax: (064)3673825,10.495198,107.17262
PGD Châu Đức,"số 307 Hùng Vương, KP 2, Thị Trấn Ngãi Giao,  Huyện Châu Đức, Tỉnh Bà Rịa - Vũng Tàu, Việt Nam",Tel: (254) 396 1120  - Fax: (064) 396 1121,10.648453,107.245895
PGD Rạch Dừa ( Lê Hồng Phong cũ),"Số 213-215 Đường 30/04 Phường Thống Nhất, Thành Phố Vũng Tàu, Tỉnh Bà Rịa - Vũng Tàu, Việt Nam",Tel: (254) 357 7079  - Fax: (064) 357 7078,10.399841,107.10983
CN Tây Ninh,"440, Đường 30 tháng 4. Khu phố 1, Phường 3, TP Tây Ninh, Tỉnh Tây Ninh",Tel: (0276) 392 2484  - Fax: (0276) 392 2485,11.3190975,106.099434
PGD Tân Châu,"Số 105-107 Trần Văn Trà, thị trấn Tân Châu, Huyện Tân Châu, tỉnh Tây Ninh, Việt Nam",Tel: (0276) 3920 8968  - Fax: (0276) 373 0979,11.554409,106.161896
PGD Xa Mát,"Số 12 Nguyễn Văn Linh, thị trấn Tân Biên, Huyện Tân Biên, Tỉnh Tây Ninh, Việt Nam",Tel: (0276) 3908 768  - Fax: (0276) 388 9900,11.542656,106.00512
PGD Trảng Bàng (Gò Dầu cũ),"Số 22 Quốc lộ 22, tổ 1, khu Phố Gia Huỳnh, thị trấn Trảng Bàng, Huyện Trảng Bàng , Tỉnh Tây Ninh, Việt Nam",Tel: (0276) 390 8989,11.031954,106.36263
CN Bình Phước,"Số 672 Quốc Lộ 14, Phường Tân Phú, Thị Xã Đồng Xoài, Tỉnh Bình Phước, Việt Nam",Tel: (0271) 388 3368  - Fax: (0271) 388 3367,11.535097,106.89232
PGD Thác Mơ,"Đường Nguyễn Tất Thành (ĐT 741 cũ), KP5, phường Long Phước, Thị Xã Phước Long, Tỉnh Bình Phước, Việt Nam",Tel: (0271) 377 9009  - Fax: (0271) 375 6009,11.820846,106.96025
CN Lâm Đồng,"1/23 Trần Phú, Phường 4, Thành Phố Đà Lạt, Tỉnh Lâm  Đồng, Việt Nam",Tel: 02633 551 100  - Fax: 02633 551 105,11.93635,108.431854
PGD Đức Trọng,"Số 546 Quốc lộ 20, tổ dân Phố 29, thị trấn Liên Nghĩa, Huyện Đức Trọng, Tỉnh Lâm Đồng, Việt Nam",Tel: (0263) 3808 568  - Fax: (0263) 2460 909,11.728433,108.37057
CN Đăk Lăk,"Số 10 Trần Hưng Đạo, phường Thắng Lợi, Thành Phố Buôn Ma Thuột, Tỉnh Đắk Lắk, Việt Nam",Tel: (0262) 382 1415  - Fax: (0262) 382 1515,12.685127,108.04949
PGD Krông Buk,"Thôn Tân Lập, xã Pơng Drang, Huyện Krông Buk, Tỉnh Đắk Lắk, Việt Nam",Tel: (0262) 372 6666  - Fax: (0262) 374 5555,12.952515,108.248024
PGD Cư Kuin,"Thôn 2, Xã Ea Ktur, Huyện Cư Kuin, Tỉnh Đắk Lắk, Việt Nam",Tel: (0262) 365 7272  - Fax: (0262) 365 7474,12.603142,108.136444
PGD Ea H'Leo,"Số 412 đường Giải Phóng,thị trấn Ea Drăng, Huyện Ea H'Leo, Tỉnh Đắk Lắk, Việt Nam",Tel: (0262) 3 908 001  - Fax: (0262) 3 527 666,13.19933,108.204956
CN Đăk Nông,"Số 354 Tôn Đức Thắng, phường Nghĩa Thành, Thị xã Gia Nghĩa, Tỉnh Đăk Nông, Việt Nam",Tel: (0261) 730 7979  - Fax: (0261) 354 6868,12.007284,107.68389
CN Gia Lai,"182 Nguyễn Tất Thành, phường Phù Đổng, TP. Pleiku , tỉnh Gia Lai, Việt Nam",Tel:  (0269) 3714 100  - Fax: (0269) 3714 105,13.97877,108.01193
PGD An Khê (Pleiku cũ),"Số 1063 Quang Trung, phường An Phú, thị xã An Khê, Tỉnh Gia Lai, Việt Nam",Tel: (0269) 390 8809  - Fax: (0269) 3857333,13.95421,108.66413
PGD Đak Đoa,"Số 297-299 Nguyễn Huệ, tổ dân Phố 3, thị trấn Đak Đoa, Huyện Đak Đoa, Tỉnh Gia Lai, Việt Nam",Tel: (0269) 390 8789  - Fax: (0269) 383 1579,13.995172,108.11467
PGD Chư Sê,"Số 807B Hùng Vương, thị trấn Chư Sê, Huyện Chư Sê, Tỉnh Gia Lai, Việt Nam",Tel: (0269) 730 3399  - Fax: (0269) 730 3399,13.694408,108.0772
CN Kon Tum,"556A Trần Phú, Phường Quyết Thắng, Thành Phố Kon Tum, Tỉnh Kon Tum, Việt Nam",Tel: (0260) 391 9242  - Fax: (0260) 391 9246,14.352423,108.00631
PGD Ngọc Hồi,"Số 843 Hùng Vương, tổ dân Phố 2, thị trấn Plei Kần, Huyện Ngọc Hồi, Tỉnh Kon Tum, Việt Nam",Tel: (0260) 393 2789  - Fax: (0260) 393 2788,14.705748,107.69628
CN Bình Thuận,"119 Trần Hưng Đạo, Phường Phú Thủy, Thành Phố Phan Thiết, Tỉnh Bình Thuận, Việt Nam",Tel: (0252) 3 823 299  - Fax: (0252) 3 824 333,10.937929,108.10162
PGD Hàm Thuận Nam,"Khu Phố Lập Hòa, thị trấn Thuận Nam, huyện Hàm Thuận Nam, Tỉnh Bình Thuận, Việt Nam",Tel: (0252) 3908 398  - Fax: (0252) 3612 929,10.840733,107.86187
PGD Đức Linh,"Số 15A đường ĐT 766, thôn 4, xã Đức Hạnh, Huyện Đức Linh, Tỉnh Bình Thuận, Việt Nam",,11.134243,107.50062
CN Nha Trang,"Toà nhà Ariyana Smart Condotel, 18 Trần Hưng Đạo, Phường Lộc Thọ, Thành Phố Nha Trang, Tỉnh Khánh Hòa, Việt Nam",Tel: (0258) 390 8909  - Fax: (0258) 381 7399,12.245432,109.19483
PGD Chợ Mới,"22 Đường 23/10, Phường Ngọc Hiệp, Thành Phố Nha Trang, Tỉnh Khánh Hòa, Việt Nam",Tel: (0258)3908969  - Fax: (0258)3817399,12.25028,109.17984
PGD Cam Ranh,"Số 109 Đại lộ Hùng Vương (Quốc lộ 1A), phường Cam Lợi, Thành Phố Cam Ranh, tỉnh Khánh Hòa, Việt Nam",Tel: (0258) 3 956 707  - Fax: (0258) 3 956 808,11.91696,109.14322
PGD Trung Tâm,"Số 100 Hoàng Văn Thụ, Phường Vạn Thắng, Thành Phố Nha Trang, Tỉnh Khánh Hòa, Việt Nam",Tel: (0258) 3818 315  - Fax: (0258)3818 312,12.250949,109.1881
CN Phú Yên,"Số 355-357 Nguyễn Huệ, phường 5, thành phố Tuy Hòa, tỉnh Phú Yên",Tel: (0257) 379 7888  - Fax: (0257) 381 2281,13.093897,109.31146
CN Bình Định,"89 - 91 Mai Xuân Thưởng, Thành Phố Quy Nhơn, Tỉnh Bình Định, Việt Nam",Tel: (0256) 3 816 345  - Fax: (0256) 3 816 367,13.775487,109.22316
PGD An Nhơn,"Số  146-148 Ngô Gia Tự, phường Bình Định, Thị Xã An Nhơn, Tỉnh Bình Định, Việt Nam",Tel: (0256) 3908 588  - Fax: (0256)3635 588,13.888818,109.11621
PGD Tây Sơn (Diêu Trì cũ),"Số 2B Nguyễn Huệ, thị trấn Phú Phong, Huyện Tây Sơn, Tỉnh Bình Định, Việt Nam",Tel: (0256) 3880 399  - Fax: (0256) 3880 599,13.907127,108.922775
PGD Bồng Sơn,"Số 221-223 Quang Trung, Thị trấn Bồng Sơn, Huyện Hoài Nhơn, Tỉnh Bình Định, Việt Nam",Tel: (0256) 3909 666  - Fax: (0256) 3561 966,14.434827,109.01763
CN Quảng Ngãi,"219- 221 Quang Trung, Phường Lê Hồng Phong, Thành Phố Quảng Ngải, Tỉnh Quảng Ngãi, Việt Nam",Tel: (0255) 373 3368  - Fax: (0255) 373 3369,15.127721,108.80228
PGD Đức Phổ,"Số 310 Nguyễn Nghiêm, Thị trấn Đức Phổ, Huyện Đức Phổ, Tỉnh Quảng Ngãi, Việt Nam",Tel: (0255) 390 8588  - Fax: (0255) 378 9555,14.816408,108.9536
CN Quảng Nam,"244 Lý Thường Kiệt, Phường Sơn Phong, Thành Phố Hội An, Tỉnh Quảng Nam, Việt Nam",Tel: (0235) 393 0930  - Fax: (0235) 393 0990,15.882842,108.330376
PGD Tam Kỳ,"Số 237-239 Phan Châu Trinh, phường Phước Hòa, Thành Phố Tam Kỳ, Tỉnh Quảng Nam, Việt Nam",Tel: (0235) 380 9999  - Fax: (0235) 383 0840,15.568544,108.48945
CN Đà Nẵng,"191 Lê Lợi, Phường Hải Châu 1, Quận Hải Châu, Thành Phố Đà Nẵng, Việt Nam",Tel: (0236)3664777  - Fax: (0236) 366 4778,16.068361,108.21543
PGD Lê Duẩn,"185 Đống Đa, P.Thạch Thang, Quận Hải Châu, Thành Phố Đà Nẵng, Việt Nam",Tel: (0236) 390 8585  - Fax: (0236) 375 2767,16.077097,108.21634
PGD Hải Châu,"Lô 500A Điện Biên Phủ,Phường Hoà Khê, Quận Thanh Khê, Thành Phố Đà Nẵng, Việt Nam",Tel: (0236) 372 0962  - Fax: (0236) 372 0960,16.067665,108.22016
PGD Hòa Cường,"376 Núi Thành, P.Hòa Cường, Quận Hải Châu, Thành Phố Đà Nẵng, Việt Nam",Tel: (0236) 625 4666  - Fax: (0236) 625 4656,16.039503,108.22189
PGD Nguyễn Văn Linh,"150-152 Nguyễn Văn Linh, Quận Thanh Khê, Thành Phố Đà Nẵng, Việt Nam",Tel: (0236) 625 2666  - Fax: (0236) 625 2656,16.06039,108.212616
CN Huế,"41-43 Bến Nghé, Phường Phú Hộ, Thành Phố Huế, Thành Phố Huế, Việt Nam",Tel: 0234 3 933 399  - Fax: 0234 3 823 388,16.465778,107.59459
PGD Bắc Sông Hương,"Số 81 đường Mai Thúc Loan, Phường Thuận Thành, Thành Phố Huế, Tỉnh Thừa Thiên Huế, Việt Nam",Tel: 0234 3 90 80 38  - Fax: 0234 3 58 55 79,16.47637,107.58249
PGD Hương Thủy,"Số 153 Nguyễn Tất Thành, phường Thùy Dương, Thị Xã Hương Thủy, Tỉnh Thừa Thiên Huế, Việt Nam",,16.442991,107.61782
VPĐD Khu Vực Phía Bắc,"Tầng 9 - Số 32 Trần Hưng Đạo, phường Phan Châu Trinh, Quận Hoàn Kiếm, Thành Phố Hà Nội, Việt Nam",Tel: (024) 3944 6633   - Fax: (024) 39 448 791,21.020435,105.85474
CN Hà Nội,"302 Phố Kim Mã, Ngọc Khánh, Ba Đình, Hanoi, Vietnam",Tel: (024)37474393  - Fax: (024)37474394,21.031042,105.81787
PGD Hồng Hà,"6-8 đường Lê Văn Linh, phường Hàng Mã, Quận Hoàn Kiếm, Thành Phố Hà Nội, Việt Nam (tầng 1 & tầng 2)",Tel: (024) 3209 8868  - Fax: (024) 3932 8864,21.037584,105.845856
PGD Hai Bà Trưng,"183 Bà Triệu, phường Lê Đại Hành, Quận Hai Bà Trưng, Thành Phố Hà Nội, Việt Nam",Tel: (024) 3976 5524   - Fax: (024) 3976 5520,21.012236,105.84919
PGD Đống Đa,"Căn nhà liền kề LK11A-01, Khu đo thị mới Mỗ Lao, phường Mộ Lao, quận Hà Đông",Tel: (024) 3513 2344  - Fax: (024) 3513 2346,20.983124,105.78185
PGD Linh Đàm,"BT1 ô số 07 khu nhà ở Bắc Linh Đàm-Nguyễn Hữu Thọ, Phường Đại Kim, Quận Hoàng Mai, Thành Phố Hà Nội, Việt Nam",Tel: (024) 35 401 006   - Fax: (024) 35 401 005,20.966661,105.82603
PGD Hoàng Văn Thái,"142 Hoàng Văn Thái, Phường Khương Mai, Quận Thanh Xuân, Thành Phố Hà Nội",Tel: (024) 3566 7037   - Fax: (024) 3566 7040,20.996723,105.82506
PGD Hà Thành,"288 Lạc Trung, Phường Vĩnh Tuy, quận Hai Bà Trưng, thành Phố Hà Nội, Việt Nam",Tel: (024) 3987 8481   - Fax: (024) 3987 8490,21.003183,105.86734
PGD Văn Quán (Vạn Xuân cũ),"Số 54 Nguyễn Khuyến, Phường Văn Quán, Quận Hà Đông, Thành Phố Hà Nội, Việt Nam",Tel: (024) 32095 599   - Fax: (024) 32095 599,20.969048,105.76885
PGD Đông Đô,"T.1&T.2, số 81+83, tổ 9 (nay là tổ 4), thị trấn Đông Anh, huyện Đông Anh, Thành Phố Hà Nội, Việt Nam",Tel: (024) 3.929.1666  - Fax: (024) 3.929.0797,21.15133,105.84496
PGD Nam Đô,"Tầng 1-2-3, căn A6+A7 Số 257 Giải phóng, phường Phương Mai, Quận Đống Đa, Thành Phố Hà Nội, Việt Nam (Địa chỉ giao dịch: 46 Phố Vọng, phường Phương Mai, Quận Đống Đa, Thành Phố Hà Nội)",Tel: (024) 3208 6869  - Fax: (024) 3.929.0797,20.99903,105.841675
PGD Kinh Đô,"Số 40 đường Kim Đồng, phường Giáp Bát, quận Hoàng Mai, Thành Phố Hà Nội, Việt Nam",Tel: (024) 3538 0659  - Fax: (024) 3538 0657,20.983654,105.84472
PGD Thành Công,"101 và 201-C18 Nguyên Hồng, Phường Láng Hạ, Quận Đống Đa, Thành Phố Hà Nội, Việt Nam",Tel: (024) 3773 8919   - Fax: (024) 3773 8917,21.016365,105.810684
PGD Thượng Đình,"Tầng 1 Tòa Nhà Nam Anh, số 68 Ngõ 116 Nhân Hòa, phường Nhân Chính,  Quận Thanh Xuân, Thành Phố Hà Nội, Việt Nam",Tel: (024) 3551 2083    - Fax: (024) 3551 02831,21.004097,105.80711
PGD Hoàng Mai,"86 Võ Thị Sáu, Thanh Nhàn, Hai Bà Trưng, Quận Hoàn Kiếm, Thành Phố Hà Nội, Việt Nam",Tel: (024) 3209 6768  - Fax: (024) 3640 083,21.0054,105.85486
PGD Yên Thái,"Số 392 Thụy Khuê, phường Bưởi, Quận Tây Hồ, Thành Phố Hà Nội, Việt Nam",Tel: (024) 3759 2906  - Fax: (024) 3759 2904,21.04539,105.81385
CN Hoàn Kiếm,"32 Trần Hưng Đạo, Phường Phan Chu Trinh, Quận Hoàn Kiếm, Thành Phố Hà Nội, Việt Nam",Tel: (024)3944 6633  - Fax: (024)39448791,21.020592,105.85228
PGD Thành Đô (Thái Thịnh cũ),"Số 20 tập thể T579C Phố Hào Nam, Phường Ô Chợ Dừa, Quận Đống Đa, Thành Phố Hà Nội, Việt Nam",Tel: (024) 3562 5641  - Fax: (024) 3562 6814,21.024261,105.82688
PGD Hà Đông,"Ô số 5, lô biệt thự BT1, khu đô thị Văn Phú, Quận Hà Đông, Thành Phố Hà Nội, Việt Nam",Tel: (024) 33 553 888  - Fax: (024) 3355 2882,20.961079,105.765434
PGD Thủ Đô,"Số 690 đường Lạc Long Quân, Phường Nhật Tân, Quận Tây Hồ, Thành Phố Hà Nội, Việt Nam",Tel: (024)39448895  - Fax: (024)39448891,21.0794,105.81648
PGD Trần Hưng Đạo,"33 Tràng Thi, Phường Trần Hưng Đạo, Quận Hoàn Kiếm , Thành Phố Hà Nội, Việt Nam",Tel: (024) 3941 0177  - Fax: (024) 3941 0174,21.026817,105.84607
PGD Gia Lâm (Tràng Tiền cũ),"Số 111 đường Ngô Xuân Quảng, thị trấn Trâu Quỳ, Huyện Gia Lâm, Thành Phố Hà Nội, Việt Nam",Tel: (024) 37 475 956  - Fax: (024) 3 747 5950,21.01797,105.93701
PGD Phan Đình Phùng (Nguyễn Trường Tộ cũ),"Số 37B+37C phố Phan Đình Phùng, phường Quán Thánh, Quận Ba Đình, Thành Phố Hà Nội, Việt Nam",Tel: (024) 3927 5448  - Fax: (024) 3927 5449,21.04061,105.843155
PGD Triều Khúc,"Thôn Triều Khúc, xã Tân Triều, Huyện Thanh Trì, Thành Phố Hà Nội, Việt Nam",Tel: (024) 3552 8019  - Fax: (024) 3552 8044,20.979156,105.800446
PGD Lê Thanh Nghị,"Số 142 Nguyễn An Ninh, Phường Tương Mai, Quận Hoàng Mai, Thành Phố Hà Nội, Việt Nam",Tel: (024) 3627 6748  - Fax: (024) 3627 6753,20.991812,105.84429
PGD Long Biên,"Ngõ 562 Nguyễn Văn Cừ, Phường Gia Thụy, Quận Long Biên, Thành Phố Hà Nội, Việt Nam",Tel: (024) 3209 3939  - Fax: (024) 3652 7172,21.049559,105.88383
PGD Tràng An,"LKA12 Dự án khu nhà ở thấp tầng A1TT1, phường Xuân Tân, Q Bắc Từ Liêm, TP.Hà Nội",Tel: (024) 3760 6066  - Fax: (024) 3760 6065,21.037678,105.79765
PGD Nam Hà Nội,"224 Phố Ga, Thị trấn Thường Tín, Huyện Thường Tín, Thành phố Hà Nội, Việt Nam",Tel: (024) 3208 0675  - Fax: (024) 3939 3543,20.871101,105.86487
CN Ba Đình,"243A, Đê La Thành, Láng Thượng, Quận Đống Đa, Thành Phố Hà Nội, Việt Nam",Tel: (024) 3755 5959  - Fax: (024) 3795 9219,21.027958,105.80233
PGD Tây Đô,"Số 11 đường Nguyễn Văn Huyên kéo dài, tổ 22, phương Quan Hoa, Quận Cầu Giấy , Thành Phố Hà Nội, Việt Nam",Tel: (024) 3782 5566,21.03677,105.79792
PGD Trung Hòa,"80 Trung Kính, Phường Yên  Hoà, Quận Cầu Giấy, Thành Phố Hà Nội, Việt Nam",Tel: (024)62816189  - Fax: (024)62816190,21.015574,105.79268
PGD Tây Hồ,"22 Xuân La, Phường Xuân La, Quận Tây Hồ, Thành Phố Hà Nội, Việt Nam",Tel: (024)37586062  - Fax: (024)37586064,21.062447,105.80574
PGD Kim Liên (PGD Hoài Đức cũ),"Số 59 Xã Đàn, phường Phương Liên, Quận Đống Đa, Thành Phố Hà Nội, Việt Nam",Tel: (024) 3366 1229  - Fax: (024) 3366 1228,21.011902,105.836136
PGD Tây Hà Nội,"138 Hoàng Quốc Việt, Nghĩa Tân,Quận Cầu Giấy, Thành Phố Hà Nội, Việt Nam",Tel: (024) 3755 5858  - Fax: (024) 3748 0978,21.046381,105.79096
PGD Cầu Giấy,"12 Trương Công Giai, Phường Dịch Vọng, Quận Cầu Giấy, Thành Phố Hà Nội, Việt Nam",Tel: (024) 3768 8806  - Fax: (04) 3768 8805,21.035152,105.79105
PGD Thanh Xuân,"144 Khuất Duy Tiến, Quận Thanh Xuân, Thành Phố Hà Nội, Việt Nam",Tel: (024) 62 86 2525,20.99995,105.79627
PGD Mỹ Đình 1,"Số B2-09 Khu chức năng đô thị Thành phố Xanh, phường Cầu Diễn, quận Nam Từ Liêm, Thành Phố Hà Nội, Việt Nam",Tel: (024) 2221 3978  - Fax: (024) 2221 3979,21.03084,105.76729
PGD Trung Yên,"17 Lô 14A, KĐT Trung Yên, Phường Trung Hòa, Quận Cầu Giấy, Thành Phố Hà Nội, Việt Nam",Tel: (024) 3783 5355  - Fax: (024) 3783 5354,21.01496,105.80109
PGD Mỹ Đình 2,"Lô 117 Kiểu nhà 1B khu nhà ở thấp tầng TT3, TDP Số 4 Phường Mỹ Đình 1, Quận Nam Từ Liêm, Thành Phố Hà Nội, Việt Nam",Tel: (024) 3787 8283  - Fax: (024) 3787 8288,21.01631,105.77678
PGD Từ Liêm,"Tổ dân Phố số 8 Tu Hoàng, phường Phương Canh, Quận Nam Từ Liêm, Thành Phố Hà Nội, Việt Nam",Tel: (024) 3 786 0012  - Fax: (024) 3 786 0017,21.053116,105.73052
CN Hùng Vương,"Số 23 Duy Tân, phường Mỹ Đình 2, Quận Nam Từ Liêm, Thành Phố Hà Nội, Việt Nam (Một phần tầng 1&2)",Tel: (024) 6258 4179  - Fax: (024) 6258 4180,21.03133,105.78079
PGD Bắc An Khánh (Nguyễn Chí Thanh cũ),"Tầng 1-Zone A1, Tòa nhà 101 Khu chung cư, Khu đô thị Splendora, Bắc An Khánh, Thành Phố Hà Nội, Việt Nam",Tel: (024) 3 775 9744,21.01646,105.72415
PGD Trần Duy Hưng,"Tầng 1 Tòa Nhà CT3, phường Trung Hòa,  Quận Cầu Giấy, Thành Phố Hà Nội, Việt Nam",Tel: (024) 6281 4222  - Fax: (024) 6281 4230,21.014988,105.80108
PGD Hạ Đình  (Ô Chợ Dừa cũ),"Tầng 1+2, số 109 Nguyễn Xiển, Phường Hạ Đình, Quận Thanh Xuân, Thành Phố Hà Nội, Việt Nam",Tel: (024) 3209 5868  - Fax: (024) 3514 9853,20.988064,105.80633
PGD Quang Trung,"Lô T1-03, tầng 1, tòa nhà CT2, chung cư Ngô Thì Nhậm, Phường Hà Cầu, Quận Hà Đông, Thành Phố Hà Nội, Việt Nam",Tel: (024)7300 7272  - Fax: (024) 3355 4921,20.969168,105.768234
PGD Mỹ Đình,"01 Lê Đức Thọ, Phương Mai Dịch, Quận Cầu Giấy, Thành Phố Hà Nội, Việt Nam",Tel: (024) 3795 8848  - Fax: (024) 3795 8849,21.037458,105.77168
CN Hồ Gươm,"Số 66 Lê Văn Lương, Phường Nhân Chính, Quận Thanh Xuân, Thành Phố Hà Nội, Việt Nam",Tel: (024) 3933 5373  - Fax: (024) 3933 5171,21.000418,105.79757
PGD Hà Huy Tâp,"Số 547 Ngô Gia Tự, Đức Giang, Quận Long Biên, Thành Phố Hà Nội, Việt Nam",Tel: (024) 3652 6819  - Fax: (024) 3652 6820,21.065893,105.89799
PGD Vĩnh Tuy (Hàng Buồm cũ),"Số 222 Phố Dương Văn Bé, Phường Vĩnh Tuy, Quận Hai Bà Trưng, thành phố Hà Nội, Việt Nam",Tel: (024) 7300 9979  - Fax: (024) 3926 4780,20.996191,105.87385
PGD Nguyễn Khang (Bắc Linh Đàm cũ),"Số 78 Nguyễn Khang, Phường Yên Hoà, Quận Cầu Giấy, Thành Phố Hà Nội, Việt Nam",Tel: 024) 6276 3542,21.022217,105.79929
PGD Yên Phụ,"Số 45 đường Âu Cơ, Phường Quảng An, quận Tây Hồ, thành phố Hà Nội, Việt Nam",Tel: (024) 3715 3547  - Fax: (024) 7300 9919,21.060556,105.83309
PGD Sài Đồng (Lạc Trung cũ),"Số 66 Sài Đồng, Phường Sài Đồng, Quận Long Biên, Thành Phố Hà Nội, Việt Nam",Tel: (024) 3208 3355  - Fax: (024) 3987 8700,21.05544,105.86529
PGD Tương Mai (Khâm Thiên cũ),"154 phố Tân Mai, phường Tương Mai, quận Hoàng Mai, Thành Phố Hà Nội, Việt Nam",Tel: (024) 3923 4888  - Fax: (024) 3923 4095,20.983456,105.85274
PGD Lương Định Của,"Số 02, ngõ 11+13 Lương Định Của, Phường Kim Liên, Quận Đống Đa, Thành Phố Hà Nội, Việt Nam",Tel: (024) 3208 1199  - Fax: (024) 3576 5980,21.006388,105.83546
PGD Ngọc Thụy  (Nguyễn Lương Bằng cũ),"Số 246 Ngọc Thuỵ, Phường Ngọc Thuỵ Quận Long Biên , Thành Phố Hà Nội, Việt Nam",Tel: (024) 3209 7799,21.057213,105.86592
PGD Thái Thịnh,"61 Phố Thái Thịnh,tổ 13b, Phường Thịnh Quang, Quận Đống Đa, Thành Phố Hà Nội, Việt Nam",Tel: (024) 3538 1046  - Fax: (024) 3538 1046,21.010675,105.818054
CN Ninh Bình,"Số 67 đường Lương Văn Tụy, Phố Phúc Tân, phường Phúc Thành, Thành Phố Ninh Bình, Tỉnh Ninh Bình, Việt Nam",Tel: (0229) 390 8668,20.256447,105.96979
CN Hà Tĩnh,"Số 70 Phan Đình Phùng, Phường Bắc Hà, Thành Phố Hà Tĩnh, Tỉnh Hà Tĩnh, Việt Nam",Tel: (0239) 3686 986  - Fax: (0239) 3686 589,18.339518,105.90138
PGD Vũng Áng,"Thôn Liên Giang, Xã Kỳ Long, Huyện Kỳ Anh, Tỉnh Hà Tĩnh, Việt Nam",Tel: (0239) 3715 779  - Fax: (0239) 3715 766,18.028757,106.397835
PGD Lộc Hà,"Đường 22.12, thôn Hồng Lạc, xã Thạch Châu, Huyện Lộc Hà, Tỉnh Hà Tĩnh, Việt Nam",Tel: (0239) 3909 566  - Fax: (0239) 6269 888,18.434605,105.892044
PGD Hương Sơn,"56 Nguyễn Tuấn Thiện, khối phố 1, thị trấn Phố Châu, Huyện Hương Sơn, Tỉnh Hà Tĩnh, Việt Nam",Tel: (0239) 3909 266  - Fax: (0239) 3515 888,18.5111,105.423515
CN Nghệ An,"39 Lê Hồng Phong, phường  Hưng Bình, Thành Phố Vinh, Tỉnh Nghệ An, Việt Nam",Tel: (0238) 860 3777  - Fax: (0238) 860 1599,18.676462,105.68021
PGD Đô Lương (Hưng Phúc cũ),"Khu đô thị mới Vườn Xanh, khối 4, thị trấn Đô Lương, Tỉnh Nghệ An, Việt Nam",Tel: (0238) 354 6777  - Fax: (0238) 354 6789,18.892614,105.30864
PGD Quán Hành,"Tòa nhà công ty cổ phần thương mại Bảo Hưng, Khối Phố 4, Thị Trấn Quán Hành, Huyện Nghi Lộc, Tỉnh Nghệ An, Việt Nam",Tel: (0238) 361 5615  - Fax: (0238) 361 5888,18.779133,105.64594
PGD Bắc Nghệ An (Minh Khai cũ),"Khối Bắc Mỹ, phường Quỳnh Thiện, thị xã Hoàng Mai, Tỉnh Nghệ An, Việt Nam",Tel: (0238) 355 3388  - Fax: (0238) 355 3377,18.677105,105.675835
PGD  Diễn Châu  (Trường Thi cũ),"Thôn 7, xã Diễn Kỷ, Huyện Diễn Châu, Tỉnh Nghệ An, Việt Nam",Tel: (0238) 320 8899  - Fax: (0238) 367 8556,19.010769,105.587585
PGD Vinh,"Số 22 Quang Trung, phường Quang Trung, Thành Phố Vinh, Tỉnh Nghệ An, Việt Nam",Tel: (0238) 376 8888  - Fax: (0238) 376 8999,18.672047,105.67472
CN Thanh Hóa,"Số 13+14 Phố Phan Chu Trinh, P.Điện Biên, Thành Phố Thanh Hóa, Tỉnh Thanh Hóa, Việt Nam",Tel: (0237) 391 9369  - Fax: (0237) 391 1369,19.811817,105.77473
PGD Lam Sơn,"Số 448 đường Quang Trung, phường Đông Vệ, Thành Phố Thanh Hóa, Tỉnh Thanh Hóa, Việt Nam",Tel: 0237.7300.999  - Fax: (0237) 375 5636,19.787392,105.77679
PGD Đào Duy Từ,"LK1-19 Phố Đào Duy Từ, phường Ba Đình, Thành Phố Thanh Hóa, Tỉnh Thanh Hóa, Việt Nam",Tel: (0237) 730 0068  - Fax: (0237) 371 4686,19.799221,105.774536
PGD Tĩnh Gia,"Số 232 Quang Trung, tiểu khu 3, thị trấn Tĩnh Gia,Huyện Tĩnh Gia, Tỉnh Thanh Hóa, Việt Nam",Tel: (0237) 730 0079  - Fax: (0237) 361 7299,19.445002,105.77722
CN Quảng Bình,"Số 352 Trần Hưng Đạo, phường Nam Lý, Thành Phố Đồng Hới, Tỉnh Quảng Bình, Việt Nam",Tel: (0232) 390 8868  - Fax: (0232) 384 6886,17.467024,106.60577
CN Nam Định,"Số 08 Nguyễn Du, phường Nguyễn Du, Thành Phố Nam Định, Tỉnh Nam Định, Việt Nam",Tel: (0228) 355 5399  - Fax: (0228) 385 5669,20.427868,106.17807
PGD Chợ Rồng,"Số 97 Thành Chung, phường Cửa Bắc, Thành Phố Nam Định, Tỉnh Nam Định, Việt Nam",Tel: (0228) 390 9779  - Fax: (0228) 385 2838,20.428713,106.16899
CN Hải Dương,"Số 360 Nguyễn Lương Bằng, Thành Phố Hải Dương, Tỉnh Hải Dương, Việt Nam",Tel: (0220) 389 9339  - Fax: (0220) 389 9334,20.937277,106.30363
PGD Điện Biên Phủ,"Số 199 Điện Biên Phủ, phường Bình Hàn, Thành Phố Hải Dương, Tỉnh Hải Dương, Việt Nam",Tel: (0220) 384 5111  - Fax: (0220) 384 5112,20.941525,106.32102
PGD Thành Đông (PGD Chí Linh cũ),"Số 22 Quang Trung, phường Quang Trung, Thành Phố Hải Dương, Tỉnh Hải Dương, Việt Nam",Tel: (0220) 385 5111  - Fax: (0220) 385 5123,20.93965,106.33365
PGD  Trường An,"Số 225-227, đường Trường Chinh, phường Thanh Bình, Thành Phố Hải Dương, Tỉnh Hải Dương, Việt Nam",,20.927208,106.30451
CN Hưng Yên,"Số 129 Hải Thượng Lãn Ông, phường Hiến Nam, Thành Phố Hưng Yên, Tỉnh Hưng Yên, Việt Nam",Tel: (0221) 390 8888  - Fax: (0221) 386 8555,20.746454,106.09917
CN Thái Bình,"Lô 7-8 Trần Phú, phường Trần Hưng Đạo, Thành Phố Thái Bình, Tỉnh Thái Bình, Việt Nam",Tel: (0227) 3 809 899  - Fax: (0227) 6 251 616,20.446482,106.32995
CN Hải Phòng,"Số 116 (tầng 2 và tầng 10) Nguyễn Đức Cảnh, Phường Cát Dài, Quận Lê Chân, Thành Phố Hải Phòng, Việt Nam",Tel: (0225) 326 0666  - Fax: (0225) 326 0888,20.854336,106.67344
PGD Hải Đăng,"Số 02, lô 22A, Lê Hồng Phong, P.Đông Khê, Quận Ngô Quyền, Thành Phố Hải Phòng, Việt Nam",Tel: (0225) 355 6669  - Fax: (0255) 355 6111,20.84953,106.70478
PGD Ngô Quyền,"376 Tô Hiệu, P.Hồ Nam, Quận Lê Chân, Thành Phố Hải Phòng, Việt Nam",Tel: (0225) 395 6875  - Fax: (0255) 395 6876,20.849754,106.67363
PGD Lê Chân,"Số 116C Lương Khánh Thiện, P. Lương Khánh Thiện, Quận Ngô Quyền, Thành Phố Hải Phòng, Việt Nam",,20.855406,106.68549
CN Bắc Ninh,"Tầng 1 Tòa nha Viglacera, số 15 Lý Thái Tổ, Thành Phố Bắc Ninh, Tỉnh Bắc Ninh, Việt Nam",Tel: (0222) 390 8388  - Fax: (0222) 222 1988,21.17719,106.07037
PGD Yên Phong,"Số 178 đường 286, thị trấn Chờ, Huyện Yên Phong, Tỉnh Bắc Ninh, Việt Nam",Tel: (0222) 390 9198,21.195818,105.949295
CN Bắc Giang,"Số 772 đường Lê Lợi, Phường Dĩnh Kế, Thành Phố Bắc Giang, Tỉnh Bắc Giang, Việt Nam",Tel: (0204) 390 8068  - Fax: (0204) 625 2222,21.277584,106.21103
CN Quảng Ninh,"Số 9A-10A đường 25/4, phường Hồng Gai, Thành Phố Hạ Long, Tỉnh Quảng Ninh, Việt Nam",Tel: (0203) 361 8222  - Fax: (0203) 363 8111,20.95244,107.077286
PGD Cẩm Phả,"Số 402 Trần Phú, phường Cẩm Trung, Thành Phố Cẩm Phả, Tỉnh Quảng Ninh, Việt Nam",Tel: (0203) 3908 238  - Fax: (0203) 3816 222,21.009903,107.26934
PGD Uông Bí,"Số 01 Trần Quốc Toản, tổ 28, khu 8, P.Quang Trung, Thành Phố Uông Bí, Tỉnh Quảng Ninh, Việt Nam",Tel: (0203) 390 9109  - Fax: (0203) 356 3666,21.030005,106.77267
PGD Mạo Khê,"Số 137 đường Hoàng Hoa Thám, Phường Mạo Khê, Thị Xã Đông Triều, Tỉnh Quảng Ninh, Việt Nam",Tel: (0203) 390 8138  - Fax: (0203) 358 6222,21.057775,106.59569
CN Thái Nguyên,"Đường Bắc Sơn, KDC số 01, Phường Hoàng Văn Thụ, Thành Phố Thái Nguyên, Tỉnh Thái Nguyên, Việt Nam",Tel: (0208) 393 9899  - Fax: (0208) 365 5898,21.594887,105.82854
CN Vĩnh Phúc,"Số 3 đường Mê Linh, Phường Liên Bảo, Thành Phố Vĩnh Yên, Tỉnh Vĩnh Phúc, Việt Nam",Tel: (0211) 730 6868  - Fax: (0211) 351 0789,21.313557,105.59832
CN Lạng Sơn,"Số 408 Bà Triệu, Phường Vĩnh Trại, Thành phố Lạng Sơn, Tỉnh Lạng Sơn, Việt Nam",Tel: (0205) 3819 555  - Fax: (0205) 3819 998,21.847286,106.76325
PGD Đồng Đăng,"Số 119 Khu Dây Thép, thị trấn Đồng Đăng, Huyện Cao Lộc, Tỉnh Lạng Sơn, Việt Nam",Tel: (0205) 3908 088  - Fax: (0205) 3892 988,21.950783,106.69548
PGD Hữu Lũng,"Số 10A Chi Lăng, Khu An Ninh, thị trấn Hữu Lũng, Huyện Hữu Lũng, Tỉnh Lạng Sơn, Việt Nam",Tel: (0205) 3909 699  - Fax: (0205) 3808 366,21.506317,106.3443
CN Lào Cai,"Số 143 đường Hoàng Liên, P.Cốc Lếu, Thành Phố Lào Cai, Tỉnh Lào Cai, Việt Nam",Tel: (0214) 366 6188  - Fax: (0214) 366 6166,22.49509,103.96822
PGD Bắc Cường (Cam Đường cũ),"Số 6 đường Trần Hưng Đạo, phường Bắc Cường,Thành Phố Lào Cai, Tỉnh Lào Cai, Việt Nam",Tel: (0214) 390 8839  - Fax: (0214) 385 9996,22.475037,103.981476
PGD Duy Minh,"Trung tâm thương mại Thạnh Phú, Số 411/1 Khu phố 1, thị trấn Thạnh Phú, huyện Thạnh Phú, tỉnh Bến Tre",Tel: (0275) 730 8899  - Fax: (0275) 730 8899,9.952364,106.521545
PGD Gò Công,"số 124-126 đường Trương Định, khu phố 3, phường 2, thị xã Gò Công, tỉnh Tiền Giang",Tel: (0273) 730 8668  - Fax: (0273) 730 8668,10.36184,106.67383
PGD Cái Bè,"Số 150 Tỉnh lộ 875, ấp 5, xã Phú An, huyên Cai Lậy, tỉnh Tiền Giang",Tel: (0273) 730 8686  - Fax: (0273) 730 8686,10.369805,106.0407
CN Bạc Liêu,"Số 206-208 đường Trần Phú, phường 7, TP. Bạc Liêu, tỉnh Bạc Liêu",Tel: (0291) 390 8686  - Fax: (0291) 390 8686,9.303747,105.7213
PGD Bình Minh (Bình Tân cũ),"Số 75 Nguyễn Văn Thảnh, Khóm 2, Phường Cái Vồn, thị xã Bình Minh, tỉnh Vĩnh Long",Tel: (0270) 730 8686  - Fax: (0270) 730 8686,10.068676,105.81303
PGD Bù Đăng,"Số 281 Quốc lộ 14, thị trấn Đức Phong, huyện Bù Đăng, tỉnh Bình Phước",,11.810976,107.235466
PGD Chơn Thành,"Số 69 Đường 2 tháng 4, KP.3, thị trấn Chơn Thành, huyện Chơn Thành, tỉnh Bình Phước",,11.445214,106.61596
PGD Di Linh,"749 Hùng Vương, thị trấn Di Linh, huyên Di Linh, tỉnh Lâm Đồng",,11.590952,108.078674
PGD Bảo Lộc,"40 Hà Giang, phường Lộc Sơn, thành phố Bảo Lộc, tỉnh Lâm Đồng",,11.54291,107.81567
PGD Phan Rí,"167 Thống Nhất, dân phố 6, thị trấn Phan Rí Cửa, huyện Tuy Phong, tỉnh Bình Thuận",,11.175247,108.56514
CN Ninh Thuận,"Số 207B Ngô Gia Tự, KP 5, phường Thanh Sơn, TP Phan Rang Tháp Chàm, tỉnh Ninh Thuận",,11.569214,108.994865
PGD Tuy An,"318-320 Quốc Lộ 1A, thị trấn Chí Thạnh, huyện Tuy An, tỉnh Phú Yên",,13.31374,109.21716
PGD Hòa Hiệp,"Đường Hòa Hiệp, phường Hòa Hiệp Trung, thị xã Đông Hòa, tỉnh Phú Yên",,12.992347,109.36716
PGD Sơn Hà,"348 đường 17 tháng 3, thị trấn Di Lăng, huyện Sơn Hà, tỉnh Quảng Ngãi",,15.043097,108.46981
PGD Điện Bàn,"147 Trần Nhân Tông, phường Vĩnh Điện, thị xã Điện Bàn, tỉnh Quảng Nam",,15.890483,108.24861
PGD Hương Trà,"Số 70 Cách Mạng Tháng 8, phường Tứ Hạ, thị xã Hương Trà, tỉnh Thừa Thiên Huế",Tel: (0234) 730 8899,16.52423,107.47775
CN Hà Nam,"Số PG1-08A VinCom, đường Biên Hòa, Tổ 5, Phường Minh Khai, thành phố Phủ Lý, tỉnh Hà Nam",,20.543644,105.91744
CN Sơn La,"Số 457A đường Chu Văn Thịnh, phường Chiềng Lề, thành phố Sơn La, tỉnh Sơn La",,21.33928,103.90973
PGD Thuận Thành,"Toàn bộ căn nhà tại LK13_1 và một phần căn nhà LK13_2, Khu nhà ở TMDV tổng hợp thị trấn Hồ, huyện Thuận Thành, tỉnh Bắc Ninh",,21.063766,106.09535
PGD Sa Pa,"Số 417 Điện Biên Phủ, TT Sa Pa, huyện Sa Pa, tỉnh Lào Cai",Tel: (0214) 390 9668,22.338884,103.85352
CN Phú Thọ,"Số 2191 đường Hùng Vương, phường Gia Cẩm, thành phố Việt Trì, tỉnh Phú Thọ",,21.323349,105.38382
PGD Ba Đồn,"137-139 Hùng Vương, Quảng Long, Quảng Trạch District, tỉnh Quảng Bình, Vietnam.",Tel: (0232) 370 6686,17.753767,106.41979
PGD Việt Yên,"Thôn Vàng, thị trấn Bích Động, huyện Việt Yên, tỉnh Bắc Giang",,21.280766,106.08813
CN Trà Vinh,"Vincom Shophouse PG1-01-02-03 đường Nam Kỳ Khởi Nghĩa, Khóm 3, Phường 2, TP Trà Vinh, tỉnh Trà Vinh",Tel: (0294) 730 8868  - Fax: (0294) 730 8868,9.935867,106.33698
PGD Cai Lậy,"Số 2-4-6-8 Đặng Văn Thạnh,  khu phố 1, phường 1, thị xã Cai Lậy, tỉnh Tiền Giang.",Tel: (0273) 730 2468  - Fax: (0273) 730 2468,10.411139,106.12127
PGD Kiến Đức,"Số 03 Nguyễn Tất Thành, thị trấn Kiến Đức, huyện Đắk R'Lấp, tỉnh Đắk Nông",,11.99669,107.51286
PGD Đắk Mil,"Số 16 Trần Hưng Đạo, thị trấn Đắk Mil, tỉnh Đắk Nông",,12.448708,107.6194
PGD Đắk Hà,"Số 501 Hùng Vương, thị trấn Đắk Hà, huyện Đắk Hà, tỉnh Kon Tum",,14.516335,107.919304
PGD Sông Hinh,"Số 82 Trần Hưng Đạo, khu phố 4, thị trấn Hai Riêng, huyện Sông Hinh, tỉnh Phú Yên",,12.981616,108.89949
PGD Tư Nghĩa,"Số 248 Nguyễn Huệ, thị trấn La Hà, huyện Tư Nghĩa, tỉnh Quảng Ngãi",,15.089109,108.824234
PGD Núi Thành,"Số 193 Nguyễn Văn Linh, thị trấn Núi Thành, huyên Núi Thành, tỉnh Quảng Nam",,15.434785,108.65345
CN Quảng Trị,"101 Quốc lộ 9, Đông Hà, tỉnh Quảng Trị, Vietnam.",Tel: (0233) 730 8868,16.811049,107.090065
PGD Bố Trạch,"Số 49 Hùng Vương, thị trấn Hoàn Lão, huyện Bố Trạch, tỉnh Quảng Bình",Tel: (0232) 730 5969,17.583967,106.53504
PGD Lệ Thủy,"Số 42 Nguyễn Tất Thành, thị trấn Kiến Giang, huyện Lệ Thủy, tỉnh Quảng Bình",Tel: (0232) 730 5868,17.222805,106.79385
PGD Thành Nam,"Số 130+132 đường Quang Trung, phường Quang Trung, thành phố Nam Định, tỉnh Nam Định",,20.430483,106.1747
PGD Văn Giang,"Số 137 đường 179, thị trấn Văn Giang, huyện Văn Giang, tỉnh Hưng Yên.",,20.946194,105.940575
PGD Khoái Châu (Ân Thi cũ),"Khu Trung tâm thương mại, thôn An Bình,  xã Dân Tiến, huyên Khoái Châu, tỉnh Hưng Yên",,20.839563,106.00676
PGD Bắc Hưng Yên,"Trung tâm thương mại Dịch vụ 2 thuộc dự án Khu nhà ở công nhân, nhà ở thương mại Lạc Hồng - Phố Nối, phường Nhân Hòa, thị xã Mỹ Hào, tỉnh Hưng Yên",,20.937002,106.063225
PGD Tân Yên,"Lô D3, trên mặt đường Cao Kỳ Vân, quy hoạch chi tiết khu dân cư mới, Thị trấn Cao Thượng, huyện Tân Yên, tỉnh Bắc Giang",,21.385792,106.12596
PGD Phổ Yên,"Số 17, Tổ dân phố số 6, phường Ba Hàng, thị xã Phổ Yên, tỉnh Thái Nguyên",,21.416605,105.87147
PGD Phúc Yên,"Số 1 đường Sóc Sơn, phường Trưng Trắc, thành phố Phúc Yên, tỉnh Vĩnh Phúc",,21.236942,105.705696
CN Cao Bằng,"Số 40 phố Kim Đồng, phường Hợp Giang, thành phố Cao Bằng, tỉnh Cao Bằng",Tel: (0206) 730 6886,22.664867,106.260635
CN Tuyên Quang,"Số 69 Hà Huy Tâp, phường Phan Thiết, thành phố Tuyên Quang, tỉnh Tuyên Quang",Tel: (0207) 730 6886  - Fax: (0207) 730 6886,21.817448,105.205086
CN Yên Bái,"Số 738 đường Điên Biên, phường Minh Tân, TP.Yên Bái, tỉnh Yên Bái",Tel: (0207) 730 6886,21.71514,104.902664
CN Hòa Bình,"589 Cù Chính Lan, phường Phương Lâm, thành phố Hòa Bình, tỉnh Hòa Bình",Tel: 0218 730 8868,20.818768,105.33905
PGD Hóc Môn,"98/3 Đường Bà Triệu, Khu phố 1, Thị trấn Hóc Môn, Huyện Hóc Môn, Thành Phố Hồ Chí Minh",Tel: (028) 7308 9968,10.888637,106.59493
PGD Hoa Lư,"422 Nguyễn Công Trứ, Phường Ninh Sơn, Thành phố Ninh Bình, Tỉnh Ninh Bình",Tel: (0229) 730 5968,20.246632,105.985916
CN Hậu Giang,"100-100A-100B, đường Nguyễn Thái Học, phường 1, TP Vị Thanh, Tỉnh Hậu Giang",Tel: (0293) 390 0688,9.777981,105.46597
PGD Bến Cát,"Lô C - ô số 1, KDC Mỹ Phước 4 - Khu A, P.Mỹ Phước, thị xã Bến Cát, Tỉnh Bình Dương",Tel: (0274) 730 3366,11.146341,106.60005
PGD Thuận An,"45/2 Đường tỉnh 743, Thuận An, Bình Dương, Vietnam",Tel: (0274) 380 9768,10.982187,106.728264
PGD Tuy Đức,"Đắk Búk So, Tuy Đức, Dak Nong, Vietnam",Tel: (0261) 730 1868,12.222142,107.46769
PGD Đắk Bla,"931 Phạm Văn Đồng, phường Trần Hưng Đạo, Kon Tum, tỉnh Kon Tum, Vietnam",Tel: (0260) 386 8866,14.295167,107.99547
PGD Ninh Phước,"Khu phố 4, thị trấn Phước Dân, Phan Rang–Tháp Chàm, tỉnh Ninh Thuận, Vietnam",,11.539648,108.932396
PGD Đầm Sen,"173 Hòa Bình, phường Hiệp Tân, quận Tân Phú, Thành phố Hồ Chí Minh, Vietnam",Tel: (0283) 7308 0086,10.7709055,106.629395
PGD Minh Diệu,"Số 603 Đường Quốc lộ 1A, thị trấn Hoà Bình, huyện Hòa Bình, tỉnh Bạc Liêu, Vietnam",Tel: (0291) 730 8668  - Fax: (0291) 730 8668,9.2803135,105.62297
PGD Giá Rai,"Số 122 Quốc lộ 1A, phường Hộ Phòng, thị xã Giá Rai, tỉnh Bạc Liêu, Việt Nam",Tel: (0291) 730 3968  - Fax: (0291) 730 3968,9.233295,105.43807
CN Phú Quốc,"Số 139 đường Nguyễn Trung Trực, phường Dương Đông, TP. Phú Quốc, tỉnh Kiên Giang, Việt Nam",Tel: (0297) 730 6368  - Fax: (0297) 730 6368,10.223469,103.96459
PGD Hòn Đất,"Số 11, Tổ 10, Khu phố Đường Hòn, thị trấn Hòn Đất, huyện Hòn Đất, tỉnh Kiên Giang, Việt Nam",Tel: (0297) 730 6668  - Fax: (0297) 730 6668,10.185579,104.92896
PGD Tắc Vân,"Số 666 Đường Quốc lộ 1A, xã Tắc Vân, TP. Cà Mau, tỉnh Cà Mau, Việt Nam",Tel: (0290) 730 5599  - Fax: (0290) 730 5599,9.166895,105.26587
PGD Hải Hậu,"Số 130+132 đường Quang Trung, phường Quang Trung, thành phố Nam Định, tỉnh Nam Định, Việt Nam",Tel: (0228) 368 8388  - Fax: (0228) 368 8388,20.430456,106.17471
PGD Diêm Điền,"Số 155 đường Nguyễn Đức Cảnh, Tổ dân phố 6, thị trấn Diêm Điền, huyện Thái Thụy, tỉnh Thái Bình, Việt Nam",Tel: (0227) 730 8368  - Fax: (0227) 730 8368,20.559416,106.56868
PGD Tiền Hải,"Số 38 phố Hùng Thắng, tổ dân phố Hùng Thắng, thị trấn Tiền Hải, huyện Tiền Hải, tỉnh Thái Bình, Việt Nam",Tel: (0227) 365 5589  - Fax: (0227) 365 5589,20.401487,106.49974
PGD Từ Sơn,"376 Trần Phú, phường Đông Ngàn, thị xã Từ Sơn, tỉnh Bắc Ninh, Việt Nam",Tel: (0222) 376 1828  - Fax: (0222) 376 1828,21.115925,105.95545
PGD Lục Nam,"Số 16 phố Thanh Xuân, thị trấn Đồi Ngô, huyện Lục Nam, tỉnh Bắc Giang, Việt Nam",,21.299433,106.384186
PGD Yên Lạc,"Tòa nhà Kiết Hiền, đường Dương Tĩnh, thị trấn Yên Lạc, huyện Yên Lạc,  tỉnh Vĩnh Phúc, Việt Nam",Tel: (0211) 730 3668  - Fax: (0211) 730 3668,21.236677,105.5767
PGD Lập Thạch,"Đường tỉnh lộ 307, khu vực Trẻ Gắp, thị trấn Lập Thạch, huyện Lập Thạch, tỉnh Vĩnh Phúc, Việt Nam",,21.418222,105.45514
CN Điện Biên,"822 Đường Võ Nguyên Giáp, phường Tân Thanh, Thành phố Điện Biên Phủ, tỉnh Điện Biên, Việt Nam",,21.394821,103.01786
CN Lai Châu,"Số 61 đường Đại lộ Lê Lợi, phương Tân Phong, thành phố Lai Châu, tỉnh Lai Châu, Việt Nam",,22.384567,103.46881
PGD Yên Khánh,"Số 514-516 , khu phố 3, thị trấn Yên Ninh, huyện Yên Khánh, tỉnh Ninh Bình, Việt Nam",,20.178825,106.07284
PGD Hiệp Thành,"182-184 Đường Nguyễn Ảnh Thủ, Hiệp Thành, Quận 12, Thành phố Hồ Chí Minh, Vietnam",Tel: (028) 3868 5676,10.877032,106.642975
CN Hà Giang,"Số 419 Đường Nguyễn Trãi, Phường Nguyễn Trãi, Thành phố Hà Giang, Tỉnh Hà Giang",,22.82367,104.98353
CN Móng Cái,"Số 59 Đại lộ Hòa Bình, Phường Trần Phú, Thành phố Móng Cái, Tỉnh Quảng Ninh",,21.527409,107.973175
CN Bắc Kạn,"Số 35, Đường Trường Chinh, Tổ 5, Phường Phùng Chí kiên, Thành phố Bắc Kạn, Tỉnh Bắc Kạn",,22.142002,105.83322
PGD Gia Viễn,"Đường Hồng Dân (đường tái định cư, xã Gia Thịnh), Thị trấn Me, huyện Gia Viễn, tỉnh Ninh Bình",Tel: 0229.388.6368,20.346907,105.833855
Chi Nhánh Vikki,"Lô T2-1.5, Đường D1, Khu công nghệ cao, phường Tân Phú, Thành phố Thủ Đức, Thành phố Hồ Chí Minh, Việt Nam",Tel: (028) 37309616,10.853092,106.796135
CN Tân Uyên,"Khu nhà ở thương mại Hoàng Mai, phường Uyên Hưng, TP. Tân Uyên, Bình Dương",Tel: (0274) 368 5468,11.094221,106.774506
