name,address,tel,lat,lng,mon,tue,wed,thu,fri,sat,sun,services
New World,"Góc đường Phạm Hồng Thái và Nguyễn Thị Nghĩa, 76 Le Lai, Quận 1, Tp. Hồ Chí Minh",+842838237952,10.77139289,106.6938939,6:30 - 00:00,6:30 - 00:00,6:30 - 00:00,6:30 - 00:00,6:30 - 00:00,6:30 - 00:00,6:30 - 00:00,"24HourService, driveThru, starbucksReserve, wiFi, communityRoom, mobileOrderandPay"
Phan Xích Long,"214 -216 Phan Xích Long, Quận Phú Nhuận, Tp. Hồ Chí Minh",+842835176461,10.79761297,106.6898552,7:00 - 22:00,7:00 - 22:00,7:00 - 22:00,7:00 - 22:00,7:00 - 22:00,7:00 - 22:00,7:00 - 22:00,"driveThru, wiFi, mobileOrderandPay"
Panorama,"SN-44, Tòa Nhà Panorama, 208 Trần Văn Trà, Quận 7, Tp. Hồ Chí Minh",+842854138292,10.72148222,106.7139119,6:30 - 22:00,6:30 - 22:00,6:30 - 22:00,6:30 - 22:00,6:30 - 22:00,6:30 - 22:00,6:30 - 22:00,"wiFi, mobileOrderandPay"
Pandora,"1/1 Trường Chinh, Quận Tân Phú, Tp. Hồ Chí Minh",+842838126830,10.80678678,106.6344309,8:00 - 21:00,8:00 - 21:00,8:00 - 21:00,8:00 - 21:00,8:00 - 21:00,8:00 - 21:00,8:00 - 21:00,"wiFi, mobileOrderandPay"
VivoCity,"1058 Nguyễn Văn Linh, Quận 7, Tp. Hồ Chí Minh",+842837714975,10.7299209,106.7038355,7:00 - 22:00,7:00 - 22:00,7:00 - 22:00,7:00 - 22:00,7:00 - 22:00,7:00 - 22:00,7:00 - 22:00,"wiFi, mobileOrderandPay"
Thảo Điền,"21 Thảo Điền, Quận 2, Tp. Hồ Chí Minh",+842837442040,10.80350356,106.7376093,6:00 - 21:30,6:00 - 21:30,6:00 - 21:30,6:00 - 21:30,6:00 - 21:30,6:00 - 21:30,6:00 - 21:30,"wiFi, mobileOrderandPay"
Kumho,"39 Lê Duẩn, Quận 1, Tp. Hồ Chí Minh",+842838234990,10.7814801,106.7003697,7:00 - 22:00,7:00 - 22:00,7:00 - 22:00,7:00 - 22:00,7:00 - 22:00,7:00 - 22:00,7:00 - 22:00,"wiFi, mobileOrderandPay"
Nguyễn Huệ,"99 Nguyễn Huệ, Quận 1, Tp. Hồ Chí Minh",+842838210105,10.77361239,106.7039837,6:30 - 22:30,6:30 - 22:30,6:30 - 22:30,6:30 - 22:30,6:30 - 23:00,7:00 - 23:00,7:00 - 23:00,"wiFi, mobileOrderandPay"
Emart,"168 Phan Văn Trị, Quận Gò Vấp, Tp. Hồ Chí Minh",+842835880146,10.82389562,106.6930127,7:30 - 22:00,7:30 - 22:00,7:30 - 22:00,7:30 - 22:00,7:30 - 22:00,7:30 - 22:00,7:30 - 22:00,"wiFi, mobileOrderandPay"
Lakai,"98-126 Nguyễn Tri Phương, Quận 5, Tp. Hồ Chí Minh",+842839241251,10.75412054,106.6696617,7:00 - 22:00,7:00 - 22:00,7:00 - 22:00,7:00 - 22:00,7:00 - 22:00,7:00 - 22:00,7:00 - 22:00,"wiFi, mobileOrderandPay"
Sân bay Tân Sơn Nhất,"A2, Tầng trệt, Khu vực thương mại Nhà giữ xe Ga Quốc Nội, Sân bay Tân Sơn Nhất, 45 Trường Sơn, Tân Bình, Tp. Hồ Chí Minh",+842836209020,10.81343136,106.6630572,6:00 - 22:00,6:00 - 22:00,6:00 - 22:00,6:00 - 22:00,6:00 - 22:00,6:00 - 22:00,6:00 - 22:00,"wiFi, mobileOrderandPay"
Nguyễn Văn Trỗi,"66 Nguyễn Văn Trỗi, Quận Phú Nhuận, Tp. Hồ Chí Minh",+842838422171,10.79517847,106.6771371,7:00 - 22:00,7:00 - 22:00,7:00 - 22:00,7:00 - 22:00,7:00 - 22:00,7:00 - 22:00,7:00 - 22:00,"wiFi, mobileOrderandPay"
The Vista,"Tầng trệt, TTTM The Oxygen, 628 Xa Lộ Hà Nội, Quận 2, Tp. Hồ Chí Minh",+842862814546,10.81110509,106.7529328,6:30 - 21:30,6:30 - 21:30,6:30 - 21:30,6:30 - 21:30,6:30 - 21:30,6:30 - 21:30,6:30 - 21:30,"wiFi, mobileOrderandPay"
Leman Building,"117 Nguyễn Đình Chiểu, Quận 3, Tp. Hồ Chí Minh",+842839301092,10.77801887,106.6898743,7:00 - 21:30,7:00 - 21:30,7:00 - 21:30, 7:00 - 21:30, 7:00 - 21:30, 7:00 - 21:30, 7:00 - 21:30,"wiFi, mobileOrderandPay"
Ibis building,"2 Hồng Hà, Phường 2, Quận Tân Bình, Tp. Hồ Chí Minh",+842838486030,10.81347567,106.6661139,6:30 - 21:00,6:30 - 21:00,6:30 - 21:00,6:30 - 21:00,6:30 - 21:00,6:30 - 21:00,6:30 - 21:00,"wiFi, mobileOrderandPay"
CMT8,"241Bis Cách Mạng Tháng Tám, Quận 3, Tp. Hồ Chí Minh",+842839291221,10.77680338,106.6837443,7:00 - 21:30,7:00 - 21:30,7:00 - 21:30,7:00 - 21:30,7:00 - 21:30,7:00 - 21:30,7:00 - 21:30,"wiFi, mobileOrderandPay"
Vạn Hạnh Mall,"Vạn Hạnh Mall, 11 Sư Vạn Hạnh, Quận 10, Tp. Hồ Chí Minh",+842836365485,10.77047995,106.6700222,7:00 - 22:00,7:00 - 22:00,7:00 - 22:00,7:00 - 22:00,7:00 - 22:00,7:00 - 22:00,7:00 - 22:00,"wiFi, mobileOrderandPay"
Crescent Strip,"CR1-02, Crescent Residence 1, 103 Tôn Dật Tien, Quận 7, Tp. Hồ Chí Minh",+842866806191,10.72818033,106.7184276,7:00 - 22:00,7:00 - 22:00,7:00 - 22:00,7:00 - 22:00,7:00 - 22:00,7:00 - 22:00,7:00 - 22:00,"wiFi, mobileOrderandPay"
Estella,"Estella Place, 88 Song Hành, Phường An Phú, Quận 2, Tp. Hồ Chí Minh",+842836367424,10.80209032,106.7485472,7:00 - 22:00,7:00 - 22:00,7:00 - 22:00,7:00 - 22:00,7:00 - 22:00,7:00 - 22:00,7:00 - 22:00,
Riverpark,"Riverpark Premier, 31 Đặng Đức Thuật, Quận 7, Tp. Hồ Chí Minh",(028) 5411 7329,10.72530882,106.7081904,7:00 - 22:00,7:00 - 22:00,7:00 - 22:00,7:00 - 22:00,7:00 - 22:00,7:00 - 22:00,7:00 - 22:00,"wiFi, mobileOrderandPay"
Landmark 81,"L1-26, Tầng trệt, Landmark 81, 772 Điện Biên Phủ, Phường 22, Quận Bình Thạnh, Tp. Hồ Chí Minh",+842836369858,10.79525289,106.7221081,6:30 - 22:00,6:30 - 22:00,6:30 - 22:00,6:30 - 22:00,6:30 - 22:00,6:30 - 22:00,6:30 - 22:00,"wiFi, mobileOrderandPay"
Vincom Đồng Khởi,"Đồng Khởi, Quận 1, Tp. Hồ Chí Minh",+842839390058,10.77808953,106.7021276,8:30 - 22:00,8:30 - 22:00,8:30 - 22:00,8:30 - 22:00,8:30 - 22:00,9:30 - 22:00,9:30 - 22:00,"wiFi, mobileOrderandPay"
Gateway Thảo Điền,"Gateway Thảo Điền, 177 Xa Lộ Hà Nội, Khu Phố 1, Quận 2, Tp. Hồ Chí Minh",+842836369894,10.80373488,106.7462144,7:00 - 18:00,7:00 - 18:00,7:00 - 18:00,7:00 - 18:00,7:00 - 18:00,7:00 - 18:00,7:00 - 18:00,"wiFi, mobileOrderandPay"
Goldview,"TTTM The Gold View, 346 Bến Vân Đồn, Quận 4, Tp. Hồ Chí Minh",+842836363046,10.7571264,106.691893,7:00 - 21:30,7:00 - 21:30,7:00 - 21:30,7:00 - 21:30,7:00 - 21:30,7:00 - 21:30,7:00 - 21:30,"wiFi, mobileOrderandPay"
Sense City,"Giga Mall, 240 - 242 Phạm Văn Đồng, Phường Hiệp Bình Chánh, Quận Thủ Đức, Tp. Hồ Chí Minh",+842836366959,10.82833221,106.7220789,8:30 - 21:00,8:30 - 21:00,8:30 - 21:00,8:30 - 21:00,8:30 - 21:00,8:30 - 21:00,8:30 - 21:00,"wiFi, mobileOrderandPay"
Saigon Centre,"L2-01, Tầng 2, Saigon Centre, 67 Lê Lợi, Quận 1, Tp. Hồ Chí Minh",+842836365244,10.77434722,106.7011297,8:30 - 21:30,8:30 - 21:30,8:30 - 21:30,8:30 - 21:30,8:30 - 22:00,8:30 - 22:00,8:30 - 22:00,"wiFi, mobileOrderandPay"
Happy Residence,"Nguyễn Lương Bằng, Quận 7, Tp. Hồ Chí Minh",+842873037039,10.71790854,106.72834,7:00 - 21:30,7:00 - 21:30,7:00 - 21:30,7:00 - 21:30,7:00 - 21:30,7:00 - 21:30,7:00 - 21:30,"wiFi, mobileOrderandPay"
Etown 5,"364 Cộng Hoà, Quận Tân Bình, Tp. Hồ Chí Minh",+842836201364,10.80245931,106.6413745,7:00 - 18:00,7:00 - 18:00,7:00 - 18:00,7:00 - 18:00,7:00 - 18:00,Closed,Closed,"wiFi, mobileOrderandPay"
Saigon Mia,"Saigon Mia, L1-04, Tầng 1, Đường 9A, Phường Bình Hưng, Huyện Bình Chánh, Tp. Hồ Chí Minh",+842836369125,10.73304732,106.689095,7:00 - 21:30,7:00 - 21:30,7:00 - 21:30,7:00 - 21:30,7:00 - 21:30,7:00 - 21:30,7:00 - 21:30,"wiFi, mobileOrderandPay"
Saigon Pearl,"92 Nguyễn Hữu Cảnh, Phường 22, Quận Bình Thạnh, Tp. Hồ Chí Minh",+842836208051,10.7905899,106.7200416,6:30 - 22:00,6:30 - 22:00,6:30 - 22:00,6:30 - 22:00,6:30 - 22:00,6:30 - 22:00,6:30 - 22:00,"wiFi, mobileOrderandPay"
Lotte Nam Saigon,"Lotte Nam Saigon, Quận 7, Tp. Hồ Chí Minh",+842835351368,10.74119155,106.7020108,7:30 - 22:00,7:30 - 22:00,7:30 - 22:00,7:30 - 22:00,7:30 - 22:00,7:30 - 22:00,7:30 - 22:00,"wiFi, mobileOrderandPay"
Lotte Pico,"20 Cộng Hoà, Phường 12, Quận Tân Bình, Tp. Hồ Chí Minh",+842836201392,10.80150232,106.6531375,8:00 - 22:00,8:00 - 22:00,8:00 - 22:00,8:00 - 22:00,8:00 - 22:00,8:00 - 22:00,8:00 - 22:00,"wiFi, mobileOrderandPay"
Mê Linh Point,"Mê Linh Point Tower, 02 Ngô Đức Kế, Quận 1, Tp. Hồ Chí Minh",+842835352692,10.77477393,106.7059159,6:30 - 22:00,6:30 - 22:00,6:30 - 22:00,6:30 - 22:00,6:30 - 22:00,6:30 - 22:00,6:30 - 22:00,"wiFi, mobileOrderandPay"
Urban Hill,"51 Nguyễn Văn Linh, Khu phố Urban Hill, Phường Tân Phong, Quận 7, Tp. Hồ Chí Minh
",+842854117668,10.72851696,106.7118944,7:00 - 21:30,7:00 - 21:30,7:00 - 21:30,7:00 - 21:30,7:00 - 21:30,7:00 - 21:30,7:00 - 21:30,"wiFi, mobileOrderandPay"
Golden Mansion,"119 Phổ Quang, Phường 9, Quận Phú Nhuận, Tp. Hồ Chí Minh",+842835352656,10.80999862,106.6711301,7:00 - 21:00,7:00 - 21:00,7:00 - 21:00,7:00 - 21:00,7:00 - 21:00,7:00 - 21:00,7:00 - 21:00,"wiFi, mobileOrderandPay"
Thảo Điền Pearl,"12 Quốc Hương, Quận 2, Tp. Hồ Chí Minh",+842835350592,10.80139068,106.7331363,7:00 - 22:00,7:00 - 22:00,7:00 - 22:00,7:00 - 22:00,7:00 - 22:00,7:00 - 22:00,7:00 - 22:00,"wiFi, mobileOrderandPay"
Saigon Royal,"Lot 1.01, Saigon Royal A Tower, 34-35 Bến Vân Đồn, Phường 12, Quận 4, Tp. Hồ Chí Minh",+842835356122,10.76746347,106.7036567,7:00 - 22:00,7:00 - 22:00,7:00 - 22:00,7:00 - 22:00,7:00 - 22:00,7:00 - 22:00,7:00 - 22:00,"wiFi, mobileOrderandPay"
The Emporium,"A1-01B, Tầng 1, Tòa nhà Bảo Gia, 184 Le Đại Hành, Phường 15, Quận 11, Tp. Hồ Chí Minh",+842835358128,10.76516195,106.6555186,7:00 - 21:30,7:00 - 21:30,7:00 - 21:30,7:00 - 21:30,7:00 - 21:30,7:00 - 21:30,7:00 - 21:30,"wiFi, mobileOrderandPay"
Hưng Phước,"45-47, Hưng Phước II, Phường Tân Phong, Quận 7, Tp. Hồ Chí Minh",+842854109723,10.73232656,106.7067197,7:00 - 22:00,7:00 - 22:00,7:00 - 22:00,7:00 - 22:00,7:00 - 22:00,7:00 - 22:00,7:00 - 22:00,"wiFi, mobileOrderandPay"
Aeon Mall Bình Tân,"TTTM Aeon Mall Bình Tân, Số 1, Đường Số 17A, Phường Bình Trị Đông B, Quận Bình Tân, Tp. Hồ Chí Minh
",+842835351675,10.74301715,106.6119096,8:00 - 22:00,8:00 - 22:00,8:00 - 22:00,8:00 - 22:00,8:00 - 22:00,8:00 - 22:00,8:00 - 22:00,"wiFi, mobileOrderandPay"
Feliz en Vista,"Số 1 Phan Văn Đáng, Phường Thạnh Mỹ Lợi, Quận 2, Tp. Hồ Chí Minh",+842835353203,10.77735589,106.7557063,7:00 - 22:00,7:00 - 22:00,7:00 - 22:00,7:00 - 22:00,7:00 - 22:00,7:00 - 22:00,7:00 - 22:00,"wiFi, mobileOrderandPay"
THISO,"Thiso Mall, 8-10 đường Mai Chí Thọ, P. Thủ Thiêm, Thành phố Thủ Đức, TP.HCM",(028) 3535 2581,10.772288308318066,106.72203926257012,6:30 - 22:00,6:30 - 22:00,6:30 - 22:00,6:30 - 22:00,6:30 - 22:00,6:30 - 22:00,6:30 - 22:00,
Aeon Mall Tân Phú,"TTTM Aeon Mall Tân Phú Celadon, số 30 Tân Thắng, Q. Tân Phú, Tp. Hồ Chí Minh",+842835350185,10.801899,106.6176115,8:00 - 22:00,8:00 - 22:00,8:00 - 22:00,8:00 - 22:00,8:00 - 22:00,8:00 - 22:00,8:00 - 22:00,"wiFi, mobileOrderandPay"
MIDTOWN,"Số 27, Lô M7, Đường số 15, Khu A - Đô thị mới Nam thành phố, P. Tân Phú, Quận 7, TPHCM",028 5411 7377,10.725269347542774,106.72806615767071,6:30 - 21:30 ,6:30 - 21:30 ,6:30 - 21:30 ,6:30 - 21:30 ,6:30 - 21:30 ,6:30 - 21:30 ,6:30 - 21:30 ,
Sun Avenue,"Tầng Trệt - Tháp SAV2, Số 28 Đại lộ Mai Chí Thọ, P. An Phú, TP. Thủ Đức, TPHCM.",028 3636 0083,10.784975216917399,106.74636421534146,7:00 - 21:30,7:00 - 21:30,7:00 - 21:30,7:00 - 21:30,7:00 - 21:30,7:00 - 21:30,7:00 - 21:30,
Central 2 ,"C2-SH.01, Tòa Central 2, Vinhome Central Park, số 720A, Điện Biên Phủ, Q. Bình Thạnh, TP.HCM",028 3620 3602 ,10.79161781237734,106.72231068465852,6:30 - 22:00,6:30 - 22:00,6:30 - 22:00,6:30 - 22:00,6:30 - 22:00,6:30 - 22:00,6:30 - 22:00,
Nguyễn Thị Minh Khai,"82 Nguyễn Thị Minh Khai, Phường 6, Quận 3, TP. HCM",0283 535 2364,10.782165715403236,106.69712995767156,6:30 - 22:00,6:30 - 22:00,6:30 - 22:00,6:30 - 22:00,6:30 - 22:00,6:30 - 22:00,6:30 - 22:00,
COBI,"GF-102A Tầng trệt, Tòa nhà COBI TOWER II, Số 2–4 Đường 8, P. Tân Phú, Quận 7, HCMC",(028) 5411 7350,10.73089497116725,106.72454641567461,7:00 - 22:00 ,7:00 - 22:00 ,7:00 - 22:00 ,7:00 - 22:00 ,7:00 - 22:00 ,7:00 - 22:00 ,7:00 - 22:00 ,
Vinhomes Grand Park Origami,"Tòa Origami S6.05, Vinhome Grand Park, 88 Phước Thiện, phường Long Bình, TP. Thủ Đức, TP.HCM",02835352759,10.844952602132867,106.8391847306829,7:00 - 22:00 ,7:00 - 22:00 ,7:00 - 22:00 ,7:00 - 22:00 ,7:00 - 22:00 ,7:00 - 22:00 ,7:00 - 22:00 ,
Aeon Mall Bình Dương Canary,"TTTM Aeonmall Bình Dương Canary, Số 01 Đại lộ Bình Dương, Thuận An, Bình Dương",+842743726968,10.93273271,106.7115418,7:30 - 22:00,7:30 - 22:00,7:30 - 22:00,7:30 - 22:00,7:30 - 22:00,7:30 - 22:00,7:30 - 22:00,"wiFi, mobileOrderandPay"
HIKARI,"Tầng trệt, Khu phức hợp Hikari, đường Tạo Lực 4, đường XT1A và đường NT8, Khu Đô Thị Mới, Phường Hòa Phú, Thành Phố Thủ Dầu Một, Tỉnh Bình Dương",02743801761,11.058440062028362,106.68434991165671,7:00 - 21:30,7:00 - 21:30,7:00 - 21:30,7:00 - 21:30,7:00 - 21:30,7:00 - 21:30,7:00 - 21:30,
New Horizon Bình Dương,"Chung cư New Horizon - Số 230 Đại lộ Bình Dương, phường Phú Hòa, TP. Thủ Dầu Một, tỉnh Bình Dương
",0274 3801 762,10.97728007787065,106.669693607393, 7:00 - 22:00 , 7:00 - 22:00 , 7:00 - 22:00 , 7:00 - 22:00 , 7:00 - 22:00 , 7:00 - 22:00 , 7:00 - 22:00 ,
Vinpearl Beachfront,"Tầng 1, Vinpearl Condotel Beachfront, Nha Trang",+842583822299,12.23332805,109.197593,7:00 - 22:00,7:00 - 22:00,7:00 - 22:00,7:00 - 22:00,7:00 - 22:00,7:00 - 22:00,7:00 - 22:00,"wiFi, mobileOrderandPay"
Nha Trang Center,"Tầng trệt, Trung Tâm Thương Mại Nha Trang, Nha Trang",+842583820088,12.24833992,109.1961452,7:00 - 22:00,7:00 - 22:00,7:00 - 22:00,7:00 - 22:00,7:00 - 22:00,7:00 - 22:00,7:00 - 22:00,"wiFi, mobileOrderandPay"
Vinwonders,"FB-08, Khu Công viên giải trí VinWonders, Nha Trang",+842583500066,12.21887881,109.2427341,8:00 - 19:00,8:00 - 19:00,8:00 - 19:00,8:00 - 19:00,8:00 - 19:00,8:00 - 19:00,8:00 - 19:00,"wiFi, mobileOrderandPay"
Beach House Sun Primavera,"FB2-03, Khu vực Nhà Hàng Zone 2 Địa Trung Hải thuộc dự án Khu Đô Thị Gateway, Phường An Thới, TP. Phú Quốc, Tỉnh Kiên Giang
",02973667179,10.032486017190129,104.0040297232927,9:00 - 22:00,9:00 - 22:00,9:00 - 22:00,9:00 - 22:00,9:00 - 22:00,9:00 - 22:00,9:00 - 22:00,
Bạch Đằng,"50 Bạch Đằng, Quận Hải Châu, Đà Nẵng",+842363566839,16.07348202,108.2246674,7:00-22:00,7:00-22:00,7:00-22:00,7:00-22:00,7:00-22:00,7:00-22:00,7:00-22:00,"wiFi, mobileOrderandPay"
Bà Nà Hills,"Bà Nà Hills, Tầng 1, Khách sạn Morin, KDL Bà Nà Hills, Đà Nẵng",+842866225693,15.99766208,107.9882594,9:30 - 16:00,9:30 - 16:00,9:30 - 16:00,9:30 - 16:00,9:30 - 16:00,9:30 - 16:00,9:30 - 16:00,"wiFi, mobileOrderandPay"
Bà Nà Main Gate,"Bà Nà Kiosk, Khu Cổng Thành, Bà Nà Hills, Đà Nẵng",+842362233336,16.02653475,108.0329263,9:30 - 16:00,9:30 - 16:00,9:30 - 16:00,9:30 - 16:00,9:30 - 16:00,9:30 - 16:00,9:30 - 16:00,"wiFi, mobileOrderandPay"
Vincom Ngô Quyền,"L1-11, Vincom Center Ngô Quyền, 910A Ngô Quyền, Quận Sơn Trà, Đà Nẵng",+842363929008,16.07193914,108.2298625,7:00-22:00,7:00-22:00,7:00-22:00,7:00-22:00,7:00-22:00,7:00-22:00,7:00-22:00,"wiFi, mobileOrderandPay"
"TRẦN HƯNG ĐẠO, HỘI AN ","Số 40 Trần Hưng Đạo, Phường Cẩm Phô, Hội An, Quảng Nam",(023) 5352 5021,15.880023031349715,108.32794522872071,7:00 - 22:00 ,7:00 - 22:00 ,7:00 - 22:00 ,7:00 - 22:00 ,7:00 - 22:00 ,7:00 - 22:00 ,7:00 - 22:00 ,
Trần Phú,"15A Trần Phú, Quận Ngô Quyền, Hải Phòng",+842253866886,20.85980806,106.6877088,7:00 - 22:00,7:00 - 22:00,7:00 - 22:00,7:00 - 22:00,7:00 - 22:00,7:00 - 22:00,7:00 - 22:00,"wiFi, mobileOrderandPay"
Văn Cao Building,"185 - 187 Văn Cao, Hải Phòng",+842258832301,20.83647042,106.701157,7:00 - 22:00,7:00 - 22:00,7:00 - 22:00,7:00 - 22:00,7:00 - 22:00,7:00 - 22:00,7:00 - 22:00,"wiFi, mobileOrderandPay"
LÊ HỒNG PHONG ,"7B Lê Hồng Phong, khu đô thị mới Ngã 5 - sân bay Cát Bi, phường Đông Khê, quận Ngô Quyền, thành phố Hải Phòng",0225 3250 002,20.8483309505872,106.70655405768498,7:00 - 22:00 ,7:00 - 22:00 ,7:00 - 22:00 ,7:00 - 22:00 ,7:00 - 22:00 ,7:00 - 22:00 ,7:00 - 22:00 ,
Bà Triệu,"314 Bà Triệu, Quận Hai Bà Trưng, Hà Nội
",+842439781817,21.01084353,105.8489574,7:00 - 22:30,7:00 - 22:30,7:00 - 22:30,7:00 - 22:30,7:00 - 22:30,7:00 - 22:30,7:00 - 22:30,"wiFi, mobileOrderandPay"
IPH,"Tầng 1, TTTM The Loop - số 241 Xuân Thủy, Cầu Giấy, Hà Nội",+842437954278,21.03640992,105.7818824,6:30 - 22:00,6:30 - 22:00,6:30 - 22:00,6:30 - 22:00,6:30 - 22:00,6:30 - 22:00,6:30 - 22:00,"wiFi, mobileOrderandPay"
The Garden,"Tầng 1, TTTM The Garden, khu đô thị The Manor, Mễ Trì, Mỹ Đình, Hà Nội",+842433953333,21.01489075,105.7772409,7:00 - 22:00,7:00 - 22:00,7:00 - 22:00,7:00 - 22:00,7:00 - 22:00,7:00 - 22:00,7:00 - 22:00,"wiFi, mobileOrderandPay"
Vincom Phạm Ngọc Thạch,"2 Phạm Ngọc Thạch, Quận Đống Đa, Hà Nội",+842436374374,21.00638197,105.8315948,7:00 - 22:00,7:00 - 22:00,7:00 - 22:00,7:00 - 22:00,7:00 - 22:00,7:00 - 22:00,7:00 - 22:00,"wiFi, mobileOrderandPay"
Somerset West Point,"2 Tây Hồ, Quận Tây Hồ, Hà Nội",+842438526969,21.06685594,105.8260917,6:00 - 22:00,6:00 - 22:00,6:00 - 22:00,6:00 - 22:00,6:00 - 22:00,6:00 - 22:00,6:00 - 22:00,"wiFi, mobileOrderandPay"
Nhà Thờ,"Asia Tower, 6 Nhà Thờ, Quận Hoàn Kiếm, Hà Nội
",+842438325678,21.02945026,105.8501756,7:00 - 22:30,7:00 - 22:30,7:00 - 22:30,7:00 - 22:30,7:00 - 22:30,7:00 - 22:30,7:00 - 22:30,"wiFi, mobileOrderandPay"
Charmvit Tower,"117 Trần Duy Hưng, Quận Cầu Giấy, Hà Nội",+842439682929,21.00829527,105.7979734,6:30 - 18:00,6:30 - 18:00,6:30 - 18:00,6:30 - 18:00,6:30 - 18:00,7:00 - 12:00,Closed,"wiFi, mobileOrderandPay"
Keangnam,"Phạm Hùng, Quận Nam Từ Liêm, Hà Nội",+842432051777,21.0167041,105.7837322,6:30 - 22:00,6:30 - 22:00,6:30 - 22:00,6:30 - 22:00,6:30 - 22:00,6:30 - 22:00,6:30 - 22:00,"wiFi, mobileOrderandPay"
Duy Tân,"32 Duy Tân, Quận Cầu Giấy, Hà Nội",+842436435999,21.0310056,105.7854156,7:00 - 21:00,7:00 - 21:00,7:00 - 21:00,7:00 - 21:00,7:00 - 21:00,7:00 - 21:00,7:00 - 21:00,"wiFi, mobileOrderandPay"
The Legend,"109 Nguyễn Tuân, Phường Thanh Xuân Trung, Quận Thanh Xuân, Hà Nội
",+842473036566,20.99976293,105.801948,7:00 - 22:00,7:00 - 22:00,7:00 - 22:00,7:00 - 22:00,7:00 - 22:00,7:00 - 22:00,7:00 - 22:00,"wiFi, mobileOrderandPay"
Seasons Avenue,"Nguyễn Văn Lộc, Phường Mộ Lao, Quận Hà Đông, Hà Nội",+842466680216,20.98731186,105.7862052,7:00 - 22:00,7:00 - 22:00,7:00 - 22:00,7:00 - 22:00,7:00 - 22:00,7:00 - 22:00,7:00 - 22:00,"wiFi, mobileOrderandPay"
Vincom Metropolis,"TTTM Vincom Center Liễu Giai, 29 Liễu Giai, Phường Ngọc Khánh, Quận Ba Đình, Hà Nội",+842432004433,21.03138538,105.8149927,7:00 - 22:00,7:00 - 22:00,7:00 - 22:00,7:00 - 22:00,7:00 - 22:00,7:00 - 22:00,7:00 - 22:00,"wiFi, mobileOrderandPay"
Vincom Star City,"L1-08B, TTTM Vincom Center Trần Duy Hưng, Trần Duy Hưng, Trung Hòa, Quận Cầu Giấy, Hà Nội",+842473055884,21.00721072,105.7955775,8:00 - 22:00,8:00 - 22:00,8:00 - 22:00,8:00 - 22:00,8:00 - 22:00,8:00 - 22:00,8:00 - 22:00,"wiFi, mobileOrderandPay"
Sân bay Nội Bài,"Cánh B, Tầng 2, Khu Vực Cách Ly Nhà Ga T1, Cảng Hàng Không Quốc Tế Nội Bài, Hà Nội",+842435844363,21.21409002,105.8039903,5:30 - 22:00,5:30 - 22:00,5:30 - 22:00,5:30 - 22:00,5:30 - 22:00,5:30 - 22:00,5:30 - 22:00,"wiFi, mobileOrderandPay"
Vinmec Hà Nội,"BV Vinmec, Times City, 458 Minh Khai, Hà Nội
",+842436252254,20.99406015,105.8674027,6:30 - 22:00,6:30 - 22:00,6:30 - 22:00,6:30 - 22:00,6:30 - 22:00,6:30 - 22:00,6:30 - 22:00,"wiFi, mobileOrderandPay"
Aeon Mall Hà Đông,"T160 161, Tầng 1, Aeon Mall Hà Đông, Dương Nội, Quận Hà Đông, Hà Nội",+842432045401,20.98898686,105.7507639,10:00 - 22:00,10:00 - 22:00,10:00 - 22:00,10:00 - 22:00,10:00 - 22:00,9:00 - 22:00,9:00 - 22:00,"wiFi, mobileOrderandPay"
Royal City,"SO-18, Tòa R3, Royal City, 72A Nguyễn Trãi, Quận Thanh Xuân, Hà Nội",+842466664402,21.00304169,105.814942,7:00 - 22:00,7:00 - 22:00,7:00 - 22:00,7:00 - 22:00,7:00 - 22:00,7:00 - 22:00,7:00 - 22:00,"wiFi, mobileOrderandPay"
Ecopark,"Công Viên Mùa Hạ, Khu đô thị Ecopark, Văn Giang, Hưng Yên",+842212200888,20.97213636,105.9292224,7:00 - 21:30,7:00 - 21:30,7:00 - 21:30,7:00 - 21:30,7:00 - 21:30,7:00 - 21:30,7:00 - 21:30,wiFi
TASCO Mall,"Gian hàng 105A, TTTM TASCO Mall, Hà Nội",+842432012790,21.05037851,105.8933838,7:00 - 21:30,7:00 - 21:30,7:00 - 21:30,7:00 - 21:30,7:00 - 21:30,7:00 - 21:30,7:00 - 21:30,"wiFi, mobileOrderandPay"
Trung Hoà,"101 Trung Hòa, Phường Yên Hòa, Quận Cầu Giấy, Hà Nội",+842432039000,21.01686611,105.7991741,7:00 - 22:00,7:00 - 22:00,7:00 - 22:00,7:00 - 22:00,7:00 - 22:00,7:00 - 22:00,7:00 - 22:00,"wiFi, mobileOrderandPay"
SÂN BAY QUỐC TẾ NỘI BÀI,"Khu vực sảnh chờ (Cổng 22-23), Tầng 3 - ga Quốc Tế T2, Sân bay Nội Bài, Hà Nội",024 3587 5352,21.21891491539175,105.80412798123386,6:30 – 00:00,6:30 – 00:00,6:30 – 00:00,6:30 – 00:00,6:30 – 00:00,6:30 – 00:00,6:30 – 00:00,
Pacific Place,"R105, 83B Lý Thường Kiệt, Quận Hoàn Kiếm, Hà Nội",+842432012793,21.02509258,105.8434287,7:00 - 22:00,7:00 - 22:00,7:00 - 22:00,7:00 - 22:00,7:00 - 22:00,7:00 - 22:00,7:00 - 22:00,"wiFi, mobileOrderandPay"
Aeon Mall Long Biên,"TTTM Aeonmall Long Bien, Số 27 đường Cổ Linh, Long Biên, Hà Nội
",+842432012791,21.02699887,105.9006643,7:00 - 22:00,7:00 - 22:00,7:00 - 22:00,7:00 - 22:00,7:00 - 22:00,7:00 - 22:00,7:00 - 22:00,"wiFi, mobileOrderandPay"
VINCOM LONG BIÊN,"Tầng L1 - TTTM Vincom Long Biên, Phường Phúc Lợi, Quận Long Biên, Hà Nội",02432013327,21.051004749815295,105.91691411534144,7:00 - 22:00,7:00 - 22:00,7:00 - 22:00,7:00 - 22:00,7:00 - 22:00,7:00 - 22:00,7:00 - 22:00,
LOTTE LIỄU GIAI,"54 Liễu Giai, P. Cống Vị, Quận Ba Đình, Hà Nội",024) 3205 7024,21.031984003976493,105.8123354361542,7:00 - 22:00,7:00 - 22:00,7:00 - 22:00,7:00 - 22:00,7:00 - 22:00,7:00 - 22:00,7:00 - 22:00,
Nesta Hotel ,"Nesta Hotel, 268 Võ Nguyên Giáp, Bắc Mỹ Phú, Ngũ Hành Sơn, Đà Nẵng",02363227186,16.0549415945208,108.24707636192687,7:00 - 22:00,7:00 - 22:00,7:00 - 22:00,7:00 - 22:00,7:00 - 22:00,7:00 - 22:00,7:00 - 22:00,
golden field,"24 Nguyễn Cơ Thạch, Nam Từ Liêm, Hà Nội",02432013401,21.03488007538389,105.76562547650614,7:00 - 22:00 ,7:00 - 22:00 ,7:00 - 22:00 ,7:00 - 22:00 ,7:00 - 22:00 ,7:00 - 22:00 ,7:00 - 22:00 ,
Sân bay Nội Bài - Cổng 12 ,"Tầng 2, Cổng 12, Khu vực cách ly nhà ga T1, sân bay Nội Bài, Hà Nội
",02435844448,21.215261076980596,105.80474371235404,5:30 - 21:00,5:30 - 21:00,5:30 - 21:00,5:30 - 21:00,5:30 - 21:00,5:30 - 21:00,5:30 - 21:00,
Sora Mall ,"Sora Gardens, Lô C19, Đại lộ Hùng Vương , TP. Thủ Dầu Một, Bình Dương",0274 380 1763,11.04496037290526,106.6769015,7:00 - 22:00,7:00 - 22:00,7:00 - 22:00,7:00 - 22:00,7:00 - 22:00,7:00 - 22:00,7:00 - 22:00,
Vinhomes Skylake,"Vinhomes Skylake S2, Phạm Hùng, Nam Từ Liêm, Hà Nội",024 3201 2244 ,21.02051897989437,105.78057157726833,7:00 - 22:00,7:00 - 22:00,7:00 - 22:00,7:00 - 22:00,7:00 - 22:00,7:00 - 22:00,7:00 - 22:00,
Ocean Park S2,"Tòa nhà U26 (S2.03), Vinhomes Ocean Park, Gia Lâm, Hà Nội",024 3201 3523,20.992349442508043,105.93943115396185,7:00 - 22:00 ,7:00 - 22:00 ,7:00 - 22:00 ,7:00 - 22:00 ,7:00 - 22:00 ,7:00 - 22:00 ,7:00 - 22:00 ,
Ocean Park Hải Âu Villa,"Lô Thương Mại HA01, Kiêu Kỵ, Gia Lâm, Hà Nội ",02466871596,20.992693401971522,105.9592168458624,7:00 - 22:00 ,7:00 - 22:00 ,7:00 - 22:00 ,7:00 - 22:00 ,7:00 - 22:00 ,7:00 - 22:00 ,7:00 - 22:00 ,
LOTTE WEST LAKE,"Lotte West Lake, 272 Võ Chí Công, Quận Tây Hồ, Hà Nội
",024 3201 3522,21.07604121111996,105.8125869068169,7:00 - 22:00,7:00 - 22:00,7:00 - 22:00,7:00 - 22:00,7:00 - 22:00,7:00 - 22:00,7:00 - 22:00,
VINCOM MEGA MALL THẢO ĐIỀN ,"Tầng 1 - TTTM Vincom Mega Mall Thảo Điền, 161 Võ Nguyên Giáp, Thủ Đức, TP.HCM",028 3519 3001,10.803150280044813,106.74111940052104,6:30 - 22:00 ,6:30 - 22:00 ,6:30 - 22:00 ,6:30 - 22:00 ,6:30 - 22:00 ,6:30 - 22:00 ,6:30 - 22:00 ,
CII Tower,"Tầng 1, tòa nhà CII Tower - số 152 Điện Biên Phủ, Q. Bình Thạnh, TP.HCM",02835122301,10.801481729846826,106.71733985448743,7:00 - 21:30,7:00 - 21:30,7:00 - 21:30,7:00 - 21:30,7:00 - 21:30,7:00 - 21:30,7:00 - 21:30,
hùng vương plaza,"Hùng Vương Plaza, 126 Hồng Bàng, Quận 5, TP. HCM",02835358601,10.756349658043387,106.66221397724374,7:00 - 22:00,7:00 - 22:00,7:00 - 22:00,7:00 - 22:00,7:00 - 22:00,7:00 - 22:00,7:00 - 22:00,
"TRẦN HƯNG ĐẠO, ĐÀ NẴNG","Tầng trệt, số 218 Trần Hưng Đạo, Quận Sơn Trà, Đà Nẵng",023.635.22053,16.05695316175783,108.23230814603362,7:00 - 22:00,7:00 - 22:00,7:00 - 22:00,7:00 - 22:00,7:00 - 22:00,7:00 - 22:00,7:00 - 22:00,
NGUYỄN HỮU HUÂN ,"32-34 Nguyễn Hữu Huân, Q. Hoàn Kiếm, Hà Nội ",02432013601,21.035288994548615,105.85448739206723,7:00 - 22:00,7:00 - 22:00,7:00 - 22:00,7:00 - 22:00,7:00 - 22:00,7:00 - 22:00,7:00 - 22:00,
Q2 TERRACE,"Số 01.12 - 01.124 Tầng 1 và 01.124 Tầng 2, 21 Võ Trường Toản, Phường Thảo Điền, Thành phố Thủ Đức, Thành phố Hồ Chí Minh, Việt Nam",028 3519 3018,10.804440445204834,106.74732114644618,6:30 - 22:00,6:30 - 22:00,6:30 - 22:00,6:30 - 22:00,6:30 - 22:00,6:30 - 22:00,6:30 - 22:00,
The Waterfront Saigon,"1-1A Ton Duc Thang, Ben Nghe Ward, District 1, HCMC
",028 3535 9856,10.780534033945974,106.70767481557311,6:30 - 22:00,6:30 - 22:00,6:30 - 22:00,6:30 - 22:00,6:30 - 22:00,6:30 - 22:00,6:30 - 22:00,
Celadon Boulevard,"Khu A5 Diamond, S.1.0.37, 3 Đường N1, Sơn Kỳ, Tân Phú, Thành phố Hồ Chí Minh",028 3535 6901,10.8034244,106.6131805,7:00 AM – 22:00,7:00 AM – 22:00,7:00 AM – 22:00,7:00 AM – 22:00,7:00 AM – 22:00,7:00 AM – 22:00,7:00 AM – 22:00,
Starbucks Noi Bai International Airport - Gate 34 35,"Khu vực sảnh chờ Cổng 34 35, Tầng 3 Ga Quốc Tế T2, Sân bay Nội Bài, Hà Nội",034 897 8928,21.222541,105.793518,,6:00 AM – 23:30,6:00 AM – 23:30,6:00 AM – 23:30,6:00 AM – 23:30,6:00 AM – 23:30,6:00 AM – 23:30,
Starbucks Sân bay Nội Bài Nội Địa Cổng 6,"Sân Bay Nội Bài Cổng Nội : Nhà ga T1, 2-D6D7-DLDM, tầng 2, sân bay Nội Bài, xã Phú Minh, huyện Sóc Sơn, tp Hà Nội",02435844329,21.2152,105.80462,5:30-22:00,5:30-22:00,5:30-22:00,5:30-22:00,5:30-22:00,5:30-22:00,5:30-22:00,
Hàng Điếu,"54 Hàng Điếu, Cửa Đông, Hoàn Kiếm, Hà Nội 12100",024 3201 3803,21.033435224525412,105.8469330460281,7:00 - 22:00,7:00 - 22:00,7:00 - 22:00,7:00 - 22:00,7:00 - 22:00,7:00 - 22:00,7:00 - 22:00,
Kim Long Villa,"Khu Dân Cư, Kim Long 53-55 Đ. Nguyễn Hữu Thọ, Phú Long, Nhà Bè, Thành phố Hồ Chí Minh 77000",028 3782 1068,10.721665003106091,106.70205619305065,7:00 - 22:00,7:00 - 22:00,7:00 - 22:00,7:00 - 22:00,7:00 - 22:00,7:00 - 22:00,7:00 - 22:00,
Waterbus Thủ Thiêm,"Lô HM1, Bến tàu Thủ Thiêm, Phường Thủ Thiêm, Thành phố Thủ Đức, TP.HCM",028 3535 0925,10.776880223356434,106.71032527728529,14:00 - 23:00,14:00 - 23:00,14:00 - 23:00,14:00 - 23:00,14:00 - 0:00,7:00 - 0:00,7:00 - 0:00,
Võ Thị Sáu ,"49 Đ. Võ Thị Sáu, Quyết Thắng, Thành phố Biên Hòa, Đồng Nai",025 1368 5319,10.9466523681104,106.82469897216488,7:00 - 22:00,7:00 - 22:00,7:00 - 22:00,7:00 - 22:00,7:00 - 22:00,7:00 - 22:00,7:00 - 22:00,
Golden Plaza,"465 Đường Hồng Bàng, Phường 14, Quận 5, Tp. Hồ Chí Minh",,10.753569130362434,106.65503072231996,7:00 - 22:00,7:00 - 22:00,7:00 - 22:00,7:00 - 22:00,7:00 - 22:00,7:00 - 22:00,7:00 - 22:00,
Viet Tower,"Viet Tower, 1-2 Thái Hà, Phường Trung Liệt, Quận Đống Đa, Hà Nội",024 3201 3813,21.009140466290233,105.82380207584754,7:00 - 22:00,7:00 - 22:00,7:00 - 22:00,7:00 - 22:00,7:00 - 22:00,7:00 - 22:00,7:00 - 22:00,
Diamond Plaza,"25 Lê Văn Lương, Phường Nhân Chính, Quận Thanh Xuân, Hà Nội",024 3201 3800,21.005660229734357,105.8055126712003,7:00 - 22:00,7:00 - 22:00,7:00 - 22:00,7:00 - 22:00,7:00 - 22:00,7:00 - 22:00,7:00 - 22:00,
Waterbus Bach Dang,"10B Tôn Đức Thắng, Phường Bến Nghé, Quận 1, TPHCM",028 3622 6098,10.775071664527607,106.70695017632127,7:00 - 23:00,7:00 - 23:00,7:00 - 23:00,7:00 - 23:00,7:00 - 00:00,7:00 - 00:00,7:00 - 00:00,
Starbucks Galaxy Tulips,"Tầng 2, Tòa nhà Galaxy Tulips, số 05 đường Nguyễn Thị Minh Khai, Phường 1, TP. Đà Lạt​",026 3353 2388,11.94269544403167,108.43648192171047,5:00 - 23:00,5:00 - 23:00,5:00 - 23:00,5:00 - 23:00,5:00 - 23:00,5:00 - 23:00,5:00 - 23:00,
Starbucks Phu Quoc Domestic Gate 5,"Cổng số 05, Cảng Hàng Không Quốc Tế, Xã Dương Tơ, Phú Quốc, Kiên Giang",029 7351 0038,10.163334997103123,103.99848173971165,6:30 - 21:00,6:30 - 21:00,6:30 - 21:00,6:30 - 21:00,6:30 - 22:00,6:30 - 22:00,6:30 - 22:00,
Vincom Hạ Long,"Lot 11-L7, Vincom Hạ Long, đường Trần Quốc Nghiễn, Phường Bạch Đằng, TP. Hạ Long, Quảng Ninh",020 3351 5000,20.95055270548475,107.08484603709657,7:00 - 22:00,7:00 - 22:00,7:00 - 22:00,7:00 - 22:00,7:00 - 22:00,7:00 - 22:00,7:00 - 22:00,
Vinwonders Phú Quốc,"QT-V W6-01, QT-V W6-02 Khu phố thương mại Vinwonders, Gành Dầu, Phú Quốc, Kiên Giang",0297 361 2000,10.340805949853465,103.85444859557579,7:00 - 20:00,7:00 - 20:00,7:00 - 20:00,7:00 - 20:00,7:00 - 20:00,7:00 - 20:00,7:00 - 20:00,
Starbucks Sông Hương,"Công Viên 3/2, Đường Lê Lợi, Phường Phú Hội, Tp. Huế, Tỉnh Thừa Thiên Huế (Tầng trệt, nhà hàng Sông Hương Huế)",0234 3999 029,16.46903313542606,107.59096576038876,7:00 - 22:00,7:00 - 22:00,7:00 - 22:00,7:00 - 22:00,7:00 - 22:00,7:00 - 22:00,7:00 - 22:00,
Starbucks Sun Plaza Sapa,"Sun Plaza, 1 Đường Cầu Mây, TT. Sa Pa, Sa Pa, Lào Cai 31786, Việt Nam",02143620001,22.33510208780016,103.8408673103971,7:00-22:00,7:00-22:00,7:00-22:00,7:00-22:00,7:00-22:00,7:00-22:00,7:00-22:00,
Starbucks Vincom Bắc Ninh,"Ngã 6 mặt đường Lý Thái Tổ và đường Trần Hưng Đạo, Bắc Ninh",022 2355 6029,21.17849749735412,106.07260906291776,7:00-22:00,7:00-22:00,7:00-22:00,7:00-22:00,7:00-22:00,7:00-22:00,7:00-22:00,
Starbucks Vincom Thanh Hoá,"27 Trần Phú, phường Lam Sơn, thành phố Thanh Hoá",023 7351 0258,19.809806796419696,105.77781454511845,7:00-22:00,7:00-22:00,7:00-22:00,7:00-22:00,7:00-22:00,7:00-22:00,7:00-22:00,
Starbucks Cam Ranh Nội Bài cổng 1 ,"AK1.1, Khu vực cách ly ga đi nhà ga hành khách T1, Sân Bay Quốc Tế Cam Ranh",025 8385 4012,12.009576784079659,109.21655776164303,6:30-22:00,6:30-22:00,6:30-22:00,6:30-22:00,6:30-22:00,6:30-22:00,6:30-22:00,
Starbucks Quang Trung Hà Nội Reserve,"6A Quang Trung, quận Hoàn Kiếm, Hà Nội",024 3202 0324,21.023472665279606,105.84895308370002,7AM-12AM,7AM-12AM,7AM-12AM,7AM-12AM,7AM-12AM,7AM-12AM,7AM-12AM,
Starbucks Reserve Bitexco,"2 Hải Triều, Bến Nghé, Quận 1, Thành Phố Hồ Chí Minh",0355034476,10.771477235651703,106.70449221364706,7:00-00:00,7:00-00:00,7:00-00:00,7:00-00:00,7:00-00:00,7:00-00:00,7:00-00:00,
Starbucks Xuân Diệu Quy Nhơn,"160 Xuân Diệu, Trần Phú, Quy Nhơn, Bình Định, Việt Nam
",,13.76885319505547,109.23154794232765,7:00-22:00,7:00-22:00,7:00-22:00,7:00-22:00,7:00-22:00,7:00-22:00,7:00-22:00,
Starbucks Bưu Điện Hà Nội,"Tầng 1 toà nhà bưu điện Hà Nội, số 87 đường Đinh Tiên Hoàng, Phường Tràng Tiền, Quận Hoàn Kiếm, Hà Nội",,21.026301853242117,105.8536316,7:00-22:00,7:00-22:00,7:00-22:00,7:00-22:00,7:00-24:00,7:00-24:00,7:00-24:00,
Starbucks Cảng Quốc Tế Hạ Long,"Cảng tàu quốc tế Hạ Long, Bãi Cháy, Hạ Long, Quảng Ninh
",,20.964657933603455,107.00087482350835,7:00-18:30,7:00-18:30,7:00-18:30,7:00-18:30,7:00-18:30,7:00-18:30,7:00-18:30,
